{
"type": "FeatureCollection",
"name": "community_areas",
"crs": { "type": "name", "properties": { "name": "urn:ogc:def:crs:OGC:1.3:CRS84" } },
"xy_coordinate_resolution": 1e-05,
"features": [
{ "type": "Feature", "properties": { "id": "1", "name": "ROGERS PARK", "street_miles": 36.75, "any_miles": 8.19, "low_stress_miles": 3.58, "any_pct": 22.3, "low_stress_pct": 9.75 }, "geometry": { "type": "Polygon", "coordinates": [ [ [ -87.65456, 41.99817 ], [ -87.67684, 41.99796 ], [ -87.68193, 42.00905 ], [ -87.68414, 42.01532 ], [ -87.68465, 42.01948 ], [ -87.67312, 42.01939 ], [ -87.67624, 42.02193 ], [ -87.67706, 42.02304 ], [ -87.66513, 42.02295 ], [ -87.66527, 42.02262 ], [ -87.66479, 42.02222 ], [ -87.66465, 42.02161 ], [ -87.66401, 42.02133 ], [ -87.66373, 42.02036 ], [ -87.66401, 42.02018 ], [ -87.66393, 42.0196 ], [ -87.66364, 42.01937 ], [ -87.66398, 42.01908 ], [ -87.66328, 42.01843 ], [ -87.66309, 42.01685 ], [ -87.66281, 42.01665 ], [ -87.66101, 42.01203 ], [ -87.65646, 42.00742 ], [ -87.65537, 42.00671 ], [ -87.65506, 42.0069 ], [ -87.65584, 42.00631 ], [ -87.65739, 42.00628 ], [ -87.65742, 42.00562 ], [ -87.65671, 42.0043 ], [ -87.65729, 42.00421 ], [ -87.6569, 42.0026 ], [ -87.65604, 42.00122 ], [ -87.65562, 41.99955 ], [ -87.65456, 41.99817 ] ] ] } },
{ "type": "Feature", "properties": { "id": "2", "name": "WEST RIDGE", "street_miles": 74.66, "any_miles": 6.53, "low_stress_miles": 2.28, "any_pct": 8.75, "low_stress_pct": 3.05 }, "geometry": { "type": "Polygon", "coordinates": [ [ [ -87.68465, 42.01948 ], [ -87.68414, 42.01532 ], [ -87.68176, 42.00865 ], [ -87.67684, 41.99796 ], [ -87.67501, 41.99799 ], [ -87.67485, 41.99076 ], [ -87.68967, 41.9905 ], [ -87.68945, 41.98317 ], [ -87.7069, 41.98308 ], [ -87.70985, 41.99281 ], [ -87.71067, 41.99729 ], [ -87.70945, 41.99739 ], [ -87.70901, 42.01913 ], [ -87.68465, 42.01948 ] ] ] } },
{ "type": "Feature", "properties": { "id": "3", "name": "UPTOWN", "street_miles": 34.92, "any_miles": 11.32, "low_stress_miles": 5.68, "any_pct": 32.42, "low_stress_pct": 16.26 }, "geometry": { "type": "Polygon", "coordinates": [ [ [ -87.64102, 41.9548 ], [ -87.66225, 41.95438 ], [ -87.66447, 41.95796 ], [ -87.66595, 41.96163 ], [ -87.67398, 41.96153 ], [ -87.67441, 41.9761 ], [ -87.65126, 41.97646 ], [ -87.64904, 41.97681 ], [ -87.64729, 41.97775 ], [ -87.64669, 41.97747 ], [ -87.64614, 41.97784 ], [ -87.64666, 41.97744 ], [ -87.64637, 41.97692 ], [ -87.64614, 41.97286 ], [ -87.64503, 41.9708 ], [ -87.64263, 41.96835 ], [ -87.64301, 41.96849 ], [ -87.64327, 41.96831 ], [ -87.64297, 41.96806 ], [ -87.64256, 41.9683 ], [ -87.64049, 41.96692 ], [ -87.63743, 41.96604 ], [ -87.63199, 41.96507 ], [ -87.63184, 41.96669 ], [ -87.63096, 41.96842 ], [ -87.63118, 41.96874 ], [ -87.63163, 41.96876 ], [ -87.63182, 41.96815 ], [ -87.63197, 41.96854 ], [ -87.63157, 41.96884 ], [ -87.63106, 41.96875 ], [ -87.63088, 41.96837 ], [ -87.63164, 41.96701 ], [ -87.63192, 41.96577 ], [ -87.63167, 41.96404 ], [ -87.631, 41.96323 ], [ -87.63145, 41.96245 ], [ -87.63422, 41.96138 ], [ -87.63664, 41.95954 ], [ -87.63817, 41.95935 ], [ -87.6401, 41.95967 ], [ -87.6403, 41.95919 ], [ -87.64016, 41.95969 ], [ -87.6408, 41.95998 ], [ -87.64096, 41.9603 ], [ -87.64074, 41.96079 ], [ -87.64026, 41.96089 ], [ -87.63882, 41.96029 ], [ -87.63732, 41.96049 ], [ -87.63583, 41.96138 ], [ -87.63535, 41.96204 ], [ -87.63541, 41.96249 ], [ -87.63592, 41.96284 ], [ -87.63685, 41.96288 ], [ -87.64125, 41.96234 ], [ -87.64212, 41.96183 ], [ -87.64228, 41.96119 ], [ -87.64153, 41.96018 ], [ -87.64161, 41.9594 ], [ -87.64102, 41.95935 ], [ -87.64163, 41.95933 ], [ -87.64175, 41.95836 ], [ -87.64102, 41.9548 ] ] ] } },
{ "type": "Feature", "properties": { "id": "4", "name": "LINCOLN SQUARE", "street_miles": 46.66, "any_miles": 14.98, "low_stress_miles": 8.58, "any_pct": 32.09, "low_stress_pct": 18.39 }, "geometry": { "type": "Polygon", "coordinates": [ [ [ -87.67471, 41.99076 ], [ -87.67398, 41.96153 ], [ -87.69475, 41.96127 ], [ -87.69578, 41.96337 ], [ -87.70108, 41.96852 ], [ -87.70322, 41.97124 ], [ -87.7069, 41.98308 ], [ -87.68945, 41.98317 ], [ -87.68967, 41.9905 ], [ -87.67471, 41.99076 ] ] ] } },
{ "type": "Feature", "properties": { "id": "5", "name": "NORTH CENTER", "street_miles": 44.32, "any_miles": 9.79, "low_stress_miles": 3.97, "any_pct": 22.08, "low_stress_pct": 8.95 }, "geometry": { "type": "Polygon", "coordinates": [ [ [ -87.67336, 41.93234 ], [ -87.68284, 41.93223 ], [ -87.68348, 41.93342 ], [ -87.68549, 41.9338 ], [ -87.68849, 41.93643 ], [ -87.69015, 41.9367 ], [ -87.69149, 41.93879 ], [ -87.69363, 41.94026 ], [ -87.6954, 41.9431 ], [ -87.69686, 41.95001 ], [ -87.69455, 41.95392 ], [ -87.69427, 41.95703 ], [ -87.69475, 41.96127 ], [ -87.67398, 41.96153 ], [ -87.67336, 41.93234 ] ] ] } },
{ "type": "Feature", "properties": { "id": "6", "name": "LAKE VIEW", "street_miles": 66.19, "any_miles": 11.97, "low_stress_miles": 4.31, "any_pct": 18.08, "low_stress_pct": 6.51 }, "geometry": { "type": "Polygon", "coordinates": [ [ [ -87.64102, 41.9548 ], [ -87.63755, 41.94743 ], [ -87.63506, 41.94448 ], [ -87.63305, 41.94262 ], [ -87.63308, 41.94227 ], [ -87.63371, 41.94222 ], [ -87.63449, 41.94319 ], [ -87.63542, 41.94291 ], [ -87.63592, 41.94298 ], [ -87.63736, 41.94579 ], [ -87.63889, 41.94631 ], [ -87.64002, 41.9464 ], [ -87.64111, 41.9476 ], [ -87.64187, 41.948 ], [ -87.64213, 41.94786 ], [ -87.64005, 41.94595 ], [ -87.64046, 41.94483 ], [ -87.63959, 41.9436 ], [ -87.63872, 41.94294 ], [ -87.63835, 41.94129 ], [ -87.63712, 41.93983 ], [ -87.63695, 41.94026 ], [ -87.63673, 41.94023 ], [ -87.63682, 41.93976 ], [ -87.63547, 41.93973 ], [ -87.63499, 41.94015 ], [ -87.63478, 41.94069 ], [ -87.63517, 41.94071 ], [ -87.63515, 41.94086 ], [ -87.63476, 41.94074 ], [ -87.63445, 41.94186 ], [ -87.634, 41.94162 ], [ -87.63355, 41.93936 ], [ -87.63229, 41.93724 ], [ -87.6321, 41.93584 ], [ -87.63044, 41.93367 ], [ -87.63066, 41.93253 ], [ -87.63073, 41.93306 ], [ -87.63138, 41.93297 ], [ -87.6316, 41.93258 ], [ -87.63244, 41.93259 ], [ -87.63282, 41.93293 ], [ -87.634, 41.93301 ], [ -87.63472, 41.9328 ], [ -87.63809, 41.93293 ], [ -87.67336, 41.93234 ], [ -87.67398, 41.96153 ], [ -87.66595, 41.96163 ], [ -87.66447, 41.95796 ], [ -87.66225, 41.95438 ], [ -87.64102, 41.9548 ] ] ] } },
{ "type": "Feature", "properties": { "id": "7", "name": "LINCOLN PARK", "street_miles": 61.1, "any_miles": 11.7, "low_stress_miles": 1.57, "any_pct": 19.15, "low_stress_pct": 2.58 }, "geometry": { "type": "Polygon", "coordinates": [ [ [ -87.63251, 41.9326 ], [ -87.63125, 41.93239 ], [ -87.63107, 41.93259 ], [ -87.63124, 41.93239 ], [ -87.63069, 41.93187 ], [ -87.631, 41.93041 ], [ -87.63091, 41.92932 ], [ -87.6304, 41.92808 ], [ -87.63061, 41.928 ], [ -87.6296, 41.92658 ], [ -87.62971, 41.92609 ], [ -87.63027, 41.92575 ], [ -87.62994, 41.92355 ], [ -87.629, 41.92275 ], [ -87.62834, 41.92307 ], [ -87.62949, 41.92244 ], [ -87.62854, 41.92103 ], [ -87.6277, 41.92136 ], [ -87.62893, 41.92082 ], [ -87.62796, 41.9195 ], [ -87.62733, 41.91975 ], [ -87.62842, 41.91917 ], [ -87.62735, 41.918 ], [ -87.6268, 41.91825 ], [ -87.62789, 41.91757 ], [ -87.62671, 41.91644 ], [ -87.62609, 41.91684 ], [ -87.62681, 41.91629 ], [ -87.62487, 41.91472 ], [ -87.62319, 41.91378 ], [ -87.62173, 41.91353 ], [ -87.62062, 41.91379 ], [ -87.62057, 41.91337 ], [ -87.62021, 41.91391 ], [ -87.62021, 41.91456 ], [ -87.62047, 41.91479 ], [ -87.62099, 41.91479 ], [ -87.6205, 41.91485 ], [ -87.62016, 41.91458 ], [ -87.62019, 41.91379 ], [ -87.62063, 41.91326 ], [ -87.62293, 41.91267 ], [ -87.62446, 41.91157 ], [ -87.6264, 41.91137 ], [ -87.62657, 41.91167 ], [ -87.62717, 41.91125 ], [ -87.65686, 41.91078 ], [ -87.65786, 41.91381 ], [ -87.65865, 41.91471 ], [ -87.66113, 41.91618 ], [ -87.66303, 41.91549 ], [ -87.66377, 41.91568 ], [ -87.66453, 41.9177 ], [ -87.6681, 41.92203 ], [ -87.66928, 41.92239 ], [ -87.67111, 41.92241 ], [ -87.67216, 41.92281 ], [ -87.67426, 41.92439 ], [ -87.67455, 41.92614 ], [ -87.67494, 41.92666 ], [ -87.67652, 41.92759 ], [ -87.67971, 41.92846 ], [ -87.6808, 41.93064 ], [ -87.68215, 41.9314 ], [ -87.68284, 41.93215 ], [ -87.63809, 41.93293 ], [ -87.63472, 41.9328 ], [ -87.634, 41.93301 ], [ -87.63282, 41.93293 ], [ -87.63251, 41.9326 ] ] ] } },
{ "type": "Feature", "properties": { "id": "8", "name": "NEAR NORTH SIDE", "street_miles": 57.13, "any_miles": 9.87, "low_stress_miles": 2.81, "any_pct": 17.28, "low_stress_pct": 4.91 }, "geometry": { "type": "Polygon", "coordinates": [ [ [ -87.62446, 41.91157 ], [ -87.6251, 41.91027 ], [ -87.62509, 41.90911 ], [ -87.62372, 41.90405 ], [ -87.62259, 41.90319 ], [ -87.62187, 41.90205 ], [ -87.61988, 41.90155 ], [ -87.61923, 41.9011 ], [ -87.61369, 41.89313 ], [ -87.61262, 41.89341 ], [ -87.61203, 41.89333 ], [ -87.61015, 41.89623 ], [ -87.60243, 41.89637 ], [ -87.60235, 41.89326 ], [ -87.60982, 41.89315 ], [ -87.6098, 41.89222 ], [ -87.60071, 41.89244 ], [ -87.60058, 41.89224 ], [ -87.59855, 41.89227 ], [ -87.59852, 41.89145 ], [ -87.60057, 41.89142 ], [ -87.60072, 41.89107 ], [ -87.60954, 41.89101 ], [ -87.60955, 41.88931 ], [ -87.61123, 41.88931 ], [ -87.61144, 41.89063 ], [ -87.61441, 41.8904 ], [ -87.61441, 41.89056 ], [ -87.61987, 41.89047 ], [ -87.61987, 41.89017 ], [ -87.61271, 41.89023 ], [ -87.61255, 41.88963 ], [ -87.61397, 41.88841 ], [ -87.61801, 41.88831 ], [ -87.62509, 41.88891 ], [ -87.62762, 41.88751 ], [ -87.63562, 41.88745 ], [ -87.63759, 41.88623 ], [ -87.63877, 41.88716 ], [ -87.63944, 41.88923 ], [ -87.64151, 41.89197 ], [ -87.64407, 41.89414 ], [ -87.64423, 41.89664 ], [ -87.64489, 41.89769 ], [ -87.64879, 41.89809 ], [ -87.6519, 41.90001 ], [ -87.65538, 41.90081 ], [ -87.65592, 41.90121 ], [ -87.65647, 41.90262 ], [ -87.65816, 41.90453 ], [ -87.65829, 41.90504 ], [ -87.65749, 41.90909 ], [ -87.65923, 41.90907 ], [ -87.65895, 41.90985 ], [ -87.65694, 41.91052 ], [ -87.65686, 41.91078 ], [ -87.62717, 41.91125 ], [ -87.62657, 41.91167 ], [ -87.6264, 41.91137 ], [ -87.62446, 41.91157 ] ] ] } },
{ "type": "Feature", "properties": { "id": "9", "name": "EDISON PARK", "street_miles": 25.91, "any_miles": 0.37, "low_stress_miles": 0.0, "any_pct": 1.43, "low_stress_pct": 0.0 }, "geometry": { "type": "Polygon", "coordinates": [ [ [ -87.80655, 42.01896 ], [ -87.80682, 41.99539 ], [ -87.81033, 41.99542 ], [ -87.81035, 41.99712 ], [ -87.82141, 41.99685 ], [ -87.82125, 42.01136 ], [ -87.81973, 42.01139 ], [ -87.81973, 42.01193 ], [ -87.8201, 42.01193 ], [ -87.82007, 42.01557 ], [ -87.82123, 42.01554 ], [ -87.82121, 42.01864 ], [ -87.80655, 42.01896 ] ] ] } },
{ "type": "Feature", "properties": { "id": "10", "name": "NORWOOD PARK", "street_miles": 91.64, "any_miles": 2.81, "low_stress_miles": 0.0, "any_pct": 3.07, "low_stress_pct": 0.0 }, "geometry": { "type": "Polygon", "coordinates": [ [ [ -87.78002, 41.99741 ], [ -87.78285, 41.9974 ], [ -87.78287, 41.99616 ], [ -87.77782, 41.99386 ], [ -87.77804, 41.9829 ], [ -87.78773, 41.9829 ], [ -87.78801, 41.96889 ], [ -87.80252, 41.96877 ], [ -87.80254, 41.9683 ], [ -87.80716, 41.96827 ], [ -87.80707, 41.97454 ], [ -87.81692, 41.97429 ], [ -87.81695, 41.97066 ], [ -87.81899, 41.97061 ], [ -87.81897, 41.97322 ], [ -87.81943, 41.97322 ], [ -87.8194, 41.97422 ], [ -87.82674, 41.97403 ], [ -87.82674, 41.97314 ], [ -87.83173, 41.97306 ], [ -87.83172, 41.97395 ], [ -87.83342, 41.97392 ], [ -87.83363, 41.97537 ], [ -87.83663, 41.97531 ], [ -87.83658, 41.9864 ], [ -87.82333, 41.98451 ], [ -87.82141, 41.99685 ], [ -87.81035, 41.99712 ], [ -87.81033, 41.99542 ], [ -87.80682, 41.99539 ], [ -87.80676, 42.00084 ], [ -87.80539, 42.00086 ], [ -87.80529, 42.0015 ], [ -87.80108, 42.00154 ], [ -87.80109, 42.00087 ], [ -87.79966, 42.00087 ], [ -87.79948, 41.99999 ], [ -87.79714, 42.00001 ], [ -87.79712, 42.00094 ], [ -87.79117, 42.00098 ], [ -87.79065, 42.0004 ], [ -87.79019, 42.00061 ], [ -87.78807, 41.99965 ], [ -87.78686, 41.99985 ], [ -87.78559, 41.99972 ], [ -87.78445, 42.00017 ], [ -87.78306, 42.00008 ], [ -87.78211, 42.00246 ], [ -87.78151, 42.00296 ], [ -87.78068, 42.00261 ], [ -87.78029, 42.00161 ], [ -87.78002, 41.99741 ] ], [ [ -87.82818, 41.98384 ], [ -87.83358, 41.98357 ], [ -87.8336, 41.98267 ], [ -87.83507, 41.98267 ], [ -87.83509, 41.98115 ], [ -87.83435, 41.98116 ], [ -87.83435, 41.981 ], [ -87.83436, 41.98085 ], [ -87.8351, 41.98084 ], [ -87.8351, 41.9805 ], [ -87.82886, 41.9806 ], [ -87.8287, 41.97929 ], [ -87.82808, 41.97929 ], [ -87.82808, 41.97912 ], [ -87.8287, 41.97912 ], [ -87.82864, 41.97844 ], [ -87.82972, 41.97842 ], [ -87.82971, 41.97813 ], [ -87.83002, 41.97813 ], [ -87.83004, 41.97733 ], [ -87.82961, 41.97734 ], [ -87.8296, 41.97696 ], [ -87.83362, 41.97689 ], [ -87.83362, 41.97592 ], [ -87.82443, 41.97607 ], [ -87.82352, 41.98309 ], [ -87.8253, 41.98307 ], [ -87.82527, 41.98196 ], [ -87.82814, 41.98192 ], [ -87.82818, 41.98384 ] ] ] } },
{ "type": "Feature", "properties": { "id": "11", "name": "JEFFERSON PARK", "street_miles": 48.6, "any_miles": 5.6, "low_stress_miles": 0.0, "any_pct": 11.53, "low_stress_pct": 0.0 }, "geometry": { "type": "Polygon", "coordinates": [ [ [ -87.75264, 41.96797 ], [ -87.76075, 41.96788 ], [ -87.76136, 41.96759 ], [ -87.76748, 41.96778 ], [ -87.7675, 41.96869 ], [ -87.78801, 41.96841 ], [ -87.78773, 41.9829 ], [ -87.77804, 41.9829 ], [ -87.77782, 41.99386 ], [ -87.78287, 41.99616 ], [ -87.78285, 41.9974 ], [ -87.78002, 41.99741 ], [ -87.7799, 41.99695 ], [ -87.77949, 41.99671 ], [ -87.77888, 41.99677 ], [ -87.77833, 41.99713 ], [ -87.77731, 41.99699 ], [ -87.77671, 41.99725 ], [ -87.77587, 41.99666 ], [ -87.77358, 41.99706 ], [ -87.77155, 41.9965 ], [ -87.77116, 41.99571 ], [ -87.77137, 41.99491 ], [ -87.77222, 41.99408 ], [ -87.77353, 41.99361 ], [ -87.7737, 41.99312 ], [ -87.7729, 41.99179 ], [ -87.77093, 41.99143 ], [ -87.77087, 41.99112 ], [ -87.77148, 41.99084 ], [ -87.77174, 41.9901 ], [ -87.7714, 41.98954 ], [ -87.77048, 41.98906 ], [ -87.76796, 41.98877 ], [ -87.76762, 41.98906 ], [ -87.76764, 41.98958 ], [ -87.7669, 41.99001 ], [ -87.76576, 41.99014 ], [ -87.76415, 41.98936 ], [ -87.76373, 41.98969 ], [ -87.76298, 41.98981 ], [ -87.7626, 41.99025 ], [ -87.7621, 41.99014 ], [ -87.76159, 41.98879 ], [ -87.76227, 41.98824 ], [ -87.76229, 41.98795 ], [ -87.76183, 41.98767 ], [ -87.76067, 41.98797 ], [ -87.75506, 41.97729 ], [ -87.75533, 41.97745 ], [ -87.75519, 41.9725 ], [ -87.75281, 41.97249 ], [ -87.75264, 41.96797 ] ] ] } },
{ "type": "Feature", "properties": { "id": "12", "name": "FOREST GLEN", "street_miles": 57.67, "any_miles": 0.85, "low_stress_miles": 0.0, "any_pct": 1.48, "low_stress_pct": 0.0 }, "geometry": { "type": "Polygon", "coordinates": [ [ [ -87.76919, 42.00489 ], [ -87.76579, 42.00333 ], [ -87.76547, 42.00374 ], [ -87.76754, 42.00471 ], [ -87.76746, 42.00832 ], [ -87.76166, 42.00827 ], [ -87.76189, 42.00324 ], [ -87.76227, 42.00169 ], [ -87.7529, 41.9973 ], [ -87.72642, 41.99725 ], [ -87.73186, 41.99009 ], [ -87.73287, 41.99008 ], [ -87.73418, 41.98829 ], [ -87.73841, 41.98632 ], [ -87.73831, 41.98271 ], [ -87.74699, 41.98263 ], [ -87.74743, 41.98344 ], [ -87.74826, 41.98368 ], [ -87.74786, 41.96994 ], [ -87.7475, 41.9686 ], [ -87.74772, 41.96803 ], [ -87.75264, 41.96797 ], [ -87.75281, 41.97249 ], [ -87.75519, 41.9725 ], [ -87.75533, 41.97745 ], [ -87.75506, 41.97729 ], [ -87.76067, 41.98797 ], [ -87.76183, 41.98767 ], [ -87.76229, 41.98795 ], [ -87.76227, 41.98824 ], [ -87.76159, 41.98879 ], [ -87.7621, 41.99014 ], [ -87.7626, 41.99025 ], [ -87.76298, 41.98981 ], [ -87.76373, 41.98969 ], [ -87.76415, 41.98936 ], [ -87.76576, 41.99014 ], [ -87.7669, 41.99001 ], [ -87.76764, 41.98958 ], [ -87.76762, 41.98906 ], [ -87.76796, 41.98877 ], [ -87.77039, 41.98904 ], [ -87.77112, 41.98931 ], [ -87.77174, 41.99018 ], [ -87.77148, 41.99084 ], [ -87.77094, 41.99103 ], [ -87.77088, 41.99136 ], [ -87.7729, 41.99179 ], [ -87.77345, 41.9924 ], [ -87.77371, 41.99327 ], [ -87.77353, 41.99361 ], [ -87.7723, 41.99404 ], [ -87.77151, 41.9947 ], [ -87.77116, 41.99545 ], [ -87.77136, 41.99631 ], [ -87.77201, 41.99673 ], [ -87.77349, 41.99706 ], [ -87.77587, 41.99666 ], [ -87.77671, 41.99725 ], [ -87.77723, 41.99699 ], [ -87.77826, 41.99714 ], [ -87.77888, 41.99677 ], [ -87.77971, 41.99678 ], [ -87.78002, 41.99742 ], [ -87.78029, 42.00161 ], [ -87.78099, 42.00287 ], [ -87.78159, 42.00295 ], [ -87.78203, 42.00259 ], [ -87.78318, 42.00002 ], [ -87.78428, 42.00019 ], [ -87.78534, 41.99975 ], [ -87.78686, 41.99985 ], [ -87.78793, 41.99963 ], [ -87.79019, 42.00061 ], [ -87.782, 42.0045 ], [ -87.7831, 42.00542 ], [ -87.78872, 42.012 ], [ -87.77927, 42.01199 ], [ -87.7791, 42.01544 ], [ -87.77697, 42.01539 ], [ -87.77705, 42.01198 ], [ -87.77335, 42.01196 ], [ -87.77036, 42.00619 ], [ -87.76995, 42.00638 ], [ -87.76919, 42.00489 ] ] ] } },
{ "type": "Feature", "properties": { "id": "13", "name": "NORTH PARK", "street_miles": 31.01, "any_miles": 2.05, "low_stress_miles": 0.36, "any_pct": 6.6, "low_stress_pct": 1.15 }, "geometry": { "type": "Polygon", "coordinates": [ [ [ -87.70985, 41.99281 ], [ -87.70404, 41.97355 ], [ -87.70478, 41.97395 ], [ -87.70668, 41.97443 ], [ -87.70874, 41.97468 ], [ -87.71101, 41.97396 ], [ -87.71232, 41.97244 ], [ -87.71403, 41.97197 ], [ -87.71567, 41.97192 ], [ -87.71972, 41.97382 ], [ -87.72266, 41.9745 ], [ -87.72444, 41.97581 ], [ -87.72597, 41.97612 ], [ -87.72731, 41.97554 ], [ -87.72823, 41.97553 ], [ -87.72813, 41.97188 ], [ -87.73183, 41.97184 ], [ -87.7319, 41.97363 ], [ -87.73312, 41.97365 ], [ -87.73317, 41.97548 ], [ -87.74799, 41.97534 ], [ -87.74826, 41.98368 ], [ -87.74743, 41.98344 ], [ -87.74699, 41.98263 ], [ -87.73831, 41.98271 ], [ -87.73841, 41.98632 ], [ -87.73418, 41.98829 ], [ -87.73287, 41.99008 ], [ -87.73186, 41.99009 ], [ -87.72642, 41.99725 ], [ -87.71067, 41.99737 ], [ -87.70985, 41.99281 ] ] ] } },
{ "type": "Feature", "properties": { "id": "14", "name": "ALBANY PARK", "street_miles": 42.85, "any_miles": 6.53, "low_stress_miles": 2.06, "any_pct": 15.25, "low_stress_pct": 4.82 }, "geometry": { "type": "Polygon", "coordinates": [ [ [ -87.70404, 41.97355 ], [ -87.70353, 41.97186 ], [ -87.70265, 41.97034 ], [ -87.70108, 41.96852 ], [ -87.69605, 41.96368 ], [ -87.69475, 41.96127 ], [ -87.72969, 41.96093 ], [ -87.73785, 41.96654 ], [ -87.7379, 41.96813 ], [ -87.74772, 41.96803 ], [ -87.7475, 41.9686 ], [ -87.74785, 41.96972 ], [ -87.74799, 41.97534 ], [ -87.73317, 41.97548 ], [ -87.73312, 41.97365 ], [ -87.7319, 41.97363 ], [ -87.73183, 41.97184 ], [ -87.72813, 41.97188 ], [ -87.72823, 41.97553 ], [ -87.72731, 41.97554 ], [ -87.72597, 41.97612 ], [ -87.72444, 41.97581 ], [ -87.72266, 41.9745 ], [ -87.71972, 41.97382 ], [ -87.71567, 41.97192 ], [ -87.71403, 41.97197 ], [ -87.71232, 41.97244 ], [ -87.71101, 41.97396 ], [ -87.70874, 41.97468 ], [ -87.70668, 41.97443 ], [ -87.70478, 41.97395 ], [ -87.70404, 41.97355 ] ] ] } },
{ "type": "Feature", "properties": { "id": "15", "name": "PORTAGE PARK", "street_miles": 87.3, "any_miles": 6.87, "low_stress_miles": 3.08, "any_pct": 7.87, "low_stress_pct": 3.53 }, "geometry": { "type": "Polygon", "coordinates": [ [ [ -87.76075, 41.96788 ], [ -87.74772, 41.96803 ], [ -87.74761, 41.9643 ], [ -87.74718, 41.96339 ], [ -87.74791, 41.96348 ], [ -87.7471, 41.96323 ], [ -87.74717, 41.96264 ], [ -87.74651, 41.96191 ], [ -87.74444, 41.96076 ], [ -87.74648, 41.96074 ], [ -87.74273, 41.95347 ], [ -87.7425, 41.95347 ], [ -87.74225, 41.94254 ], [ -87.74296, 41.94253 ], [ -87.7429, 41.94069 ], [ -87.74216, 41.9407 ], [ -87.74211, 41.93889 ], [ -87.77621, 41.93845 ], [ -87.77677, 41.95306 ], [ -87.78656, 41.95292 ], [ -87.78705, 41.9633 ], [ -87.78677, 41.96355 ], [ -87.78677, 41.96843 ], [ -87.7675, 41.96869 ], [ -87.76748, 41.96778 ], [ -87.76136, 41.96759 ], [ -87.76075, 41.96788 ] ] ] } },
{ "type": "Feature", "properties": { "id": "16", "name": "IRVING PARK", "street_miles": 69.53, "any_miles": 10.25, "low_stress_miles": 5.73, "any_pct": 14.74, "low_stress_pct": 8.24 }, "geometry": { "type": "Polygon", "coordinates": [ [ [ -87.69475, 41.96127 ], [ -87.69427, 41.95703 ], [ -87.69455, 41.95392 ], [ -87.69686, 41.95001 ], [ -87.6962, 41.9467 ], [ -87.7274, 41.94637 ], [ -87.72719, 41.9391 ], [ -87.74211, 41.93889 ], [ -87.74216, 41.9407 ], [ -87.7429, 41.94069 ], [ -87.74296, 41.94253 ], [ -87.74225, 41.94254 ], [ -87.7425, 41.95347 ], [ -87.74273, 41.95347 ], [ -87.74648, 41.96074 ], [ -87.74444, 41.96076 ], [ -87.74651, 41.96191 ], [ -87.74717, 41.96264 ], [ -87.7471, 41.96323 ], [ -87.74791, 41.96348 ], [ -87.74718, 41.96339 ], [ -87.74761, 41.9643 ], [ -87.74772, 41.96803 ], [ -87.7379, 41.96813 ], [ -87.73785, 41.96654 ], [ -87.72969, 41.96093 ], [ -87.69475, 41.96127 ] ] ] } },
{ "type": "Feature", "properties": { "id": "17", "name": "DUNNING", "street_miles": 72.71, "any_miles": 2.3, "low_stress_miles": 0.51, "any_pct": 3.16, "low_stress_pct": 0.7 }, "geometry": { "type": "Polygon", "coordinates": [ [ [ -87.77621, 41.93845 ], [ -87.80675, 41.938 ], [ -87.80662, 41.93451 ], [ -87.81639, 41.93431 ], [ -87.81652, 41.93794 ], [ -87.83481, 41.93758 ], [ -87.83512, 41.94467 ], [ -87.83643, 41.94476 ], [ -87.8367, 41.95936 ], [ -87.83268, 41.95944 ], [ -87.83182, 41.9557 ], [ -87.83179, 41.95216 ], [ -87.80727, 41.95276 ], [ -87.80729, 41.95387 ], [ -87.79433, 41.96003 ], [ -87.78681, 41.96022 ], [ -87.78656, 41.95292 ], [ -87.77677, 41.95306 ], [ -87.77621, 41.93845 ] ] ] } },
{ "type": "Feature", "properties": { "id": "18", "name": "MONTCLARE", "street_miles": 20.36, "any_miles": 0.0, "low_stress_miles": 0.0, "any_pct": 0.0, "low_stress_pct": 0.0 }, "geometry": { "type": "Polygon", "coordinates": [ [ [ -87.78942, 41.91751 ], [ -87.80327, 41.9225 ], [ -87.80623, 41.92337 ], [ -87.80675, 41.938 ], [ -87.79077, 41.93824 ], [ -87.79026, 41.91898 ], [ -87.79008, 41.91821 ], [ -87.78942, 41.91751 ] ] ] } },
{ "type": "Feature", "properties": { "id": "19", "name": "BELMONT CRAGIN", "street_miles": 82.87, "any_miles": 12.0, "low_stress_miles": 2.43, "any_pct": 14.48, "low_stress_pct": 2.93 }, "geometry": { "type": "Polygon", "coordinates": [ [ [ -87.74134, 41.9139 ], [ -87.75509, 41.91547 ], [ -87.75588, 41.9154 ], [ -87.75925, 41.91609 ], [ -87.76381, 41.91663 ], [ -87.78527, 41.91645 ], [ -87.78723, 41.91672 ], [ -87.78927, 41.91743 ], [ -87.79008, 41.91821 ], [ -87.79026, 41.91898 ], [ -87.79077, 41.93824 ], [ -87.74217, 41.93889 ], [ -87.74134, 41.9139 ] ] ] } },
{ "type": "Feature", "properties": { "id": "20", "name": "HERMOSA", "street_miles": 24.31, "any_miles": 2.56, "low_stress_miles": 1.14, "any_pct": 10.53, "low_stress_pct": 4.68 }, "geometry": { "type": "Polygon", "coordinates": [ [ [ -87.73522, 41.93899 ], [ -87.7277, 41.92447 ], [ -87.72677, 41.92448 ], [ -87.72644, 41.92265 ], [ -87.72708, 41.92265 ], [ -87.7267, 41.92188 ], [ -87.72661, 41.91899 ], [ -87.72488, 41.91902 ], [ -87.72391, 41.9172 ], [ -87.72422, 41.9172 ], [ -87.72406, 41.91537 ], [ -87.72314, 41.91538 ], [ -87.72235, 41.91364 ], [ -87.73704, 41.91347 ], [ -87.74134, 41.9139 ], [ -87.74217, 41.93889 ], [ -87.73522, 41.93899 ] ] ] } },
{ "type": "Feature", "properties": { "id": "21", "name": "AVONDALE", "street_miles": 40.76, "any_miles": 8.77, "low_stress_miles": 3.72, "any_pct": 21.5, "low_stress_pct": 9.12 }, "geometry": { "type": "Polygon", "coordinates": [ [ [ -87.68799, 41.9361 ], [ -87.68788, 41.93218 ], [ -87.73146, 41.93173 ], [ -87.73522, 41.93899 ], [ -87.72719, 41.9391 ], [ -87.7274, 41.94637 ], [ -87.6962, 41.9467 ], [ -87.69528, 41.94277 ], [ -87.69363, 41.94026 ], [ -87.69149, 41.93879 ], [ -87.69015, 41.9367 ], [ -87.68853, 41.93645 ], [ -87.68799, 41.9361 ] ] ] } },
{ "type": "Feature", "properties": { "id": "22", "name": "LOGAN SQUARE", "street_miles": 83.03, "any_miles": 18.84, "low_stress_miles": 7.94, "any_pct": 22.69, "low_stress_pct": 9.56 }, "geometry": { "type": "Polygon", "coordinates": [ [ [ -87.68343, 41.9334 ], [ -87.68215, 41.9314 ], [ -87.6808, 41.93064 ], [ -87.67971, 41.92846 ], [ -87.67652, 41.92759 ], [ -87.67494, 41.92666 ], [ -87.67455, 41.92614 ], [ -87.67426, 41.92439 ], [ -87.67216, 41.92281 ], [ -87.67111, 41.92241 ], [ -87.66928, 41.92239 ], [ -87.6681, 41.92203 ], [ -87.6646, 41.9178 ], [ -87.66362, 41.91562 ], [ -87.66603, 41.91454 ], [ -87.66744, 41.91428 ], [ -87.67755, 41.91417 ], [ -87.67756, 41.91472 ], [ -87.68245, 41.91462 ], [ -87.68242, 41.91358 ], [ -87.68315, 41.91406 ], [ -87.69099, 41.91386 ], [ -87.69765, 41.914 ], [ -87.71592, 41.91356 ], [ -87.72235, 41.91364 ], [ -87.72314, 41.91538 ], [ -87.72406, 41.91537 ], [ -87.72422, 41.9172 ], [ -87.72391, 41.9172 ], [ -87.72488, 41.91902 ], [ -87.72661, 41.91899 ], [ -87.7267, 41.92188 ], [ -87.72708, 41.92265 ], [ -87.72644, 41.92265 ], [ -87.72677, 41.92448 ], [ -87.7277, 41.92447 ], [ -87.73146, 41.93173 ], [ -87.68788, 41.93218 ], [ -87.68799, 41.9361 ], [ -87.68597, 41.93403 ], [ -87.68343, 41.9334 ] ] ] } },
{ "type": "Feature", "properties": { "id": "23", "name": "HUMBOLDT PARK", "street_miles": 70.74, "any_miles": 4.69, "low_stress_miles": 1.11, "any_pct": 6.63, "low_stress_pct": 1.58 }, "geometry": { "type": "Polygon", "coordinates": [ [ [ -87.69157, 41.8882 ], [ -87.70387, 41.88816 ], [ -87.70387, 41.88831 ], [ -87.72465, 41.88804 ], [ -87.72465, 41.88784 ], [ -87.72766, 41.88801 ], [ -87.7406, 41.88782 ], [ -87.74058, 41.89146 ], [ -87.74134, 41.89985 ], [ -87.74134, 41.9139 ], [ -87.73672, 41.91347 ], [ -87.70702, 41.91366 ], [ -87.70198, 41.91392 ], [ -87.70187, 41.91017 ], [ -87.70699, 41.91006 ], [ -87.70667, 41.8992 ], [ -87.70195, 41.89924 ], [ -87.70188, 41.89642 ], [ -87.70223, 41.89656 ], [ -87.7022, 41.89559 ], [ -87.6967, 41.89565 ], [ -87.69667, 41.89433 ], [ -87.69167, 41.89233 ], [ -87.69157, 41.8882 ] ] ] } },
{ "type": "Feature", "properties": { "id": "24", "name": "WEST TOWN", "street_miles": 103.74, "any_miles": 21.28, "low_stress_miles": 8.1, "any_pct": 20.51, "low_stress_pct": 7.81 }, "geometry": { "type": "Polygon", "coordinates": [ [ [ -87.65808, 41.91411 ], [ -87.65694, 41.91052 ], [ -87.65895, 41.90985 ], [ -87.65923, 41.90907 ], [ -87.65749, 41.90909 ], [ -87.65829, 41.90504 ], [ -87.6575, 41.9036 ], [ -87.65647, 41.90262 ], [ -87.65589, 41.90117 ], [ -87.65451, 41.90053 ], [ -87.6519, 41.90001 ], [ -87.64879, 41.89809 ], [ -87.64489, 41.89769 ], [ -87.64423, 41.89664 ], [ -87.64407, 41.89414 ], [ -87.64157, 41.89205 ], [ -87.63936, 41.88908 ], [ -87.64433, 41.88903 ], [ -87.64432, 41.88858 ], [ -87.64757, 41.88857 ], [ -87.64758, 41.88905 ], [ -87.68662, 41.88863 ], [ -87.68662, 41.88841 ], [ -87.68847, 41.88817 ], [ -87.69157, 41.8882 ], [ -87.69167, 41.89233 ], [ -87.69667, 41.89433 ], [ -87.6967, 41.89565 ], [ -87.7022, 41.89559 ], [ -87.70223, 41.89656 ], [ -87.70188, 41.89642 ], [ -87.70195, 41.89924 ], [ -87.70667, 41.8992 ], [ -87.70699, 41.91006 ], [ -87.70187, 41.91017 ], [ -87.70198, 41.91392 ], [ -87.69099, 41.91386 ], [ -87.68315, 41.91406 ], [ -87.68242, 41.91358 ], [ -87.68245, 41.91462 ], [ -87.67756, 41.91472 ], [ -87.67755, 41.91417 ], [ -87.66744, 41.91428 ], [ -87.66603, 41.91454 ], [ -87.66362, 41.91562 ], [ -87.66303, 41.91549 ], [ -87.66117, 41.91618 ], [ -87.65923, 41.91515 ], [ -87.65808, 41.91411 ] ] ] } },
{ "type": "Feature", "properties": { "id": "25", "name": "AUSTIN", "street_miles": 134.86, "any_miles": 18.69, "low_stress_miles": 8.98, "any_pct": 13.86, "low_stress_pct": 6.66 }, "geometry": { "type": "Polygon", "coordinates": [ [ [ -87.80327, 41.9225 ], [ -87.78723, 41.91672 ], [ -87.78527, 41.91645 ], [ -87.76381, 41.91663 ], [ -87.75925, 41.91609 ], [ -87.75588, 41.9154 ], [ -87.75509, 41.91547 ], [ -87.74134, 41.9139 ], [ -87.74116, 41.89591 ], [ -87.74058, 41.89146 ], [ -87.74021, 41.87691 ], [ -87.73951, 41.87691 ], [ -87.73945, 41.8753 ], [ -87.73939, 41.87327 ], [ -87.74008, 41.87325 ], [ -87.73977, 41.86596 ], [ -87.77414, 41.86546 ], [ -87.7756, 41.90925 ], [ -87.80575, 41.90884 ], [ -87.80623, 41.92337 ], [ -87.80327, 41.9225 ] ] ] } },
{ "type": "Feature", "properties": { "id": "26", "name": "WEST GARFIELD PARK", "street_miles": 28.98, "any_miles": 5.01, "low_stress_miles": 2.65, "any_pct": 17.29, "low_stress_pct": 9.15 }, "geometry": { "type": "Polygon", "coordinates": [ [ [ -87.72098, 41.88807 ], [ -87.7202, 41.86859 ], [ -87.72527, 41.86853 ], [ -87.72529, 41.86909 ], [ -87.73258, 41.869 ], [ -87.73267, 41.87098 ], [ -87.73989, 41.86896 ], [ -87.74008, 41.87325 ], [ -87.73939, 41.87327 ], [ -87.7395, 41.87662 ], [ -87.73951, 41.87691 ], [ -87.74021, 41.87691 ], [ -87.7406, 41.88782 ], [ -87.72766, 41.88801 ], [ -87.72465, 41.88784 ], [ -87.72465, 41.88804 ], [ -87.72098, 41.88807 ] ] ] } },
{ "type": "Feature", "properties": { "id": "27", "name": "EAST GARFIELD PARK", "street_miles": 41.56, "any_miles": 11.96, "low_stress_miles": 4.27, "any_pct": 28.78, "low_stress_pct": 10.27 }, "geometry": { "type": "Polygon", "coordinates": [ [ [ -87.70387, 41.88816 ], [ -87.68867, 41.88817 ], [ -87.69033, 41.88768 ], [ -87.69115, 41.8871 ], [ -87.69169, 41.88609 ], [ -87.69159, 41.88443 ], [ -87.69228, 41.8844 ], [ -87.69216, 41.88111 ], [ -87.6915, 41.88111 ], [ -87.69119, 41.86929 ], [ -87.70576, 41.86913 ], [ -87.70579, 41.87005 ], [ -87.70603, 41.87006 ], [ -87.72024, 41.86987 ], [ -87.72098, 41.88807 ], [ -87.70387, 41.88831 ], [ -87.70387, 41.88816 ] ] ] } },
{ "type": "Feature", "properties": { "id": "28", "name": "NEAR WEST SIDE", "street_miles": 113.31, "any_miles": 28.31, "low_stress_miles": 9.72, "any_pct": 24.98, "low_stress_pct": 8.58 }, "geometry": { "type": "Polygon", "coordinates": [ [ [ -87.63759, 41.88623 ], [ -87.63822, 41.88226 ], [ -87.63811, 41.87918 ], [ -87.63733, 41.87647 ], [ -87.63607, 41.87467 ], [ -87.63473, 41.86726 ], [ -87.63451, 41.85938 ], [ -87.63516, 41.85772 ], [ -87.63894, 41.85767 ], [ -87.63901, 41.86002 ], [ -87.67427, 41.85955 ], [ -87.68581, 41.85842 ], [ -87.68583, 41.85937 ], [ -87.68817, 41.85934 ], [ -87.68818, 41.86306 ], [ -87.69075, 41.86656 ], [ -87.69047, 41.86657 ], [ -87.69095, 41.86729 ], [ -87.69116, 41.86836 ], [ -87.6915, 41.88111 ], [ -87.69216, 41.88111 ], [ -87.69228, 41.8844 ], [ -87.69159, 41.88443 ], [ -87.69169, 41.88609 ], [ -87.69127, 41.88696 ], [ -87.69052, 41.88758 ], [ -87.68867, 41.88817 ], [ -87.68662, 41.88841 ], [ -87.68662, 41.88863 ], [ -87.64758, 41.88905 ], [ -87.64757, 41.88857 ], [ -87.64432, 41.88858 ], [ -87.64433, 41.88903 ], [ -87.63936, 41.88908 ], [ -87.63877, 41.88716 ], [ -87.63759, 41.88623 ] ] ] } },
{ "type": "Feature", "properties": { "id": "29", "name": "NORTH LAWNDALE", "street_miles": 68.57, "any_miles": 11.65, "low_stress_miles": 6.06, "any_pct": 17.0, "low_stress_pct": 8.83 }, "geometry": { "type": "Polygon", "coordinates": [ [ [ -87.72024, 41.86987 ], [ -87.70603, 41.87006 ], [ -87.70579, 41.87005 ], [ -87.70576, 41.86913 ], [ -87.69119, 41.86929 ], [ -87.69095, 41.86729 ], [ -87.69047, 41.86657 ], [ -87.69075, 41.86656 ], [ -87.68818, 41.86306 ], [ -87.68796, 41.85699 ], [ -87.69556, 41.85528 ], [ -87.69574, 41.85556 ], [ -87.70293, 41.85545 ], [ -87.70288, 41.8538 ], [ -87.70377, 41.85361 ], [ -87.7112, 41.85355 ], [ -87.71114, 41.85199 ], [ -87.71242, 41.85171 ], [ -87.72228, 41.85158 ], [ -87.72223, 41.84936 ], [ -87.73932, 41.84559 ], [ -87.73989, 41.86896 ], [ -87.73267, 41.87098 ], [ -87.73258, 41.869 ], [ -87.72529, 41.86909 ], [ -87.72527, 41.86853 ], [ -87.7202, 41.86859 ], [ -87.72024, 41.86987 ] ] ] } },
{ "type": "Feature", "properties": { "id": "30", "name": "SOUTH LAWNDALE", "street_miles": 66.16, "any_miles": 14.17, "low_stress_miles": 7.79, "any_pct": 21.42, "low_stress_pct": 11.78 }, "geometry": { "type": "Polygon", "coordinates": [ [ [ -87.6874, 41.8348 ], [ -87.69636, 41.83199 ], [ -87.69661, 41.83219 ], [ -87.70038, 41.83092 ], [ -87.70461, 41.8298 ], [ -87.70458, 41.82912 ], [ -87.71437, 41.82604 ], [ -87.71437, 41.82632 ], [ -87.73856, 41.81871 ], [ -87.73881, 41.83673 ], [ -87.73911, 41.83855 ], [ -87.73932, 41.84559 ], [ -87.72223, 41.84936 ], [ -87.72228, 41.85158 ], [ -87.71242, 41.85171 ], [ -87.71114, 41.85199 ], [ -87.7112, 41.85355 ], [ -87.70377, 41.85361 ], [ -87.70288, 41.8538 ], [ -87.70293, 41.85545 ], [ -87.69574, 41.85556 ], [ -87.69556, 41.85528 ], [ -87.68803, 41.85697 ], [ -87.6874, 41.8348 ] ] ] } },
{ "type": "Feature", "properties": { "id": "31", "name": "LOWER WEST SIDE", "street_miles": 46.61, "any_miles": 8.06, "low_stress_miles": 1.44, "any_pct": 17.29, "low_stress_pct": 3.08 }, "geometry": { "type": "Polygon", "coordinates": [ [ [ -87.63516, 41.85772 ], [ -87.63549, 41.85694 ], [ -87.63616, 41.85629 ], [ -87.63939, 41.85428 ], [ -87.64218, 41.85045 ], [ -87.64332, 41.84969 ], [ -87.6468, 41.84921 ], [ -87.64964, 41.8484 ], [ -87.6575, 41.84717 ], [ -87.6586, 41.84726 ], [ -87.66072, 41.84572 ], [ -87.66361, 41.84441 ], [ -87.66497, 41.84162 ], [ -87.66429, 41.83907 ], [ -87.66651, 41.83786 ], [ -87.66926, 41.83718 ], [ -87.67056, 41.83714 ], [ -87.67056, 41.83735 ], [ -87.67966, 41.8371 ], [ -87.6874, 41.8348 ], [ -87.68807, 41.85934 ], [ -87.68583, 41.85937 ], [ -87.68581, 41.85842 ], [ -87.67427, 41.85955 ], [ -87.63901, 41.86002 ], [ -87.63894, 41.85767 ], [ -87.63516, 41.85772 ] ] ] } },
{ "type": "Feature", "properties": { "id": "32", "name": "LOOP", "street_miles": 32.05, "any_miles": 6.73, "low_stress_miles": 4.14, "any_pct": 20.98, "low_stress_pct": 12.91 }, "geometry": { "type": "Polygon", "coordinates": [ [ [ -87.61123, 41.88931 ], [ -87.60766, 41.88937 ], [ -87.60751, 41.88864 ], [ -87.6052, 41.88872 ], [ -87.60467, 41.88863 ], [ -87.60513, 41.88856 ], [ -87.60513, 41.88835 ], [ -87.60246, 41.88831 ], [ -87.60985, 41.88797 ], [ -87.60999, 41.88408 ], [ -87.61274, 41.88406 ], [ -87.61288, 41.88339 ], [ -87.61351, 41.88286 ], [ -87.61579, 41.88244 ], [ -87.6164, 41.88202 ], [ -87.6165, 41.88141 ], [ -87.61575, 41.88142 ], [ -87.61572, 41.88057 ], [ -87.61648, 41.88056 ], [ -87.61621, 41.8689 ], [ -87.61535, 41.8683 ], [ -87.61854, 41.86799 ], [ -87.61896, 41.8675 ], [ -87.63473, 41.86731 ], [ -87.63587, 41.87397 ], [ -87.63629, 41.8752 ], [ -87.63743, 41.87669 ], [ -87.63823, 41.87999 ], [ -87.63814, 41.88319 ], [ -87.63744, 41.88642 ], [ -87.63562, 41.88745 ], [ -87.62762, 41.88751 ], [ -87.62509, 41.88891 ], [ -87.61801, 41.88831 ], [ -87.61397, 41.88841 ], [ -87.61255, 41.88963 ], [ -87.61271, 41.89023 ], [ -87.61987, 41.89017 ], [ -87.61987, 41.89047 ], [ -87.61441, 41.89056 ], [ -87.61441, 41.8904 ], [ -87.61144, 41.89063 ], [ -87.61123, 41.88931 ] ] ] } },
{ "type": "Feature", "properties": { "id": "33", "name": "NEAR SOUTH SIDE", "street_miles": 25.5, "any_miles": 3.9, "low_stress_miles": 2.39, "any_pct": 15.31, "low_stress_pct": 9.37 }, "geometry": { "type": "Polygon", "coordinates": [ [ [ -87.60914, 41.84469 ], [ -87.60941, 41.84527 ], [ -87.61601, 41.84509 ], [ -87.61655, 41.84563 ], [ -87.61767, 41.84572 ], [ -87.62917, 41.84556 ], [ -87.62935, 41.85288 ], [ -87.63006, 41.85288 ], [ -87.63023, 41.85778 ], [ -87.63516, 41.85772 ], [ -87.63451, 41.85938 ], [ -87.63473, 41.86731 ], [ -87.61896, 41.8675 ], [ -87.61854, 41.86799 ], [ -87.61364, 41.86851 ], [ -87.61291, 41.86838 ], [ -87.61242, 41.86794 ], [ -87.61269, 41.86675 ], [ -87.60775, 41.86686 ], [ -87.60684, 41.86724 ], [ -87.60589, 41.86693 ], [ -87.60561, 41.8663 ], [ -87.60605, 41.86568 ], [ -87.60605, 41.86479 ], [ -87.60629, 41.86479 ], [ -87.60659, 41.86521 ], [ -87.60687, 41.86518 ], [ -87.60758, 41.86427 ], [ -87.60695, 41.86237 ], [ -87.60602, 41.86201 ], [ -87.60596, 41.86008 ], [ -87.60707, 41.85996 ], [ -87.60651, 41.85336 ], [ -87.609, 41.85318 ], [ -87.6099, 41.85377 ], [ -87.60934, 41.85682 ], [ -87.60992, 41.85766 ], [ -87.60989, 41.85864 ], [ -87.61048, 41.85928 ], [ -87.61036, 41.85986 ], [ -87.61067, 41.86065 ], [ -87.61035, 41.86085 ], [ -87.60961, 41.86341 ], [ -87.61048, 41.86586 ], [ -87.61267, 41.86584 ], [ -87.61265, 41.86528 ], [ -87.61344, 41.86337 ], [ -87.61331, 41.86249 ], [ -87.61256, 41.86137 ], [ -87.61255, 41.86082 ], [ -87.6122, 41.86063 ], [ -87.61239, 41.86035 ], [ -87.61215, 41.86035 ], [ -87.61244, 41.85999 ], [ -87.61219, 41.85858 ], [ -87.61272, 41.85836 ], [ -87.61304, 41.85761 ], [ -87.61285, 41.85636 ], [ -87.61116, 41.85486 ], [ -87.61072, 41.85308 ], [ -87.60922, 41.85091 ], [ -87.60949, 41.84807 ], [ -87.60841, 41.84607 ], [ -87.60914, 41.84469 ] ] ] } },
{ "type": "Feature", "properties": { "id": "34", "name": "ARMOUR SQUARE", "street_miles": 18.79, "any_miles": 2.39, "low_stress_miles": 0.5, "any_pct": 12.74, "low_stress_pct": 2.67 }, "geometry": { "type": "Polygon", "coordinates": [ [ [ -87.62917, 41.84556 ], [ -87.62997, 41.84554 ], [ -87.62956, 41.83097 ], [ -87.629, 41.83097 ], [ -87.62897, 41.82368 ], [ -87.63396, 41.82361 ], [ -87.63606, 41.82521 ], [ -87.6362, 41.82723 ], [ -87.6364, 41.82723 ], [ -87.63658, 41.83415 ], [ -87.63653, 41.83453 ], [ -87.63589, 41.83453 ], [ -87.63593, 41.83636 ], [ -87.63643, 41.83635 ], [ -87.63651, 41.84364 ], [ -87.63829, 41.84362 ], [ -87.63836, 41.84618 ], [ -87.63953, 41.84637 ], [ -87.6416, 41.8463 ], [ -87.64173, 41.84728 ], [ -87.64243, 41.84811 ], [ -87.64162, 41.84819 ], [ -87.64225, 41.84893 ], [ -87.64323, 41.84852 ], [ -87.644, 41.84951 ], [ -87.64264, 41.85002 ], [ -87.63939, 41.85428 ], [ -87.63616, 41.85629 ], [ -87.63549, 41.85694 ], [ -87.63516, 41.85772 ], [ -87.63023, 41.85778 ], [ -87.63006, 41.85288 ], [ -87.62935, 41.85288 ], [ -87.62917, 41.84556 ] ] ] } },
{ "type": "Feature", "properties": { "id": "35", "name": "DOUGLAS", "street_miles": 29.39, "any_miles": 5.89, "low_stress_miles": 2.15, "any_pct": 20.03, "low_stress_pct": 7.3 }, "geometry": { "type": "Polygon", "coordinates": [ [ [ -87.60941, 41.84527 ], [ -87.60877, 41.84336 ], [ -87.60802, 41.84231 ], [ -87.60785, 41.84103 ], [ -87.60753, 41.84056 ], [ -87.60698, 41.84067 ], [ -87.60668, 41.84056 ], [ -87.6075, 41.8405 ], [ -87.6071, 41.83951 ], [ -87.60616, 41.83864 ], [ -87.60471, 41.83896 ], [ -87.60419, 41.83983 ], [ -87.60467, 41.83888 ], [ -87.60613, 41.83855 ], [ -87.60607, 41.83729 ], [ -87.60566, 41.83612 ], [ -87.60456, 41.83499 ], [ -87.60503, 41.83442 ], [ -87.60487, 41.8338 ], [ -87.60435, 41.8332 ], [ -87.60301, 41.83273 ], [ -87.6027, 41.83233 ], [ -87.60271, 41.83137 ], [ -87.61063, 41.83119 ], [ -87.61262, 41.82389 ], [ -87.62897, 41.82368 ], [ -87.629, 41.83097 ], [ -87.62956, 41.83097 ], [ -87.62997, 41.84554 ], [ -87.61767, 41.84572 ], [ -87.61655, 41.84563 ], [ -87.61601, 41.84509 ], [ -87.60941, 41.84527 ] ] ] } },
{ "type": "Feature", "properties": { "id": "36", "name": "OAKLAND", "street_miles": 9.26, "any_miles": 1.58, "low_stress_miles": 0.0, "any_pct": 17.11, "low_stress_pct": 0.0 }, "geometry": { "type": "Polygon", "coordinates": [ [ [ -87.59215, 41.81693 ], [ -87.60671, 41.81681 ], [ -87.60686, 41.82317 ], [ -87.60644, 41.82331 ], [ -87.60687, 41.82396 ], [ -87.61262, 41.82389 ], [ -87.61063, 41.83119 ], [ -87.60271, 41.83137 ], [ -87.60239, 41.83069 ], [ -87.59997, 41.82793 ], [ -87.59775, 41.82634 ], [ -87.59748, 41.82564 ], [ -87.59766, 41.8242 ], [ -87.59727, 41.82262 ], [ -87.59512, 41.81981 ], [ -87.59262, 41.81834 ], [ -87.59219, 41.81768 ], [ -87.59215, 41.81693 ] ] ] } },
{ "type": "Feature", "properties": { "id": "37", "name": "FULLER PARK", "street_miles": 12.91, "any_miles": 0.35, "low_stress_miles": 0.0, "any_pct": 2.74, "low_stress_pct": 0.0 }, "geometry": { "type": "Polygon", "coordinates": [ [ [ -87.62936, 41.82368 ], [ -87.62856, 41.7946 ], [ -87.63546, 41.79448 ], [ -87.63586, 41.81092 ], [ -87.63638, 41.81091 ], [ -87.63616, 41.81635 ], [ -87.63572, 41.81635 ], [ -87.63604, 41.81815 ], [ -87.63612, 41.82359 ], [ -87.62936, 41.82368 ] ] ] } },
{ "type": "Feature", "properties": { "id": "38", "name": "GRAND BOULEVARD", "street_miles": 38.66, "any_miles": 4.12, "low_stress_miles": 1.5, "any_pct": 10.65, "low_stress_pct": 3.88 }, "geometry": { "type": "Polygon", "coordinates": [ [ [ -87.60686, 41.82317 ], [ -87.60641, 41.80225 ], [ -87.6288, 41.80189 ], [ -87.62936, 41.82368 ], [ -87.60687, 41.82396 ], [ -87.60644, 41.82331 ], [ -87.60686, 41.82317 ] ] ] } },
{ "type": "Feature", "properties": { "id": "39", "name": "KENWOOD", "street_miles": 16.75, "any_miles": 1.01, "low_stress_miles": 0.0, "any_pct": 6.0, "low_stress_pct": 0.0 }, "geometry": { "type": "Polygon", "coordinates": [ [ [ -87.59215, 41.81693 ], [ -87.59201, 41.81632 ], [ -87.59146, 41.81596 ], [ -87.5904, 41.81455 ], [ -87.59052, 41.81435 ], [ -87.59004, 41.81352 ], [ -87.58863, 41.81219 ], [ -87.58734, 41.81184 ], [ -87.58693, 41.81117 ], [ -87.58692, 41.81011 ], [ -87.58516, 41.80722 ], [ -87.58127, 41.80431 ], [ -87.58011, 41.80393 ], [ -87.58038, 41.80253 ], [ -87.60641, 41.80225 ], [ -87.60671, 41.81681 ], [ -87.59215, 41.81693 ] ] ] } },
{ "type": "Feature", "properties": { "id": "40", "name": "WASHINGTON PARK", "street_miles": 24.38, "any_miles": 2.93, "low_stress_miles": 1.52, "any_pct": 12.0, "low_stress_pct": 6.23 }, "geometry": { "type": "Polygon", "coordinates": [ [ [ -87.60604, 41.78587 ], [ -87.61576, 41.7857 ], [ -87.61562, 41.78024 ], [ -87.62537, 41.78006 ], [ -87.6254, 41.78321 ], [ -87.62826, 41.78316 ], [ -87.6288, 41.80189 ], [ -87.60641, 41.80225 ], [ -87.60604, 41.78587 ] ] ] } },
{ "type": "Feature", "properties": { "id": "41", "name": "HYDE PARK", "street_miles": 29.63, "any_miles": 2.52, "low_stress_miles": 0.81, "any_pct": 8.5, "low_stress_pct": 2.74 }, "geometry": { "type": "Polygon", "coordinates": [ [ [ -87.58038, 41.80253 ], [ -87.58047, 41.80078 ], [ -87.57994, 41.79837 ], [ -87.57821, 41.79701 ], [ -87.57741, 41.79686 ], [ -87.57588, 41.79698 ], [ -87.57527, 41.79661 ], [ -87.57516, 41.79624 ], [ -87.57544, 41.79544 ], [ -87.57617, 41.79509 ], [ -87.57783, 41.79492 ], [ -87.57894, 41.79427 ], [ -87.57963, 41.79204 ], [ -87.57827, 41.78994 ], [ -87.57632, 41.78857 ], [ -87.57776, 41.7883 ], [ -87.57715, 41.78818 ], [ -87.57734, 41.78719 ], [ -87.57714, 41.78615 ], [ -87.58516, 41.78585 ], [ -87.58555, 41.78626 ], [ -87.58636, 41.7864 ], [ -87.5866, 41.78639 ], [ -87.5866, 41.78614 ], [ -87.60604, 41.78587 ], [ -87.60641, 41.80225 ], [ -87.58038, 41.80253 ] ] ] } },
{ "type": "Feature", "properties": { "id": "42", "name": "WOODLAWN", "street_miles": 37.19, "any_miles": 3.03, "low_stress_miles": 0.0, "any_pct": 8.14, "low_stress_pct": 0.0 }, "geometry": { "type": "Polygon", "coordinates": [ [ [ -87.57714, 41.78615 ], [ -87.57605, 41.7836 ], [ -87.5731, 41.78213 ], [ -87.5705, 41.78137 ], [ -87.56968, 41.7813 ], [ -87.5684, 41.78161 ], [ -87.56753, 41.7846 ], [ -87.56831, 41.78154 ], [ -87.57308, 41.78025 ], [ -87.57295, 41.77982 ], [ -87.57411, 41.77953 ], [ -87.57473, 41.77911 ], [ -87.5753, 41.77741 ], [ -87.57461, 41.77615 ], [ -87.57504, 41.77579 ], [ -87.57337, 41.77538 ], [ -87.57322, 41.77559 ], [ -87.572, 41.77582 ], [ -87.57177, 41.77666 ], [ -87.57336, 41.77831 ], [ -87.57321, 41.77919 ], [ -87.57224, 41.77923 ], [ -87.57182, 41.77858 ], [ -87.56856, 41.77615 ], [ -87.56645, 41.77379 ], [ -87.56681, 41.77356 ], [ -87.60577, 41.77314 ], [ -87.60559, 41.76587 ], [ -87.61545, 41.77297 ], [ -87.61576, 41.7857 ], [ -87.5866, 41.78614 ], [ -87.5866, 41.78639 ], [ -87.58636, 41.7864 ], [ -87.58555, 41.78626 ], [ -87.58516, 41.78585 ], [ -87.57714, 41.78615 ] ] ] } },
{ "type": "Feature", "properties": { "id": "43", "name": "SOUTH SHORE", "street_miles": 65.92, "any_miles": 4.43, "low_stress_miles": 0.11, "any_pct": 6.71, "low_stress_pct": 0.16 }, "geometry": { "type": "Polygon", "coordinates": [ [ [ -87.5406, 41.75727 ], [ -87.54495, 41.75444 ], [ -87.54656, 41.75387 ], [ -87.54774, 41.75453 ], [ -87.55229, 41.75192 ], [ -87.58582, 41.75151 ], [ -87.59563, 41.7587 ], [ -87.59538, 41.7587 ], [ -87.59458, 41.76235 ], [ -87.59332, 41.76235 ], [ -87.5933, 41.76601 ], [ -87.59228, 41.76601 ], [ -87.59239, 41.7699 ], [ -87.59274, 41.7699 ], [ -87.59275, 41.77015 ], [ -87.5921, 41.77328 ], [ -87.56681, 41.77356 ], [ -87.56645, 41.77379 ], [ -87.56565, 41.77292 ], [ -87.56358, 41.77203 ], [ -87.56328, 41.77044 ], [ -87.56234, 41.769 ], [ -87.56053, 41.7684 ], [ -87.55954, 41.76918 ], [ -87.55939, 41.76678 ], [ -87.56052, 41.76617 ], [ -87.56051, 41.76539 ], [ -87.5596, 41.76473 ], [ -87.55974, 41.76439 ], [ -87.55944, 41.76408 ], [ -87.55898, 41.76375 ], [ -87.55846, 41.76402 ], [ -87.55757, 41.76312 ], [ -87.5576, 41.76281 ], [ -87.55608, 41.76182 ], [ -87.55559, 41.76158 ], [ -87.5548, 41.76177 ], [ -87.55403, 41.76076 ], [ -87.54871, 41.75873 ], [ -87.54694, 41.75877 ], [ -87.54551, 41.75936 ], [ -87.54432, 41.76017 ], [ -87.54385, 41.76011 ], [ -87.54442, 41.76062 ], [ -87.54644, 41.76062 ], [ -87.54648, 41.76065 ], [ -87.54437, 41.76067 ], [ -87.54304, 41.7596 ], [ -87.54255, 41.75911 ], [ -87.54263, 41.75874 ], [ -87.54165, 41.75782 ], [ -87.54115, 41.75779 ], [ -87.5406, 41.75727 ] ] ] } },
{ "type": "Feature", "properties": { "id": "44", "name": "CHATHAM", "street_miles": 56.31, "any_miles": 3.74, "low_stress_miles": 0.28, "any_pct": 6.64, "low_stress_pct": 0.5 }, "geometry": { "type": "Polygon", "coordinates": [ [ [ -87.59535, 41.73678 ], [ -87.60039, 41.73671 ], [ -87.60116, 41.73313 ], [ -87.60202, 41.73303 ], [ -87.60327, 41.72755 ], [ -87.60293, 41.72756 ], [ -87.60335, 41.72572 ], [ -87.60306, 41.72573 ], [ -87.60359, 41.72343 ], [ -87.60451, 41.72361 ], [ -87.60449, 41.72255 ], [ -87.60723, 41.72343 ], [ -87.60937, 41.72448 ], [ -87.60961, 41.7251 ], [ -87.61066, 41.72558 ], [ -87.61158, 41.72559 ], [ -87.61427, 41.72693 ], [ -87.6143, 41.72789 ], [ -87.61735, 41.72905 ], [ -87.61919, 41.72954 ], [ -87.61918, 41.72912 ], [ -87.62567, 41.72902 ], [ -87.62915, 41.73278 ], [ -87.63272, 41.73597 ], [ -87.63251, 41.73644 ], [ -87.63401, 41.73956 ], [ -87.63411, 41.7435 ], [ -87.63595, 41.74416 ], [ -87.63648, 41.74352 ], [ -87.63919, 41.74343 ], [ -87.63907, 41.74794 ], [ -87.6391, 41.74887 ], [ -87.63949, 41.74886 ], [ -87.63937, 41.75071 ], [ -87.59721, 41.75137 ], [ -87.59738, 41.7506 ], [ -87.59708, 41.75053 ], [ -87.59783, 41.74679 ], [ -87.59728, 41.7468 ], [ -87.59761, 41.74406 ], [ -87.59787, 41.74405 ], [ -87.59785, 41.74169 ], [ -87.59749, 41.74043 ], [ -87.59535, 41.73678 ] ] ] } },
{ "type": "Feature", "properties": { "id": "45", "name": "AVALON PARK", "street_miles": 26.67, "any_miles": 2.6, "low_stress_miles": 0.0, "any_pct": 9.76, "low_stress_pct": 0.0 }, "geometry": { "type": "Polygon", "coordinates": [ [ [ -87.59306, 41.75688 ], [ -87.58446, 41.75069 ], [ -87.5657, 41.7372 ], [ -87.59535, 41.73678 ], [ -87.59749, 41.74043 ], [ -87.59788, 41.74214 ], [ -87.59787, 41.74405 ], [ -87.59761, 41.74406 ], [ -87.59728, 41.7468 ], [ -87.59783, 41.74679 ], [ -87.59708, 41.75053 ], [ -87.59738, 41.7506 ], [ -87.59721, 41.75137 ], [ -87.59549, 41.75139 ], [ -87.5956, 41.75503 ], [ -87.59622, 41.75503 ], [ -87.5958, 41.75686 ], [ -87.59306, 41.75688 ] ] ] } },
{ "type": "Feature", "properties": { "id": "46", "name": "SOUTH CHICAGO", "street_miles": 54.41, "any_miles": 7.0, "low_stress_miles": 0.25, "any_pct": 12.86, "low_stress_pct": 0.46 }, "geometry": { "type": "Polygon", "coordinates": [ [ [ -87.54398, 41.75515 ], [ -87.54441, 41.75413 ], [ -87.54372, 41.75253 ], [ -87.54319, 41.75199 ], [ -87.54049, 41.75186 ], [ -87.53095, 41.74803 ], [ -87.52988, 41.74148 ], [ -87.52446, 41.74139 ], [ -87.53986, 41.74101 ], [ -87.53983, 41.7405 ], [ -87.52986, 41.74061 ], [ -87.52896, 41.73375 ], [ -87.52925, 41.73301 ], [ -87.54042, 41.72828 ], [ -87.5419, 41.72714 ], [ -87.54225, 41.72658 ], [ -87.54314, 41.72286 ], [ -87.54568, 41.72282 ], [ -87.58566, 41.7515 ], [ -87.55229, 41.75192 ], [ -87.54774, 41.75453 ], [ -87.54656, 41.75387 ], [ -87.54495, 41.75444 ], [ -87.54398, 41.75515 ] ] ] } },
{ "type": "Feature", "properties": { "id": "47", "name": "BURNSIDE", "street_miles": 8.2, "any_miles": 0.08, "low_stress_miles": 0.03, "any_pct": 0.95, "low_stress_pct": 0.4 }, "geometry": { "type": "Polygon", "coordinates": [ [ [ -87.58878, 41.72633 ], [ -87.5867, 41.72232 ], [ -87.60448, 41.72204 ], [ -87.60451, 41.72361 ], [ -87.60359, 41.72343 ], [ -87.60306, 41.72573 ], [ -87.60335, 41.72572 ], [ -87.60293, 41.72756 ], [ -87.60327, 41.72755 ], [ -87.60202, 41.73303 ], [ -87.60116, 41.73313 ], [ -87.60039, 41.73671 ], [ -87.59535, 41.73678 ], [ -87.59296, 41.73337 ], [ -87.58878, 41.72633 ] ] ] } },
{ "type": "Feature", "properties": { "id": "48", "name": "CALUMET HEIGHTS", "street_miles": 37.37, "any_miles": 2.5, "low_stress_miles": 0.11, "any_pct": 6.7, "low_stress_pct": 0.31 }, "geometry": { "type": "Polygon", "coordinates": [ [ [ -87.54568, 41.72282 ], [ -87.56559, 41.72259 ], [ -87.56563, 41.72389 ], [ -87.56858, 41.72356 ], [ -87.58737, 41.72326 ], [ -87.58878, 41.72633 ], [ -87.59296, 41.73337 ], [ -87.59535, 41.73678 ], [ -87.5657, 41.7372 ], [ -87.54568, 41.72282 ] ] ] } },
{ "type": "Feature", "properties": { "id": "49", "name": "ROSELAND", "street_miles": 98.02, "any_miles": 10.65, "low_stress_miles": 0.28, "any_pct": 10.87, "low_stress_pct": 0.28 }, "geometry": { "type": "Polygon", "coordinates": [ [ [ -87.60449, 41.72255 ], [ -87.60448, 41.72204 ], [ -87.60318, 41.72205 ], [ -87.6114, 41.68544 ], [ -87.64215, 41.68508 ], [ -87.64283, 41.70692 ], [ -87.63313, 41.70704 ], [ -87.63413, 41.73594 ], [ -87.63381, 41.73595 ], [ -87.63396, 41.73947 ], [ -87.63251, 41.73644 ], [ -87.63272, 41.73597 ], [ -87.62915, 41.73278 ], [ -87.62567, 41.72902 ], [ -87.61918, 41.72912 ], [ -87.61919, 41.72954 ], [ -87.61735, 41.72905 ], [ -87.6143, 41.72789 ], [ -87.61427, 41.72693 ], [ -87.61158, 41.72559 ], [ -87.61066, 41.72558 ], [ -87.60961, 41.7251 ], [ -87.60937, 41.72448 ], [ -87.60723, 41.72343 ], [ -87.60449, 41.72255 ] ] ] } },
{ "type": "Feature", "properties": { "id": "50", "name": "PULLMAN", "street_miles": 24.43, "any_miles": 2.23, "low_stress_miles": 1.23, "any_pct": 9.15, "low_stress_pct": 5.02 }, "geometry": { "type": "Polygon", "coordinates": [ [ [ -87.60157, 41.68621 ], [ -87.60258, 41.68612 ], [ -87.60442, 41.68551 ], [ -87.6114, 41.68544 ], [ -87.61144, 41.68572 ], [ -87.60318, 41.72205 ], [ -87.5867, 41.72232 ], [ -87.58496, 41.72068 ], [ -87.58463, 41.71125 ], [ -87.58509, 41.70901 ], [ -87.58575, 41.70777 ], [ -87.5873, 41.70775 ], [ -87.58814, 41.70511 ], [ -87.59205, 41.70156 ], [ -87.59437, 41.69898 ], [ -87.59617, 41.69632 ], [ -87.60157, 41.68621 ] ] ] } },
{ "type": "Feature", "properties": { "id": "51", "name": "SOUTH DEERING", "street_miles": 53.08, "any_miles": 4.07, "low_stress_miles": 0.0, "any_pct": 7.66, "low_stress_pct": 0.0 }, "geometry": { "type": "Polygon", "coordinates": [ [ [ -87.56559, 41.72259 ], [ -87.54314, 41.72286 ], [ -87.54269, 41.72082 ], [ -87.54315, 41.71794 ], [ -87.54303, 41.71715 ], [ -87.54242, 41.71644 ], [ -87.54218, 41.71564 ], [ -87.54273, 41.71075 ], [ -87.54364, 41.7094 ], [ -87.54527, 41.70814 ], [ -87.54586, 41.70733 ], [ -87.54562, 41.70393 ], [ -87.5459, 41.70277 ], [ -87.5438, 41.70276 ], [ -87.54498, 41.70109 ], [ -87.5452, 41.70031 ], [ -87.54492, 41.67318 ], [ -87.54645, 41.66814 ], [ -87.54471, 41.65922 ], [ -87.55202, 41.66346 ], [ -87.5566, 41.66997 ], [ -87.55817, 41.66893 ], [ -87.55883, 41.66901 ], [ -87.55926, 41.66865 ], [ -87.55929, 41.65919 ], [ -87.58159, 41.65922 ], [ -87.58605, 41.66027 ], [ -87.589, 41.66039 ], [ -87.59172, 41.66353 ], [ -87.59212, 41.66371 ], [ -87.60012, 41.673 ], [ -87.60103, 41.67434 ], [ -87.60172, 41.67673 ], [ -87.60194, 41.68474 ], [ -87.60165, 41.68604 ], [ -87.60069, 41.68796 ], [ -87.59617, 41.69632 ], [ -87.59437, 41.69898 ], [ -87.59205, 41.70156 ], [ -87.58814, 41.70511 ], [ -87.5873, 41.70775 ], [ -87.58575, 41.70777 ], [ -87.58509, 41.70901 ], [ -87.58463, 41.71125 ], [ -87.58496, 41.72068 ], [ -87.58737, 41.72326 ], [ -87.56858, 41.72356 ], [ -87.56563, 41.72389 ], [ -87.56559, 41.72259 ] ] ] } },
{ "type": "Feature", "properties": { "id": "52", "name": "EAST SIDE", "street_miles": 42.74, "any_miles": 5.05, "low_stress_miles": 0.71, "any_pct": 11.81, "low_stress_pct": 1.65 }, "geometry": { "type": "Polygon", "coordinates": [ [ [ -87.52462, 41.6918 ], [ -87.53036, 41.69183 ], [ -87.53041, 41.68457 ], [ -87.54013, 41.68451 ], [ -87.54012, 41.68278 ], [ -87.54508, 41.68277 ], [ -87.5452, 41.70031 ], [ -87.54498, 41.70109 ], [ -87.5438, 41.70276 ], [ -87.5459, 41.70277 ], [ -87.54562, 41.70393 ], [ -87.54586, 41.70733 ], [ -87.54527, 41.70814 ], [ -87.54364, 41.7094 ], [ -87.54267, 41.71095 ], [ -87.54218, 41.71564 ], [ -87.54242, 41.71644 ], [ -87.54303, 41.71715 ], [ -87.54315, 41.71794 ], [ -87.54269, 41.72082 ], [ -87.54318, 41.72313 ], [ -87.54225, 41.72658 ], [ -87.5414, 41.72759 ], [ -87.53941, 41.72879 ], [ -87.52925, 41.73301 ], [ -87.52949, 41.73237 ], [ -87.52914, 41.73209 ], [ -87.52526, 41.73153 ], [ -87.52469, 41.73109 ], [ -87.52447, 41.7219 ], [ -87.525, 41.72152 ], [ -87.5247, 41.72125 ], [ -87.52509, 41.72142 ], [ -87.52541, 41.72092 ], [ -87.52508, 41.72085 ], [ -87.52549, 41.72072 ], [ -87.52561, 41.71944 ], [ -87.52529, 41.71849 ], [ -87.52491, 41.71805 ], [ -87.5245, 41.71799 ], [ -87.52447, 41.7174 ], [ -87.52661, 41.71724 ], [ -87.52679, 41.71688 ], [ -87.5273, 41.71682 ], [ -87.52819, 41.71622 ], [ -87.5287, 41.71542 ], [ -87.52771, 41.71342 ], [ -87.52649, 41.71235 ], [ -87.52517, 41.71333 ], [ -87.52841, 41.7108 ], [ -87.52665, 41.70985 ], [ -87.52624, 41.70982 ], [ -87.52575, 41.71041 ], [ -87.52414, 41.70936 ], [ -87.52476, 41.70933 ], [ -87.52553, 41.70994 ], [ -87.52622, 41.70954 ], [ -87.52577, 41.70916 ], [ -87.52526, 41.70947 ], [ -87.52513, 41.70934 ], [ -87.52568, 41.70909 ], [ -87.52537, 41.70883 ], [ -87.52486, 41.70915 ], [ -87.52494, 41.70873 ], [ -87.52454, 41.70848 ], [ -87.52462, 41.6918 ] ] ] } },
{ "type": "Feature", "properties": { "id": "53", "name": "WEST PULLMAN", "street_miles": 70.89, "any_miles": 4.54, "low_stress_miles": 2.03, "any_pct": 6.4, "low_stress_pct": 2.86 }, "geometry": { "type": "Polygon", "coordinates": [ [ [ -87.61828, 41.65911 ], [ -87.61968, 41.65906 ], [ -87.61939, 41.66006 ], [ -87.61986, 41.66114 ], [ -87.62202, 41.66213 ], [ -87.62204, 41.66241 ], [ -87.62329, 41.6624 ], [ -87.62627, 41.66166 ], [ -87.63108, 41.65783 ], [ -87.63139, 41.658 ], [ -87.63233, 41.65788 ], [ -87.633, 41.65753 ], [ -87.63556, 41.65735 ], [ -87.64105, 41.65777 ], [ -87.64106, 41.6581 ], [ -87.64143, 41.65809 ], [ -87.64142, 41.65777 ], [ -87.64699, 41.65763 ], [ -87.64722, 41.66316 ], [ -87.64142, 41.66325 ], [ -87.64167, 41.67054 ], [ -87.66115, 41.67034 ], [ -87.6616, 41.68482 ], [ -87.61228, 41.68543 ], [ -87.61828, 41.65911 ] ] ] } },
{ "type": "Feature", "properties": { "id": "54", "name": "RIVERDALE", "street_miles": 20.86, "any_miles": 0.0, "low_stress_miles": 0.0, "any_pct": 0.0, "low_stress_pct": 0.0 }, "geometry": { "type": "Polygon", "coordinates": [ [ [ -87.60157, 41.68621 ], [ -87.60194, 41.68474 ], [ -87.60173, 41.6769 ], [ -87.60091, 41.67413 ], [ -87.58056, 41.65052 ], [ -87.57888, 41.64738 ], [ -87.57838, 41.64469 ], [ -87.61722, 41.64458 ], [ -87.61723, 41.65028 ], [ -87.62032, 41.65089 ], [ -87.61848, 41.65555 ], [ -87.61771, 41.6591 ], [ -87.61828, 41.65911 ], [ -87.61228, 41.68543 ], [ -87.60442, 41.68551 ], [ -87.60258, 41.68612 ], [ -87.60157, 41.68621 ] ] ] } },
{ "type": "Feature", "properties": { "id": "55", "name": "HEGEWISCH", "street_miles": 32.72, "any_miles": 3.42, "low_stress_miles": 0.25, "any_pct": 10.46, "low_stress_pct": 0.77 }, "geometry": { "type": "Polygon", "coordinates": [ [ [ -87.52462, 41.6918 ], [ -87.52517, 41.64454 ], [ -87.57838, 41.64469 ], [ -87.57883, 41.64725 ], [ -87.57979, 41.64941 ], [ -87.589, 41.66039 ], [ -87.58605, 41.66027 ], [ -87.58159, 41.65922 ], [ -87.55929, 41.65919 ], [ -87.55926, 41.66865 ], [ -87.55883, 41.66901 ], [ -87.55817, 41.66893 ], [ -87.5566, 41.66997 ], [ -87.55202, 41.66346 ], [ -87.54471, 41.65922 ], [ -87.54645, 41.66814 ], [ -87.54492, 41.67318 ], [ -87.54508, 41.68277 ], [ -87.54012, 41.68278 ], [ -87.54013, 41.68451 ], [ -87.53041, 41.68457 ], [ -87.53036, 41.69183 ], [ -87.52462, 41.6918 ] ] ] } },
{ "type": "Feature", "properties": { "id": "56", "name": "GARFIELD RIDGE", "street_miles": 77.98, "any_miles": 0.0, "low_stress_miles": 0.0, "any_pct": 0.0, "low_stress_pct": 0.0 }, "geometry": { "type": "Polygon", "coordinates": [ [ [ -87.73865, 41.82212 ], [ -87.73762, 41.78578 ], [ -87.80122, 41.78469 ], [ -87.80163, 41.798 ], [ -87.79719, 41.7994 ], [ -87.75274, 41.80019 ], [ -87.75308, 41.81331 ], [ -87.74465, 41.81596 ], [ -87.74476, 41.82203 ], [ -87.73865, 41.82212 ] ] ] } },
{ "type": "Feature", "properties": { "id": "57", "name": "ARCHER HEIGHTS", "street_miles": 28.04, "any_miles": 0.0, "low_stress_miles": 0.0, "any_pct": 0.0, "low_stress_pct": 0.0 }, "geometry": { "type": "Polygon", "coordinates": [ [ [ -87.71437, 41.82632 ], [ -87.71379, 41.80602 ], [ -87.71437, 41.80459 ], [ -87.71523, 41.80376 ], [ -87.72337, 41.80055 ], [ -87.72337, 41.80022 ], [ -87.72821, 41.79831 ], [ -87.72817, 41.79683 ], [ -87.73551, 41.79676 ], [ -87.73541, 41.79546 ], [ -87.73791, 41.79529 ], [ -87.73856, 41.81871 ], [ -87.71437, 41.82632 ] ] ] } },
{ "type": "Feature", "properties": { "id": "58", "name": "BRIGHTON PARK", "street_miles": 47.78, "any_miles": 3.39, "low_stress_miles": 2.81, "any_pct": 7.09, "low_stress_pct": 5.88 }, "geometry": { "type": "Polygon", "coordinates": [ [ [ -87.68424, 41.823 ], [ -87.68387, 41.80842 ], [ -87.68443, 41.80843 ], [ -87.68437, 41.80455 ], [ -87.70387, 41.80448 ], [ -87.70386, 41.80422 ], [ -87.71378, 41.80393 ], [ -87.71437, 41.82604 ], [ -87.70458, 41.82912 ], [ -87.70461, 41.8298 ], [ -87.70038, 41.83092 ], [ -87.69661, 41.83219 ], [ -87.69636, 41.83199 ], [ -87.6874, 41.8348 ], [ -87.68736, 41.82662 ], [ -87.68686, 41.82665 ], [ -87.68611, 41.82523 ], [ -87.68667, 41.82489 ], [ -87.68613, 41.82431 ], [ -87.68608, 41.82296 ], [ -87.68424, 41.823 ] ] ] } },
{ "type": "Feature", "properties": { "id": "59", "name": "MCKINLEY PARK", "street_miles": 27.79, "any_miles": 1.05, "low_stress_miles": 0.33, "any_pct": 3.77, "low_stress_pct": 1.19 }, "geometry": { "type": "Polygon", "coordinates": [ [ [ -87.65611, 41.82331 ], [ -87.68608, 41.82296 ], [ -87.68613, 41.82431 ], [ -87.68667, 41.82489 ], [ -87.68611, 41.82523 ], [ -87.68686, 41.82665 ], [ -87.68736, 41.82662 ], [ -87.6874, 41.8348 ], [ -87.67966, 41.8371 ], [ -87.67056, 41.83735 ], [ -87.67056, 41.83714 ], [ -87.67004, 41.83714 ], [ -87.66824, 41.83732 ], [ -87.66651, 41.83786 ], [ -87.66429, 41.83907 ], [ -87.66249, 41.83614 ], [ -87.66129, 41.83486 ], [ -87.66035, 41.83437 ], [ -87.65743, 41.8312 ], [ -87.65756, 41.82823 ], [ -87.65714, 41.82404 ], [ -87.65611, 41.82331 ] ] ] } },
{ "type": "Feature", "properties": { "id": "60", "name": "BRIDGEPORT", "street_miles": 42.23, "any_miles": 4.44, "low_stress_miles": 0.36, "any_pct": 10.52, "low_stress_pct": 0.85 }, "geometry": { "type": "Polygon", "coordinates": [ [ [ -87.63396, 41.82361 ], [ -87.65611, 41.82331 ], [ -87.65714, 41.82404 ], [ -87.65756, 41.82823 ], [ -87.65743, 41.8312 ], [ -87.66035, 41.83437 ], [ -87.66129, 41.83486 ], [ -87.66308, 41.83682 ], [ -87.66454, 41.83956 ], [ -87.66454, 41.84066 ], [ -87.66497, 41.84162 ], [ -87.66378, 41.84429 ], [ -87.66072, 41.84572 ], [ -87.6586, 41.84726 ], [ -87.6575, 41.84717 ], [ -87.64964, 41.8484 ], [ -87.64585, 41.84938 ], [ -87.644, 41.84951 ], [ -87.64323, 41.84852 ], [ -87.64225, 41.84893 ], [ -87.64162, 41.84819 ], [ -87.64243, 41.84811 ], [ -87.64173, 41.84728 ], [ -87.6416, 41.8463 ], [ -87.63953, 41.84637 ], [ -87.63836, 41.84618 ], [ -87.63829, 41.84362 ], [ -87.63651, 41.84364 ], [ -87.63643, 41.83635 ], [ -87.63593, 41.83636 ], [ -87.63589, 41.83453 ], [ -87.63653, 41.83453 ], [ -87.63658, 41.83415 ], [ -87.6364, 41.82723 ], [ -87.6362, 41.82723 ], [ -87.63606, 41.82521 ], [ -87.63396, 41.82361 ] ] ] } },
{ "type": "Feature", "properties": { "id": "61", "name": "NEW CITY", "street_miles": 77.48, "any_miles": 4.79, "low_stress_miles": 2.71, "any_pct": 6.19, "low_stress_pct": 3.5 }, "geometry": { "type": "Polygon", "coordinates": [ [ [ -87.63546, 41.79448 ], [ -87.67882, 41.79387 ], [ -87.67941, 41.79703 ], [ -87.67941, 41.80485 ], [ -87.68437, 41.80472 ], [ -87.68443, 41.80843 ], [ -87.68387, 41.80842 ], [ -87.68424, 41.823 ], [ -87.63612, 41.82359 ], [ -87.63604, 41.81815 ], [ -87.63572, 41.81635 ], [ -87.63616, 41.81635 ], [ -87.63638, 41.81091 ], [ -87.63586, 41.81092 ], [ -87.63546, 41.79448 ] ] ] } },
{ "type": "Feature", "properties": { "id": "62", "name": "WEST ELSDON", "street_miles": 25.24, "any_miles": 0.57, "low_stress_miles": 0.0, "any_pct": 2.26, "low_stress_pct": 0.0 }, "geometry": { "type": "Polygon", "coordinates": [ [ [ -87.71379, 41.80602 ], [ -87.71371, 41.80081 ], [ -87.7135, 41.80069 ], [ -87.71337, 41.78609 ], [ -87.73762, 41.78578 ], [ -87.73791, 41.79529 ], [ -87.73541, 41.79546 ], [ -87.73551, 41.79676 ], [ -87.72817, 41.79683 ], [ -87.72821, 41.79831 ], [ -87.72337, 41.80022 ], [ -87.72337, 41.80055 ], [ -87.71523, 41.80376 ], [ -87.71419, 41.80484 ], [ -87.71379, 41.80602 ] ] ] } },
{ "type": "Feature", "properties": { "id": "63", "name": "GAGE PARK", "street_miles": 43.22, "any_miles": 0.72, "low_stress_miles": 0.0, "any_pct": 1.66, "low_stress_pct": 0.0 }, "geometry": { "type": "Polygon", "coordinates": [ [ [ -87.67941, 41.79703 ], [ -87.67881, 41.7935 ], [ -87.67937, 41.79349 ], [ -87.67967, 41.78656 ], [ -87.71337, 41.78609 ], [ -87.7135, 41.80069 ], [ -87.71371, 41.80081 ], [ -87.71378, 41.80393 ], [ -87.70386, 41.80422 ], [ -87.70387, 41.80448 ], [ -87.68437, 41.80455 ], [ -87.68437, 41.80472 ], [ -87.68376, 41.8048 ], [ -87.67941, 41.80485 ], [ -87.67941, 41.79703 ] ] ] } },
{ "type": "Feature", "properties": { "id": "64", "name": "CLEARING", "street_miles": 43.01, "any_miles": 1.01, "low_stress_miles": 0.0, "any_pct": 2.35, "low_stress_pct": 0.0 }, "geometry": { "type": "Polygon", "coordinates": [ [ [ -87.73762, 41.78578 ], [ -87.73718, 41.7712 ], [ -87.74205, 41.77113 ], [ -87.74217, 41.77478 ], [ -87.80081, 41.7737 ], [ -87.80122, 41.78469 ], [ -87.73762, 41.78578 ] ] ] } },
{ "type": "Feature", "properties": { "id": "65", "name": "WEST LAWN", "street_miles": 48.18, "any_miles": 0.71, "low_stress_miles": 0.0, "any_pct": 1.47, "low_stress_pct": 0.0 }, "geometry": { "type": "Polygon", "coordinates": [ [ [ -87.71255, 41.75734 ], [ -87.71834, 41.75962 ], [ -87.72229, 41.76147 ], [ -87.72204, 41.75337 ], [ -87.73213, 41.75316 ], [ -87.73233, 41.75332 ], [ -87.73658, 41.75304 ], [ -87.7415, 41.75329 ], [ -87.74205, 41.77113 ], [ -87.73718, 41.7712 ], [ -87.73762, 41.78578 ], [ -87.7129, 41.7861 ], [ -87.71255, 41.75734 ] ] ] } },
{ "type": "Feature", "properties": { "id": "66", "name": "CHICAGO LAWN", "street_miles": 69.73, "any_miles": 4.3, "low_stress_miles": 0.0, "any_pct": 6.16, "low_stress_pct": 0.0 }, "geometry": { "type": "Polygon", "coordinates": [ [ [ -87.67815, 41.75766 ], [ -87.70745, 41.75713 ], [ -87.71255, 41.75734 ], [ -87.7129, 41.7861 ], [ -87.67912, 41.78656 ], [ -87.67898, 41.78105 ], [ -87.67849, 41.77925 ], [ -87.67882, 41.77597 ], [ -87.67881, 41.77564 ], [ -87.67856, 41.77564 ], [ -87.67835, 41.77202 ], [ -87.67872, 41.77201 ], [ -87.67862, 41.76839 ], [ -87.67836, 41.76839 ], [ -87.67854, 41.76384 ], [ -87.67815, 41.75766 ] ] ] } },
{ "type": "Feature", "properties": { "id": "67", "name": "WEST ENGLEWOOD", "street_miles": 68.73, "any_miles": 5.72, "low_stress_miles": 0.52, "any_pct": 8.32, "low_stress_pct": 0.76 }, "geometry": { "type": "Polygon", "coordinates": [ [ [ -87.65487, 41.79417 ], [ -87.65393, 41.75793 ], [ -87.67815, 41.75766 ], [ -87.67854, 41.76384 ], [ -87.67836, 41.76839 ], [ -87.67862, 41.76839 ], [ -87.67872, 41.77201 ], [ -87.67835, 41.77202 ], [ -87.67856, 41.77564 ], [ -87.67881, 41.77564 ], [ -87.67882, 41.77597 ], [ -87.67849, 41.77925 ], [ -87.67898, 41.78105 ], [ -87.67912, 41.78656 ], [ -87.67967, 41.78656 ], [ -87.67937, 41.79349 ], [ -87.67881, 41.7935 ], [ -87.67882, 41.79387 ], [ -87.65487, 41.79417 ] ] ] } },
{ "type": "Feature", "properties": { "id": "68", "name": "ENGLEWOOD", "street_miles": 68.11, "any_miles": 3.6, "low_stress_miles": 0.88, "any_pct": 5.28, "low_stress_pct": 1.29 }, "geometry": { "type": "Polygon", "coordinates": [ [ [ -87.62826, 41.78316 ], [ -87.62897, 41.78315 ], [ -87.62889, 41.7803 ], [ -87.62854, 41.78 ], [ -87.63015, 41.77999 ], [ -87.62996, 41.77271 ], [ -87.63104, 41.77269 ], [ -87.63136, 41.76906 ], [ -87.63355, 41.76901 ], [ -87.63354, 41.76719 ], [ -87.63471, 41.76717 ], [ -87.63484, 41.7636 ], [ -87.63443, 41.76342 ], [ -87.63453, 41.7599 ], [ -87.63575, 41.75988 ], [ -87.6357, 41.75806 ], [ -87.63927, 41.75798 ], [ -87.63933, 41.75616 ], [ -87.64408, 41.75608 ], [ -87.64424, 41.75814 ], [ -87.65393, 41.758 ], [ -87.65487, 41.79417 ], [ -87.62856, 41.7946 ], [ -87.62826, 41.78316 ] ] ] } },
{ "type": "Feature", "properties": { "id": "69", "name": "GREATER GRAND CROSSING", "street_miles": 65.37, "any_miles": 9.3, "low_stress_miles": 0.8, "any_pct": 14.23, "low_stress_pct": 1.23 }, "geometry": { "type": "Polygon", "coordinates": [ [ [ -87.61562, 41.78024 ], [ -87.61545, 41.77297 ], [ -87.60559, 41.76587 ], [ -87.60577, 41.77314 ], [ -87.5921, 41.77328 ], [ -87.59275, 41.77015 ], [ -87.59274, 41.7699 ], [ -87.59239, 41.7699 ], [ -87.59228, 41.76601 ], [ -87.5933, 41.76601 ], [ -87.59332, 41.76235 ], [ -87.59458, 41.76235 ], [ -87.59538, 41.7587 ], [ -87.59563, 41.7587 ], [ -87.59306, 41.75688 ], [ -87.5958, 41.75686 ], [ -87.59622, 41.75503 ], [ -87.5956, 41.75503 ], [ -87.59549, 41.75139 ], [ -87.63976, 41.7507 ], [ -87.6399, 41.75615 ], [ -87.63933, 41.75616 ], [ -87.63927, 41.75798 ], [ -87.6357, 41.75806 ], [ -87.63575, 41.75988 ], [ -87.63453, 41.7599 ], [ -87.63443, 41.76342 ], [ -87.63484, 41.7636 ], [ -87.63471, 41.76717 ], [ -87.63354, 41.76719 ], [ -87.63355, 41.76901 ], [ -87.63136, 41.76906 ], [ -87.63104, 41.77269 ], [ -87.62996, 41.77271 ], [ -87.63015, 41.77999 ], [ -87.62854, 41.78 ], [ -87.62889, 41.7803 ], [ -87.62897, 41.78315 ], [ -87.6254, 41.78321 ], [ -87.62537, 41.78006 ], [ -87.61562, 41.78024 ] ] ] } },
{ "type": "Feature", "properties": { "id": "70", "name": "ASHBURN", "street_miles": 92.32, "any_miles": 1.46, "low_stress_miles": 0.0, "any_pct": 1.58, "low_stress_pct": 0.0 }, "geometry": { "type": "Polygon", "coordinates": [ [ [ -87.71255, 41.75734 ], [ -87.70745, 41.75713 ], [ -87.67859, 41.75765 ], [ -87.67789, 41.74254 ], [ -87.67689, 41.74011 ], [ -87.6753, 41.73868 ], [ -87.67279, 41.73565 ], [ -87.74107, 41.73452 ], [ -87.74093, 41.73687 ], [ -87.7415, 41.75329 ], [ -87.73658, 41.75304 ], [ -87.73233, 41.75332 ], [ -87.73213, 41.75316 ], [ -87.72204, 41.75337 ], [ -87.72229, 41.76147 ], [ -87.71834, 41.75962 ], [ -87.71255, 41.75734 ] ] ] } },
{ "type": "Feature", "properties": { "id": "71", "name": "AUBURN GRESHAM", "street_miles": 83.84, "any_miles": 9.04, "low_stress_miles": 1.88, "any_pct": 10.78, "low_stress_pct": 2.24 }, "geometry": { "type": "Polygon", "coordinates": [ [ [ -87.6399, 41.75615 ], [ -87.63976, 41.7507 ], [ -87.63937, 41.75071 ], [ -87.63949, 41.74886 ], [ -87.6391, 41.74887 ], [ -87.63919, 41.74343 ], [ -87.63648, 41.74352 ], [ -87.63595, 41.74416 ], [ -87.63411, 41.7435 ], [ -87.63381, 41.73595 ], [ -87.63413, 41.73594 ], [ -87.63373, 41.72885 ], [ -87.64462, 41.7287 ], [ -87.64468, 41.72984 ], [ -87.64518, 41.72984 ], [ -87.64643, 41.72951 ], [ -87.64749, 41.72863 ], [ -87.64795, 41.7287 ], [ -87.64651, 41.73253 ], [ -87.66539, 41.73209 ], [ -87.66533, 41.73024 ], [ -87.66812, 41.7302 ], [ -87.67308, 41.73566 ], [ -87.67279, 41.73565 ], [ -87.67279, 41.7359 ], [ -87.67689, 41.74011 ], [ -87.67757, 41.74153 ], [ -87.67809, 41.74393 ], [ -87.67859, 41.75765 ], [ -87.66547, 41.75767 ], [ -87.64424, 41.75814 ], [ -87.64418, 41.75609 ], [ -87.6399, 41.75615 ] ] ] } },
{ "type": "Feature", "properties": { "id": "72", "name": "BEVERLY", "street_miles": 58.84, "any_miles": 4.33, "low_stress_miles": 1.88, "any_pct": 7.36, "low_stress_pct": 3.2 }, "geometry": { "type": "Polygon", "coordinates": [ [ [ -87.67308, 41.73566 ], [ -87.66806, 41.73014 ], [ -87.66725, 41.72885 ], [ -87.66732, 41.72844 ], [ -87.6632, 41.72109 ], [ -87.66309, 41.7201 ], [ -87.66107, 41.71569 ], [ -87.65998, 41.714 ], [ -87.65636, 41.70678 ], [ -87.65602, 41.70679 ], [ -87.65874, 41.69944 ], [ -87.69615, 41.69894 ], [ -87.69646, 41.70714 ], [ -87.69152, 41.7072 ], [ -87.69173, 41.71357 ], [ -87.68184, 41.71366 ], [ -87.68251, 41.73553 ], [ -87.67308, 41.73566 ] ] ] } },
{ "type": "Feature", "properties": { "id": "73", "name": "WASHINGTON HEIGHTS", "street_miles": 64.45, "any_miles": 4.62, "low_stress_miles": 3.23, "any_pct": 7.17, "low_stress_pct": 5.01 }, "geometry": { "type": "Polygon", "coordinates": [ [ [ -87.63373, 41.72885 ], [ -87.63313, 41.70704 ], [ -87.64283, 41.70692 ], [ -87.64261, 41.69964 ], [ -87.65874, 41.69944 ], [ -87.65602, 41.70679 ], [ -87.65636, 41.70678 ], [ -87.65998, 41.714 ], [ -87.66107, 41.71569 ], [ -87.66309, 41.7201 ], [ -87.6632, 41.72109 ], [ -87.66812, 41.7302 ], [ -87.66533, 41.73024 ], [ -87.66539, 41.73209 ], [ -87.64651, 41.73253 ], [ -87.64795, 41.7287 ], [ -87.64749, 41.72863 ], [ -87.64643, 41.72951 ], [ -87.64518, 41.72984 ], [ -87.64468, 41.72984 ], [ -87.64462, 41.7287 ], [ -87.63373, 41.72885 ] ] ] } },
{ "type": "Feature", "properties": { "id": "74", "name": "MOUNT GREENWOOD", "street_miles": 41.03, "any_miles": 0.0, "low_stress_miles": 0.0, "any_pct": 0.0, "low_stress_pct": 0.0 }, "geometry": { "type": "Polygon", "coordinates": [ [ [ -87.69646, 41.70714 ], [ -87.69577, 41.68808 ], [ -87.69947, 41.68793 ], [ -87.6994, 41.68615 ], [ -87.70062, 41.68614 ], [ -87.70055, 41.68426 ], [ -87.70542, 41.68419 ], [ -87.70528, 41.68058 ], [ -87.71136, 41.68044 ], [ -87.71139, 41.68127 ], [ -87.71158, 41.68127 ], [ -87.71151, 41.68409 ], [ -87.73945, 41.68363 ], [ -87.73974, 41.69086 ], [ -87.72032, 41.69128 ], [ -87.72113, 41.71317 ], [ -87.71258, 41.7133 ], [ -87.71252, 41.71147 ], [ -87.7113, 41.71149 ], [ -87.71112, 41.70607 ], [ -87.70132, 41.70618 ], [ -87.70137, 41.70705 ], [ -87.69646, 41.70714 ] ] ] } },
{ "type": "Feature", "properties": { "id": "75", "name": "MORGAN PARK", "street_miles": 61.8, "any_miles": 2.05, "low_stress_miles": 0.13, "any_pct": 3.31, "low_stress_pct": 0.21 }, "geometry": { "type": "Polygon", "coordinates": [ [ [ -87.64215, 41.68508 ], [ -87.6616, 41.68482 ], [ -87.66137, 41.67754 ], [ -87.66677, 41.67744 ], [ -87.66732, 41.67596 ], [ -87.6684, 41.67619 ], [ -87.66795, 41.67742 ], [ -87.68621, 41.67721 ], [ -87.68558, 41.67915 ], [ -87.68572, 41.68448 ], [ -87.69563, 41.68433 ], [ -87.69592, 41.69162 ], [ -87.69209, 41.69176 ], [ -87.6921, 41.6922 ], [ -87.69101, 41.69228 ], [ -87.69124, 41.69898 ], [ -87.64261, 41.69964 ], [ -87.64215, 41.68508 ] ] ] } },
{ "type": "Feature", "properties": { "id": "76", "name": "OHARE", "street_miles": 28.48, "any_miles": 0.0, "low_stress_miles": 0.0, "any_pct": 0.0, "low_stress_pct": 0.0 }, "geometry": { "type": "MultiPolygon", "coordinates": [ [ [ [ -87.83658, 41.9864 ], [ -87.83663, 41.97477 ], [ -87.84155, 41.97469 ], [ -87.84156, 41.97439 ], [ -87.84155, 41.97379 ], [ -87.83793, 41.97384 ], [ -87.83795, 41.97135 ], [ -87.83665, 41.97137 ], [ -87.83665, 41.97023 ], [ -87.84159, 41.97014 ], [ -87.84158, 41.97198 ], [ -87.84653, 41.97189 ], [ -87.84657, 41.96641 ], [ -87.83668, 41.9666 ], [ -87.83643, 41.94476 ], [ -87.83512, 41.94467 ], [ -87.83481, 41.93758 ], [ -87.84962, 41.93729 ], [ -87.85181, 41.93917 ], [ -87.85308, 41.9426 ], [ -87.85301, 41.94335 ], [ -87.85382, 41.94584 ], [ -87.85498, 41.94803 ], [ -87.85494, 41.94948 ], [ -87.85407, 41.95145 ], [ -87.84661, 41.95164 ], [ -87.8466, 41.95569 ], [ -87.85808, 41.95544 ], [ -87.85852, 41.95601 ], [ -87.85872, 41.95754 ], [ -87.85582, 41.96241 ], [ -87.85487, 41.96636 ], [ -87.85503, 41.96871 ], [ -87.85413, 41.97117 ], [ -87.85447, 41.9719 ], [ -87.85536, 41.97252 ], [ -87.85659, 41.97246 ], [ -87.85892, 41.97142 ], [ -87.86043, 41.97193 ], [ -87.8619, 41.97332 ], [ -87.88077, 41.97285 ], [ -87.88079, 41.9572 ], [ -87.88385, 41.9573 ], [ -87.89027, 41.9581 ], [ -87.8929, 41.95805 ], [ -87.89288, 41.95079 ], [ -87.90378, 41.95062 ], [ -87.9123, 41.95237 ], [ -87.91228, 41.95143 ], [ -87.91473, 41.95203 ], [ -87.9148, 41.95471 ], [ -87.91523, 41.95684 ], [ -87.91656, 41.9574 ], [ -87.92, 41.95815 ], [ -87.92217, 41.95838 ], [ -87.92217, 41.95387 ], [ -87.92635, 41.95486 ], [ -87.92636, 41.95902 ], [ -87.93208, 41.95994 ], [ -87.93225, 41.9648 ], [ -87.93477, 41.9648 ], [ -87.93476, 41.96682 ], [ -87.93813, 41.96428 ], [ -87.93972, 41.96428 ], [ -87.93993, 41.99349 ], [ -87.9388, 41.99353 ], [ -87.93762, 41.99703 ], [ -87.93552, 42.00004 ], [ -87.93377, 42.00166 ], [ -87.9304, 42.00413 ], [ -87.93036, 42.00221 ], [ -87.92546, 42.00226 ], [ -87.92545, 42.00105 ], [ -87.92052, 42.00113 ], [ -87.92051, 42.00495 ], [ -87.91377, 42.00507 ], [ -87.91377, 42.0087 ], [ -87.91331, 42.00872 ], [ -87.91331, 42.00626 ], [ -87.91303, 42.00627 ], [ -87.91303, 42.00509 ], [ -87.90767, 42.00525 ], [ -87.90768, 42.00892 ], [ -87.90575, 42.00899 ], [ -87.89835, 42.00679 ], [ -87.89598, 42.00565 ], [ -87.89576, 42.00588 ], [ -87.89531, 42.00567 ], [ -87.89429, 42.0057 ], [ -87.89435, 42.00271 ], [ -87.89355, 42.00274 ], [ -87.89326, 42.00394 ], [ -87.89189, 42.00399 ], [ -87.89, 42.00323 ], [ -87.89038, 42.00285 ], [ -87.89039, 42.0023 ], [ -87.89924, 42.0019 ], [ -87.90241, 42.00361 ], [ -87.9024, 42.00403 ], [ -87.90406, 42.00397 ], [ -87.90406, 42.00356 ], [ -87.90312, 42.00342 ], [ -87.89954, 42.00148 ], [ -87.89744, 42.00155 ], [ -87.89746, 42.00053 ], [ -87.8894, 41.99939 ], [ -87.88496, 41.99846 ], [ -87.88453, 41.9982 ], [ -87.88454, 41.9951 ], [ -87.88035, 41.99523 ], [ -87.87691, 41.98567 ], [ -87.87586, 41.9857 ], [ -87.87586, 41.98294 ], [ -87.87373, 41.97666 ], [ -87.87588, 41.9766 ], [ -87.87589, 41.97388 ], [ -87.8686, 41.97405 ], [ -87.86861, 41.9738 ], [ -87.86749, 41.97399 ], [ -87.86749, 41.97373 ], [ -87.86201, 41.97386 ], [ -87.86176, 41.97517 ], [ -87.86124, 41.976 ], [ -87.85627, 41.98046 ], [ -87.85588, 41.9811 ], [ -87.85578, 41.98216 ], [ -87.85665, 41.98443 ], [ -87.85636, 41.98599 ], [ -87.85554, 41.98794 ], [ -87.85584, 41.98905 ], [ -87.85412, 41.98865 ], [ -87.8499, 41.98835 ], [ -87.83658, 41.9864 ] ] ], [ [ [ -87.94001, 41.99811 ], [ -87.94011, 42.00079 ], [ -87.93514, 42.00089 ], [ -87.93708, 41.99859 ], [ -87.94001, 41.99811 ] ] ], [ [ [ -87.93358, 42.00817 ], [ -87.93361, 42.00488 ], [ -87.93437, 42.00498 ], [ -87.9343, 42.00196 ], [ -87.93389, 42.00197 ], [ -87.93509, 42.00094 ], [ -87.93529, 42.00815 ], [ -87.93358, 42.00817 ] ] ] ] } },
{ "type": "Feature", "properties": { "id": "77", "name": "EDGEWATER", "street_miles": 35.18, "any_miles": 9.23, "low_stress_miles": 7.95, "any_pct": 26.24, "low_stress_pct": 22.59 }, "geometry": { "type": "Polygon", "coordinates": [ [ [ -87.65456, 41.99817 ], [ -87.65426, 41.99599 ], [ -87.65466, 41.99594 ], [ -87.6546, 41.99453 ], [ -87.65427, 41.99411 ], [ -87.65453, 41.99339 ], [ -87.65409, 41.99301 ], [ -87.65441, 41.99099 ], [ -87.65419, 41.99029 ], [ -87.65431, 41.98841 ], [ -87.65354, 41.98757 ], [ -87.65098, 41.98572 ], [ -87.64989, 41.98542 ], [ -87.64935, 41.98639 ], [ -87.65068, 41.98319 ], [ -87.65067, 41.98066 ], [ -87.65022, 41.97972 ], [ -87.65048, 41.97946 ], [ -87.6486, 41.97784 ], [ -87.64729, 41.97775 ], [ -87.64904, 41.97681 ], [ -87.65126, 41.97646 ], [ -87.67441, 41.9761 ], [ -87.67501, 41.99799 ], [ -87.65456, 41.99817 ] ] ] } }
]
}
