{
"type": "FeatureCollection",
"name": "wards",
"crs": { "type": "name", "properties": { "name": "urn:ogc:def:crs:OGC:1.3:CRS84" } },
"xy_coordinate_resolution": 1e-05,
"features": [
{ "type": "Feature", "properties": { "id": "1", "name": "1", "street_miles": 58.81, "any_miles": 12.1, "low_stress_miles": 4.89, "any_pct": 20.57, "low_stress_pct": 8.31 }, "geometry": { "type": "Polygon", "coordinates": [ [ [ -87.68777, 41.92858 ], [ -87.68722, 41.91032 ], [ -87.66519, 41.91066 ], [ -87.66428, 41.90941 ], [ -87.66178, 41.90696 ], [ -87.66114, 41.90497 ], [ -87.66129, 41.90344 ], [ -87.66649, 41.90336 ], [ -87.66253, 41.90082 ], [ -87.66247, 41.89844 ], [ -87.66491, 41.89839 ], [ -87.66491, 41.89611 ], [ -87.66566, 41.8961 ], [ -87.66558, 41.89337 ], [ -87.65744, 41.8935 ], [ -87.65743, 41.89292 ], [ -87.65993, 41.88996 ], [ -87.66088, 41.88995 ], [ -87.66068, 41.88886 ], [ -87.66214, 41.88895 ], [ -87.66223, 41.88994 ], [ -87.66548, 41.88991 ], [ -87.66552, 41.891 ], [ -87.67202, 41.8909 ], [ -87.67228, 41.89963 ], [ -87.68449, 41.89942 ], [ -87.68451, 41.90033 ], [ -87.68696, 41.90029 ], [ -87.68712, 41.90667 ], [ -87.69204, 41.90662 ], [ -87.6922, 41.91395 ], [ -87.69761, 41.914 ], [ -87.69772, 41.91748 ], [ -87.70697, 41.9174 ], [ -87.70707, 41.92066 ], [ -87.70761, 41.92106 ], [ -87.70711, 41.92145 ], [ -87.70714, 41.92232 ], [ -87.70223, 41.92238 ], [ -87.70235, 41.92597 ], [ -87.70575, 41.92806 ], [ -87.70488, 41.9284 ], [ -87.70498, 41.93204 ], [ -87.69396, 41.93212 ], [ -87.68777, 41.92858 ] ] ] } },
{ "type": "Feature", "properties": { "id": "2", "name": "2", "street_miles": 25.27, "any_miles": 5.71, "low_stress_miles": 0.93, "any_pct": 22.61, "low_stress_pct": 3.67 }, "geometry": { "type": "Polygon", "coordinates": [ [ [ -87.62585, 41.90399 ], [ -87.62372, 41.90405 ], [ -87.62259, 41.90319 ], [ -87.62187, 41.90205 ], [ -87.61988, 41.90155 ], [ -87.61916, 41.90102 ], [ -87.61369, 41.89313 ], [ -87.61407, 41.89296 ], [ -87.61389, 41.89111 ], [ -87.62265, 41.89094 ], [ -87.62276, 41.89497 ], [ -87.62815, 41.89488 ], [ -87.62817, 41.89568 ], [ -87.62683, 41.8957 ], [ -87.62685, 41.8967 ], [ -87.62424, 41.89673 ], [ -87.62412, 41.90082 ], [ -87.62451, 41.90244 ], [ -87.62832, 41.90237 ], [ -87.62829, 41.89994 ], [ -87.62986, 41.89991 ], [ -87.62982, 41.89799 ], [ -87.63055, 41.89798 ], [ -87.63052, 41.89665 ], [ -87.6342, 41.8966 ], [ -87.63423, 41.89742 ], [ -87.6372, 41.89738 ], [ -87.63719, 41.89698 ], [ -87.63869, 41.89703 ], [ -87.63877, 41.89892 ], [ -87.63726, 41.89894 ], [ -87.63723, 41.89816 ], [ -87.63426, 41.8982 ], [ -87.63438, 41.90132 ], [ -87.63293, 41.90133 ], [ -87.63298, 41.90311 ], [ -87.63142, 41.90314 ], [ -87.63145, 41.9039 ], [ -87.63702, 41.90381 ], [ -87.63712, 41.90569 ], [ -87.63842, 41.90566 ], [ -87.63848, 41.9076 ], [ -87.63718, 41.90762 ], [ -87.63762, 41.91113 ], [ -87.63666, 41.91114 ], [ -87.63668, 41.91175 ], [ -87.63806, 41.91172 ], [ -87.63804, 41.91118 ], [ -87.63859, 41.91117 ], [ -87.63853, 41.90924 ], [ -87.64096, 41.90921 ], [ -87.64084, 41.90513 ], [ -87.64111, 41.90487 ], [ -87.64211, 41.9056 ], [ -87.64217, 41.90919 ], [ -87.64338, 41.90918 ], [ -87.64341, 41.91043 ], [ -87.64545, 41.91023 ], [ -87.64536, 41.91096 ], [ -87.64584, 41.91096 ], [ -87.64586, 41.91142 ], [ -87.64707, 41.9114 ], [ -87.64708, 41.91094 ], [ -87.64625, 41.91095 ], [ -87.64615, 41.91023 ], [ -87.64702, 41.91014 ], [ -87.64775, 41.90964 ], [ -87.64825, 41.91 ], [ -87.64821, 41.90858 ], [ -87.65104, 41.90853 ], [ -87.65111, 41.91087 ], [ -87.65408, 41.91082 ], [ -87.65548, 41.9125 ], [ -87.65439, 41.91305 ], [ -87.65778, 41.91617 ], [ -87.6591, 41.91712 ], [ -87.66014, 41.9171 ], [ -87.66304, 41.91929 ], [ -87.66319, 41.92074 ], [ -87.66811, 41.92428 ], [ -87.66815, 41.92515 ], [ -87.65725, 41.92531 ], [ -87.65719, 41.9235 ], [ -87.65839, 41.92348 ], [ -87.65833, 41.92166 ], [ -87.65713, 41.92168 ], [ -87.65707, 41.91987 ], [ -87.65828, 41.91985 ], [ -87.65828, 41.91719 ], [ -87.6495, 41.9109 ], [ -87.64827, 41.91092 ], [ -87.64836, 41.91383 ], [ -87.64445, 41.91389 ], [ -87.64436, 41.91099 ], [ -87.63981, 41.9111 ], [ -87.63986, 41.91287 ], [ -87.63311, 41.91291 ], [ -87.63281, 41.91311 ], [ -87.63168, 41.91118 ], [ -87.62889, 41.91122 ], [ -87.62871, 41.90485 ], [ -87.62584, 41.9049 ], [ -87.62585, 41.90399 ] ] ] } },
{ "type": "Feature", "properties": { "id": "3", "name": "3", "street_miles": 70.67, "any_miles": 9.91, "low_stress_miles": 5.48, "any_pct": 14.02, "low_stress_pct": 7.75 }, "geometry": { "type": "Polygon", "coordinates": [ [ [ -87.62041, 41.86759 ], [ -87.61884, 41.86264 ], [ -87.61675, 41.85798 ], [ -87.61888, 41.85792 ], [ -87.61777, 41.85557 ], [ -87.61705, 41.85301 ], [ -87.62227, 41.85281 ], [ -87.62217, 41.84839 ], [ -87.62369, 41.84842 ], [ -87.6234, 41.84608 ], [ -87.62331, 41.83835 ], [ -87.62192, 41.83836 ], [ -87.62188, 41.8365 ], [ -87.61944, 41.83657 ], [ -87.61941, 41.83474 ], [ -87.62062, 41.83472 ], [ -87.62055, 41.83107 ], [ -87.61841, 41.83109 ], [ -87.61834, 41.82746 ], [ -87.61707, 41.82747 ], [ -87.617, 41.82383 ], [ -87.61262, 41.82389 ], [ -87.61409, 41.81668 ], [ -87.61286, 41.81671 ], [ -87.6128, 41.81489 ], [ -87.60832, 41.81497 ], [ -87.60828, 41.81315 ], [ -87.60991, 41.81312 ], [ -87.60987, 41.81131 ], [ -87.6115, 41.81128 ], [ -87.61141, 41.80764 ], [ -87.61263, 41.80762 ], [ -87.61259, 41.8058 ], [ -87.61555, 41.80576 ], [ -87.61551, 41.80394 ], [ -87.61645, 41.80392 ], [ -87.61611, 41.8021 ], [ -87.61596, 41.79392 ], [ -87.62082, 41.79383 ], [ -87.62085, 41.79472 ], [ -87.62678, 41.79463 ], [ -87.62683, 41.79636 ], [ -87.62784, 41.79647 ], [ -87.62798, 41.80191 ], [ -87.62883, 41.80189 ], [ -87.62913, 41.81645 ], [ -87.63356, 41.81638 ], [ -87.63359, 41.81774 ], [ -87.63538, 41.81771 ], [ -87.6352, 41.81636 ], [ -87.63472, 41.81637 ], [ -87.63461, 41.8125 ], [ -87.63346, 41.81252 ], [ -87.63344, 41.81174 ], [ -87.63201, 41.81176 ], [ -87.63198, 41.81032 ], [ -87.63225, 41.80987 ], [ -87.63339, 41.80985 ], [ -87.63338, 41.80948 ], [ -87.63477, 41.80945 ], [ -87.63475, 41.80907 ], [ -87.63584, 41.80905 ], [ -87.63635, 41.82358 ], [ -87.63376, 41.82362 ], [ -87.63384, 41.82726 ], [ -87.63263, 41.82728 ], [ -87.63267, 41.82904 ], [ -87.63147, 41.82906 ], [ -87.6315, 41.83094 ], [ -87.62959, 41.83097 ], [ -87.63026, 41.86012 ], [ -87.63488, 41.86011 ], [ -87.6351, 41.86726 ], [ -87.63532, 41.86736 ], [ -87.62749, 41.86734 ], [ -87.62747, 41.86574 ], [ -87.62384, 41.86579 ], [ -87.62263, 41.86582 ], [ -87.62267, 41.86756 ], [ -87.62041, 41.86759 ] ] ] } },
{ "type": "Feature", "properties": { "id": "4", "name": "4", "street_miles": 64.39, "any_miles": 8.6, "low_stress_miles": 1.88, "any_pct": 13.36, "low_stress_pct": 2.93 }, "geometry": { "type": "Polygon", "coordinates": [ [ [ -87.62429, 41.877 ], [ -87.6242, 41.87316 ], [ -87.61623, 41.87328 ], [ -87.61621, 41.8689 ], [ -87.61535, 41.8683 ], [ -87.61381, 41.86851 ], [ -87.61277, 41.86831 ], [ -87.61233, 41.86763 ], [ -87.61269, 41.86675 ], [ -87.60775, 41.86686 ], [ -87.60676, 41.86724 ], [ -87.60613, 41.8671 ], [ -87.60568, 41.86667 ], [ -87.60605, 41.86479 ], [ -87.60629, 41.86479 ], [ -87.60659, 41.86521 ], [ -87.60687, 41.86518 ], [ -87.60758, 41.86427 ], [ -87.60695, 41.86237 ], [ -87.60602, 41.86201 ], [ -87.60597, 41.86008 ], [ -87.60707, 41.85996 ], [ -87.60651, 41.85336 ], [ -87.609, 41.85318 ], [ -87.6099, 41.85377 ], [ -87.60934, 41.85682 ], [ -87.60992, 41.85766 ], [ -87.60989, 41.85864 ], [ -87.61048, 41.85928 ], [ -87.61036, 41.85986 ], [ -87.61067, 41.86065 ], [ -87.61035, 41.86085 ], [ -87.60961, 41.86341 ], [ -87.61048, 41.86586 ], [ -87.61267, 41.86584 ], [ -87.61265, 41.86528 ], [ -87.61329, 41.86403 ], [ -87.61339, 41.86273 ], [ -87.61256, 41.86137 ], [ -87.61255, 41.86082 ], [ -87.61221, 41.86063 ], [ -87.61239, 41.86035 ], [ -87.61215, 41.86035 ], [ -87.61244, 41.85999 ], [ -87.61219, 41.85858 ], [ -87.61284, 41.85819 ], [ -87.61304, 41.85696 ], [ -87.61263, 41.856 ], [ -87.61116, 41.85486 ], [ -87.61072, 41.85308 ], [ -87.60924, 41.85099 ], [ -87.60949, 41.84807 ], [ -87.60841, 41.84607 ], [ -87.60915, 41.84424 ], [ -87.60802, 41.84231 ], [ -87.60785, 41.84103 ], [ -87.60753, 41.84056 ], [ -87.60698, 41.84067 ], [ -87.60668, 41.84056 ], [ -87.6075, 41.8405 ], [ -87.60721, 41.83965 ], [ -87.60616, 41.83864 ], [ -87.60471, 41.83896 ], [ -87.60419, 41.83983 ], [ -87.60467, 41.83888 ], [ -87.60613, 41.83855 ], [ -87.60585, 41.83644 ], [ -87.60456, 41.83499 ], [ -87.60503, 41.83442 ], [ -87.60487, 41.8338 ], [ -87.60435, 41.8332 ], [ -87.60301, 41.83273 ], [ -87.60239, 41.83069 ], [ -87.59997, 41.82793 ], [ -87.59775, 41.82634 ], [ -87.59748, 41.82564 ], [ -87.5977, 41.82457 ], [ -87.59733, 41.82274 ], [ -87.59565, 41.82032 ], [ -87.59262, 41.81834 ], [ -87.59219, 41.81768 ], [ -87.59216, 41.81658 ], [ -87.59046, 41.81465 ], [ -87.59013, 41.81362 ], [ -87.58876, 41.81228 ], [ -87.58738, 41.81187 ], [ -87.58708, 41.81144 ], [ -87.59023, 41.81038 ], [ -87.59019, 41.80965 ], [ -87.58857, 41.80729 ], [ -87.58774, 41.80679 ], [ -87.58912, 41.80636 ], [ -87.58756, 41.80248 ], [ -87.58786, 41.80248 ], [ -87.5873, 41.79956 ], [ -87.59664, 41.79946 ], [ -87.59671, 41.80237 ], [ -87.6042, 41.80228 ], [ -87.60426, 41.80409 ], [ -87.61255, 41.80398 ], [ -87.61263, 41.80762 ], [ -87.61141, 41.80764 ], [ -87.6115, 41.81128 ], [ -87.60987, 41.81131 ], [ -87.60991, 41.81312 ], [ -87.60828, 41.81315 ], [ -87.60832, 41.81497 ], [ -87.6128, 41.81489 ], [ -87.61286, 41.81671 ], [ -87.61409, 41.81668 ], [ -87.61262, 41.82389 ], [ -87.617, 41.82383 ], [ -87.61707, 41.82747 ], [ -87.61834, 41.82746 ], [ -87.61841, 41.83109 ], [ -87.62055, 41.83107 ], [ -87.62062, 41.83472 ], [ -87.61941, 41.83474 ], [ -87.61944, 41.83657 ], [ -87.62188, 41.8365 ], [ -87.62192, 41.83836 ], [ -87.62331, 41.83835 ], [ -87.6234, 41.84608 ], [ -87.62369, 41.84842 ], [ -87.62217, 41.84839 ], [ -87.62227, 41.85281 ], [ -87.61705, 41.85301 ], [ -87.61777, 41.85557 ], [ -87.61888, 41.85792 ], [ -87.61675, 41.85798 ], [ -87.61895, 41.86291 ], [ -87.62041, 41.86759 ], [ -87.63044, 41.86743 ], [ -87.63071, 41.87569 ], [ -87.6287, 41.87556 ], [ -87.62871, 41.87594 ], [ -87.62874, 41.87691 ], [ -87.63075, 41.87688 ], [ -87.63079, 41.87815 ], [ -87.62608, 41.87825 ], [ -87.62604, 41.87617 ], [ -87.6253, 41.8762 ], [ -87.62529, 41.87699 ], [ -87.62429, 41.877 ] ] ] } },
{ "type": "Feature", "properties": { "id": "5", "name": "5", "street_miles": 65.45, "any_miles": 5.81, "low_stress_miles": 1.56, "any_pct": 8.88, "low_stress_pct": 2.38 }, "geometry": { "type": "Polygon", "coordinates": [ [ [ -87.5603, 41.76636 ], [ -87.56648, 41.76632 ], [ -87.56649, 41.76443 ], [ -87.5677, 41.76442 ], [ -87.56766, 41.76261 ], [ -87.57758, 41.7625 ], [ -87.57929, 41.76248 ], [ -87.57937, 41.76611 ], [ -87.58534, 41.76606 ], [ -87.58528, 41.76424 ], [ -87.58587, 41.76424 ], [ -87.5859, 41.76515 ], [ -87.5863, 41.76514 ], [ -87.58633, 41.76606 ], [ -87.59383, 41.766 ], [ -87.59405, 41.76508 ], [ -87.59336, 41.76508 ], [ -87.59328, 41.76053 ], [ -87.59513, 41.76056 ], [ -87.59552, 41.7587 ], [ -87.598, 41.75865 ], [ -87.60822, 41.76583 ], [ -87.60559, 41.76587 ], [ -87.60577, 41.77314 ], [ -87.59222, 41.77327 ], [ -87.59146, 41.77875 ], [ -87.59099, 41.77876 ], [ -87.58994, 41.78321 ], [ -87.59141, 41.78328 ], [ -87.59144, 41.78421 ], [ -87.59466, 41.78418 ], [ -87.59471, 41.78607 ], [ -87.59633, 41.78601 ], [ -87.59629, 41.78417 ], [ -87.60277, 41.78409 ], [ -87.6028, 41.78527 ], [ -87.60442, 41.78525 ], [ -87.60443, 41.78589 ], [ -87.60604, 41.78587 ], [ -87.60622, 41.79497 ], [ -87.60375, 41.79499 ], [ -87.60383, 41.79546 ], [ -87.60273, 41.79532 ], [ -87.60289, 41.8023 ], [ -87.59671, 41.80237 ], [ -87.59664, 41.79946 ], [ -87.5873, 41.79956 ], [ -87.58786, 41.80248 ], [ -87.58756, 41.80248 ], [ -87.58912, 41.80636 ], [ -87.58774, 41.80679 ], [ -87.58842, 41.80711 ], [ -87.5902, 41.8097 ], [ -87.59023, 41.81038 ], [ -87.58894, 41.81089 ], [ -87.58707, 41.81143 ], [ -87.58692, 41.81011 ], [ -87.58516, 41.80722 ], [ -87.58127, 41.80431 ], [ -87.58005, 41.80384 ], [ -87.58045, 41.80293 ], [ -87.5805, 41.8011 ], [ -87.57994, 41.79837 ], [ -87.57966, 41.79808 ], [ -87.57811, 41.79698 ], [ -87.57732, 41.79686 ], [ -87.57614, 41.79703 ], [ -87.57527, 41.79661 ], [ -87.57544, 41.79544 ], [ -87.57617, 41.79509 ], [ -87.57783, 41.79492 ], [ -87.57899, 41.79422 ], [ -87.57963, 41.79204 ], [ -87.57827, 41.78994 ], [ -87.57632, 41.78857 ], [ -87.57776, 41.7883 ], [ -87.57715, 41.78818 ], [ -87.57724, 41.78648 ], [ -87.5761, 41.78365 ], [ -87.57248, 41.7819 ], [ -87.56968, 41.7813 ], [ -87.5684, 41.78161 ], [ -87.56753, 41.7846 ], [ -87.56831, 41.78154 ], [ -87.57308, 41.78025 ], [ -87.57295, 41.77982 ], [ -87.57411, 41.77953 ], [ -87.57473, 41.77911 ], [ -87.57528, 41.77787 ], [ -87.57519, 41.77701 ], [ -87.57461, 41.77615 ], [ -87.57504, 41.77579 ], [ -87.57337, 41.77538 ], [ -87.57322, 41.77559 ], [ -87.57194, 41.77588 ], [ -87.57177, 41.77666 ], [ -87.57336, 41.77831 ], [ -87.57321, 41.77919 ], [ -87.57224, 41.77923 ], [ -87.57182, 41.77858 ], [ -87.5699, 41.777 ], [ -87.56881, 41.7764 ], [ -87.56594, 41.77313 ], [ -87.565, 41.77253 ], [ -87.56358, 41.77203 ], [ -87.56328, 41.77044 ], [ -87.56234, 41.769 ], [ -87.56053, 41.7684 ], [ -87.55954, 41.76918 ], [ -87.55939, 41.76678 ], [ -87.5603, 41.76636 ] ] ] } },
{ "type": "Feature", "properties": { "id": "6", "name": "6", "street_miles": 103.56, "any_miles": 11.93, "low_stress_miles": 0.68, "any_pct": 11.52, "low_stress_pct": 0.65 }, "geometry": { "type": "Polygon", "coordinates": [ [ [ -87.61794, 41.77292 ], [ -87.60577, 41.77314 ], [ -87.60559, 41.76587 ], [ -87.60822, 41.76583 ], [ -87.59822, 41.75865 ], [ -87.60539, 41.75858 ], [ -87.60482, 41.73665 ], [ -87.61453, 41.7365 ], [ -87.61439, 41.73102 ], [ -87.60954, 41.7311 ], [ -87.60952, 41.7307 ], [ -87.60949, 41.72928 ], [ -87.61434, 41.7292 ], [ -87.61414, 41.72189 ], [ -87.62373, 41.7217 ], [ -87.62428, 41.74183 ], [ -87.62903, 41.74175 ], [ -87.62911, 41.74358 ], [ -87.63417, 41.7435 ], [ -87.63595, 41.74416 ], [ -87.63649, 41.7435 ], [ -87.64383, 41.74336 ], [ -87.64399, 41.74882 ], [ -87.64277, 41.74884 ], [ -87.64282, 41.75066 ], [ -87.63188, 41.75082 ], [ -87.63178, 41.74719 ], [ -87.62572, 41.74728 ], [ -87.62582, 41.75093 ], [ -87.62703, 41.75091 ], [ -87.62711, 41.75455 ], [ -87.62856, 41.75452 ], [ -87.62896, 41.75634 ], [ -87.6394, 41.75616 ], [ -87.63927, 41.75982 ], [ -87.64428, 41.75974 ], [ -87.64455, 41.77065 ], [ -87.64321, 41.77068 ], [ -87.64326, 41.77249 ], [ -87.64261, 41.77251 ], [ -87.6427, 41.77609 ], [ -87.63959, 41.77618 ], [ -87.63964, 41.77801 ], [ -87.63115, 41.77811 ], [ -87.63007, 41.7766 ], [ -87.63005, 41.77703 ], [ -87.6276, 41.77526 ], [ -87.62603, 41.77492 ], [ -87.62117, 41.77482 ], [ -87.61974, 41.77425 ], [ -87.61794, 41.77292 ] ] ] } },
{ "type": "Feature", "properties": { "id": "7", "name": "7", "street_miles": 92.08, "any_miles": 6.84, "low_stress_miles": 0.08, "any_pct": 7.43, "low_stress_pct": 0.09 }, "geometry": { "type": "Polygon", "coordinates": [ [ [ -87.54441, 41.76067 ], [ -87.54256, 41.75913 ], [ -87.54263, 41.75874 ], [ -87.54165, 41.75782 ], [ -87.54115, 41.75779 ], [ -87.5406, 41.75727 ], [ -87.54396, 41.75523 ], [ -87.54441, 41.75413 ], [ -87.54351, 41.75225 ], [ -87.54303, 41.75192 ], [ -87.54044, 41.75185 ], [ -87.5311, 41.74813 ], [ -87.5304, 41.74475 ], [ -87.55032, 41.74467 ], [ -87.55029, 41.74332 ], [ -87.55173, 41.74347 ], [ -87.55152, 41.74209 ], [ -87.55268, 41.74287 ], [ -87.55517, 41.74279 ], [ -87.55513, 41.74097 ], [ -87.55575, 41.74096 ], [ -87.55568, 41.7378 ], [ -87.55509, 41.73781 ], [ -87.55508, 41.73734 ], [ -87.55559, 41.73733 ], [ -87.5554, 41.73001 ], [ -87.55264, 41.73006 ], [ -87.55258, 41.72775 ], [ -87.55393, 41.72643 ], [ -87.55385, 41.72273 ], [ -87.55969, 41.72266 ], [ -87.55892, 41.72136 ], [ -87.55876, 41.71335 ], [ -87.55975, 41.71342 ], [ -87.55964, 41.7064 ], [ -87.56268, 41.7064 ], [ -87.56265, 41.70458 ], [ -87.56565, 41.70462 ], [ -87.56571, 41.70178 ], [ -87.5654, 41.70125 ], [ -87.56746, 41.70111 ], [ -87.57366, 41.70797 ], [ -87.58605, 41.70777 ], [ -87.58515, 41.70953 ], [ -87.58487, 41.71113 ], [ -87.58513, 41.72234 ], [ -87.57536, 41.72247 ], [ -87.57553, 41.72976 ], [ -87.5725, 41.7298 ], [ -87.57259, 41.73345 ], [ -87.56591, 41.73354 ], [ -87.566, 41.73719 ], [ -87.5657, 41.7372 ], [ -87.56603, 41.73743 ], [ -87.5661, 41.74264 ], [ -87.57218, 41.74256 ], [ -87.57261, 41.74217 ], [ -87.57563, 41.74434 ], [ -87.56856, 41.74443 ], [ -87.56864, 41.74988 ], [ -87.57108, 41.74985 ], [ -87.57114, 41.75348 ], [ -87.57236, 41.75347 ], [ -87.57246, 41.75892 ], [ -87.57854, 41.75885 ], [ -87.57859, 41.76067 ], [ -87.58842, 41.76057 ], [ -87.58851, 41.76422 ], [ -87.58528, 41.76424 ], [ -87.58534, 41.76606 ], [ -87.57937, 41.76611 ], [ -87.57929, 41.76248 ], [ -87.56766, 41.76261 ], [ -87.5677, 41.76442 ], [ -87.56649, 41.76443 ], [ -87.56648, 41.76632 ], [ -87.5603, 41.76636 ], [ -87.56059, 41.76556 ], [ -87.56012, 41.76494 ], [ -87.5596, 41.76473 ], [ -87.55974, 41.76439 ], [ -87.55944, 41.76408 ], [ -87.55898, 41.76375 ], [ -87.55846, 41.76402 ], [ -87.55757, 41.76312 ], [ -87.5576, 41.76281 ], [ -87.55573, 41.76163 ], [ -87.5548, 41.76177 ], [ -87.55407, 41.76078 ], [ -87.5505, 41.75931 ], [ -87.54871, 41.75873 ], [ -87.54709, 41.75874 ], [ -87.54551, 41.75936 ], [ -87.54432, 41.76017 ], [ -87.54385, 41.76011 ], [ -87.54442, 41.76062 ], [ -87.54649, 41.76065 ], [ -87.54441, 41.76067 ] ] ] } },
{ "type": "Feature", "properties": { "id": "8", "name": "8", "street_miles": 121.12, "any_miles": 7.42, "low_stress_miles": 0.54, "any_pct": 6.13, "low_stress_pct": 0.45 }, "geometry": { "type": "Polygon", "coordinates": [ [ [ -87.58587, 41.76424 ], [ -87.58851, 41.76422 ], [ -87.58842, 41.76057 ], [ -87.57859, 41.76067 ], [ -87.57854, 41.75885 ], [ -87.57246, 41.75892 ], [ -87.57236, 41.75347 ], [ -87.57114, 41.75348 ], [ -87.57108, 41.74985 ], [ -87.56864, 41.74988 ], [ -87.56856, 41.74443 ], [ -87.57563, 41.74434 ], [ -87.57261, 41.74217 ], [ -87.57218, 41.74256 ], [ -87.5661, 41.74264 ], [ -87.56603, 41.73743 ], [ -87.5657, 41.7372 ], [ -87.566, 41.73719 ], [ -87.56591, 41.73354 ], [ -87.57259, 41.73345 ], [ -87.5725, 41.7298 ], [ -87.57553, 41.72976 ], [ -87.57536, 41.72247 ], [ -87.58513, 41.72234 ], [ -87.58487, 41.71113 ], [ -87.58515, 41.70953 ], [ -87.58605, 41.70777 ], [ -87.60652, 41.70743 ], [ -87.60512, 41.71359 ], [ -87.61395, 41.71344 ], [ -87.61434, 41.7292 ], [ -87.60949, 41.72928 ], [ -87.60952, 41.7307 ], [ -87.60954, 41.7311 ], [ -87.61439, 41.73102 ], [ -87.61453, 41.7365 ], [ -87.60482, 41.73665 ], [ -87.60539, 41.75858 ], [ -87.59552, 41.7587 ], [ -87.59513, 41.76056 ], [ -87.59328, 41.76053 ], [ -87.59336, 41.76508 ], [ -87.59405, 41.76508 ], [ -87.59383, 41.766 ], [ -87.58633, 41.76606 ], [ -87.5863, 41.76514 ], [ -87.5859, 41.76515 ], [ -87.58587, 41.76424 ] ] ] } },
{ "type": "Feature", "properties": { "id": "9", "name": "9", "street_miles": 137.33, "any_miles": 12.22, "low_stress_miles": 2.04, "any_pct": 8.9, "low_stress_pct": 1.48 }, "geometry": { "type": "Polygon", "coordinates": [ [ [ -87.61414, 41.72189 ], [ -87.61395, 41.71344 ], [ -87.60512, 41.71359 ], [ -87.60652, 41.70743 ], [ -87.59221, 41.70767 ], [ -87.59178, 41.70535 ], [ -87.59225, 41.703 ], [ -87.59485, 41.69876 ], [ -87.60172, 41.68584 ], [ -87.60194, 41.68417 ], [ -87.60172, 41.67673 ], [ -87.60128, 41.67489 ], [ -87.60039, 41.67334 ], [ -87.58928, 41.66039 ], [ -87.59259, 41.66025 ], [ -87.59963, 41.65926 ], [ -87.60757, 41.65914 ], [ -87.60762, 41.65741 ], [ -87.60964, 41.6574 ], [ -87.60969, 41.65413 ], [ -87.60985, 41.65403 ], [ -87.61108, 41.65525 ], [ -87.61156, 41.65534 ], [ -87.61135, 41.65185 ], [ -87.61723, 41.65182 ], [ -87.61723, 41.65028 ], [ -87.62032, 41.65089 ], [ -87.61875, 41.65458 ], [ -87.61771, 41.6591 ], [ -87.61968, 41.65906 ], [ -87.61939, 41.66006 ], [ -87.61951, 41.66079 ], [ -87.62025, 41.66137 ], [ -87.62202, 41.66213 ], [ -87.62204, 41.66241 ], [ -87.62442, 41.66226 ], [ -87.62627, 41.66166 ], [ -87.63108, 41.65783 ], [ -87.63139, 41.658 ], [ -87.63233, 41.65788 ], [ -87.633, 41.65753 ], [ -87.63556, 41.65735 ], [ -87.64105, 41.65777 ], [ -87.64106, 41.6581 ], [ -87.64143, 41.65809 ], [ -87.64142, 41.65777 ], [ -87.64699, 41.65763 ], [ -87.6472, 41.66316 ], [ -87.64142, 41.66325 ], [ -87.64167, 41.67054 ], [ -87.63206, 41.67064 ], [ -87.63227, 41.67792 ], [ -87.62987, 41.67795 ], [ -87.63043, 41.69705 ], [ -87.62802, 41.69708 ], [ -87.62827, 41.70704 ], [ -87.63919, 41.70696 ], [ -87.63939, 41.71425 ], [ -87.63697, 41.71427 ], [ -87.63699, 41.71518 ], [ -87.6394, 41.71519 ], [ -87.63977, 41.72882 ], [ -87.63856, 41.72883 ], [ -87.63859, 41.72996 ], [ -87.62405, 41.73014 ], [ -87.62373, 41.7217 ], [ -87.61414, 41.72189 ] ] ] } },
{ "type": "Feature", "properties": { "id": "10", "name": "10", "street_miles": 141.54, "any_miles": 15.86, "low_stress_miles": 1.24, "any_pct": 11.21, "low_stress_pct": 0.88 }, "geometry": { "type": "Polygon", "coordinates": [ [ [ -87.5304, 41.74475 ], [ -87.52977, 41.74142 ], [ -87.52446, 41.74139 ], [ -87.53986, 41.74101 ], [ -87.53985, 41.74074 ], [ -87.53983, 41.7405 ], [ -87.52986, 41.74061 ], [ -87.52896, 41.73377 ], [ -87.52949, 41.73237 ], [ -87.52912, 41.73208 ], [ -87.52522, 41.73152 ], [ -87.52469, 41.73109 ], [ -87.52447, 41.7219 ], [ -87.525, 41.72152 ], [ -87.5247, 41.72125 ], [ -87.52509, 41.72142 ], [ -87.52541, 41.72092 ], [ -87.52508, 41.72085 ], [ -87.52549, 41.72072 ], [ -87.52561, 41.71944 ], [ -87.52529, 41.71849 ], [ -87.52491, 41.71805 ], [ -87.52451, 41.71799 ], [ -87.52447, 41.7174 ], [ -87.52661, 41.71724 ], [ -87.5268, 41.71687 ], [ -87.5273, 41.71682 ], [ -87.52819, 41.71622 ], [ -87.5287, 41.71542 ], [ -87.52771, 41.71342 ], [ -87.52643, 41.71231 ], [ -87.52841, 41.7108 ], [ -87.52665, 41.70985 ], [ -87.52624, 41.70982 ], [ -87.526, 41.71035 ], [ -87.52571, 41.7104 ], [ -87.52414, 41.70933 ], [ -87.52476, 41.70933 ], [ -87.52553, 41.70994 ], [ -87.52622, 41.70954 ], [ -87.52577, 41.70916 ], [ -87.52526, 41.70947 ], [ -87.52513, 41.70934 ], [ -87.52568, 41.70909 ], [ -87.52537, 41.70883 ], [ -87.52486, 41.70915 ], [ -87.52494, 41.70873 ], [ -87.52454, 41.70848 ], [ -87.52517, 41.64454 ], [ -87.58684, 41.64469 ], [ -87.58816, 41.64632 ], [ -87.5892, 41.64698 ], [ -87.59047, 41.64828 ], [ -87.59233, 41.64893 ], [ -87.59423, 41.64886 ], [ -87.59789, 41.64803 ], [ -87.59783, 41.64461 ], [ -87.61722, 41.64458 ], [ -87.61723, 41.65182 ], [ -87.61135, 41.65185 ], [ -87.61156, 41.65534 ], [ -87.61108, 41.65525 ], [ -87.60985, 41.65403 ], [ -87.60969, 41.65413 ], [ -87.60964, 41.6574 ], [ -87.60762, 41.65741 ], [ -87.60757, 41.65914 ], [ -87.59963, 41.65926 ], [ -87.59259, 41.66025 ], [ -87.58928, 41.66039 ], [ -87.60039, 41.67334 ], [ -87.60128, 41.67489 ], [ -87.60172, 41.67673 ], [ -87.60194, 41.68417 ], [ -87.60172, 41.68584 ], [ -87.59485, 41.69876 ], [ -87.59225, 41.703 ], [ -87.59178, 41.70535 ], [ -87.59221, 41.70767 ], [ -87.57366, 41.70797 ], [ -87.56746, 41.70111 ], [ -87.5654, 41.70125 ], [ -87.56571, 41.70178 ], [ -87.56571, 41.70458 ], [ -87.56265, 41.70458 ], [ -87.56268, 41.7064 ], [ -87.55964, 41.7064 ], [ -87.55975, 41.71342 ], [ -87.55876, 41.71335 ], [ -87.55892, 41.72136 ], [ -87.55969, 41.72266 ], [ -87.55385, 41.72273 ], [ -87.55393, 41.72643 ], [ -87.55258, 41.72775 ], [ -87.55264, 41.73006 ], [ -87.5554, 41.73001 ], [ -87.55559, 41.73733 ], [ -87.55508, 41.73734 ], [ -87.55509, 41.73781 ], [ -87.55568, 41.7378 ], [ -87.55575, 41.74096 ], [ -87.55513, 41.74097 ], [ -87.55517, 41.74279 ], [ -87.55268, 41.74287 ], [ -87.55152, 41.74209 ], [ -87.55173, 41.74347 ], [ -87.55029, 41.74332 ], [ -87.55032, 41.74467 ], [ -87.5435, 41.74476 ], [ -87.5304, 41.74475 ] ] ] } },
{ "type": "Feature", "properties": { "id": "11", "name": "11", "street_miles": 81.19, "any_miles": 8.47, "low_stress_miles": 1.94, "any_pct": 10.43, "low_stress_pct": 2.39 }, "geometry": { "type": "Polygon", "coordinates": [ [ [ -87.636, 41.81635 ], [ -87.63752, 41.81632 ], [ -87.63747, 41.81496 ], [ -87.64569, 41.81482 ], [ -87.64563, 41.81249 ], [ -87.66506, 41.81222 ], [ -87.66546, 41.82315 ], [ -87.66899, 41.82319 ], [ -87.66903, 41.82498 ], [ -87.66782, 41.82499 ], [ -87.66781, 41.82453 ], [ -87.66601, 41.82456 ], [ -87.66602, 41.82501 ], [ -87.66546, 41.82502 ], [ -87.66548, 41.82594 ], [ -87.66609, 41.82593 ], [ -87.6661, 41.82684 ], [ -87.66726, 41.82683 ], [ -87.6673, 41.82865 ], [ -87.66791, 41.82865 ], [ -87.66795, 41.83047 ], [ -87.67528, 41.83039 ], [ -87.67531, 41.83182 ], [ -87.6681, 41.83624 ], [ -87.66807, 41.8355 ], [ -87.66636, 41.83556 ], [ -87.66633, 41.83475 ], [ -87.66567, 41.83476 ], [ -87.66565, 41.83419 ], [ -87.66439, 41.8342 ], [ -87.66434, 41.83236 ], [ -87.6606, 41.83238 ], [ -87.65945, 41.83115 ], [ -87.6593, 41.83058 ], [ -87.65739, 41.8306 ], [ -87.65743, 41.8312 ], [ -87.65866, 41.83256 ], [ -87.66035, 41.83437 ], [ -87.66129, 41.83486 ], [ -87.66308, 41.83682 ], [ -87.66454, 41.83956 ], [ -87.66454, 41.84066 ], [ -87.66497, 41.84162 ], [ -87.66378, 41.84429 ], [ -87.65667, 41.84832 ], [ -87.65305, 41.84795 ], [ -87.64964, 41.8484 ], [ -87.6468, 41.84921 ], [ -87.64332, 41.84969 ], [ -87.64218, 41.85045 ], [ -87.63939, 41.85428 ], [ -87.63871, 41.85474 ], [ -87.63901, 41.86002 ], [ -87.63026, 41.86012 ], [ -87.62959, 41.83097 ], [ -87.6315, 41.83094 ], [ -87.63147, 41.82906 ], [ -87.63267, 41.82904 ], [ -87.63263, 41.82728 ], [ -87.63384, 41.82726 ], [ -87.63376, 41.82362 ], [ -87.63635, 41.82358 ], [ -87.636, 41.81635 ] ] ] } },
{ "type": "Feature", "properties": { "id": "12", "name": "12", "street_miles": 69.43, "any_miles": 5.31, "low_stress_miles": 3.17, "any_pct": 7.65, "low_stress_pct": 4.57 }, "geometry": { "type": "Polygon", "coordinates": [ [ [ -87.66722, 41.8449 ], [ -87.66512, 41.84482 ], [ -87.66392, 41.844 ], [ -87.66497, 41.84162 ], [ -87.66454, 41.84066 ], [ -87.66454, 41.83956 ], [ -87.66317, 41.83698 ], [ -87.66129, 41.83486 ], [ -87.66035, 41.83437 ], [ -87.65866, 41.83256 ], [ -87.65743, 41.8312 ], [ -87.65739, 41.8306 ], [ -87.6593, 41.83058 ], [ -87.65945, 41.83115 ], [ -87.6606, 41.83238 ], [ -87.66434, 41.83236 ], [ -87.66439, 41.8342 ], [ -87.66565, 41.83419 ], [ -87.66567, 41.83476 ], [ -87.66633, 41.83475 ], [ -87.66636, 41.83556 ], [ -87.66807, 41.8355 ], [ -87.6681, 41.83624 ], [ -87.67531, 41.83182 ], [ -87.67528, 41.83039 ], [ -87.66795, 41.83047 ], [ -87.66791, 41.82865 ], [ -87.6673, 41.82865 ], [ -87.66726, 41.82683 ], [ -87.6661, 41.82684 ], [ -87.66609, 41.82593 ], [ -87.66548, 41.82594 ], [ -87.66546, 41.82502 ], [ -87.66602, 41.82501 ], [ -87.66601, 41.82456 ], [ -87.66757, 41.82454 ], [ -87.66781, 41.82453 ], [ -87.66782, 41.82499 ], [ -87.66903, 41.82498 ], [ -87.66899, 41.82319 ], [ -87.66546, 41.82315 ], [ -87.66515, 41.81587 ], [ -87.67245, 41.81581 ], [ -87.6723, 41.81036 ], [ -87.67499, 41.81032 ], [ -87.67495, 41.80851 ], [ -87.67712, 41.8085 ], [ -87.67703, 41.80485 ], [ -87.67901, 41.80482 ], [ -87.67949, 41.80846 ], [ -87.68387, 41.80842 ], [ -87.68407, 41.8157 ], [ -87.68711, 41.81566 ], [ -87.68701, 41.81203 ], [ -87.68943, 41.81199 ], [ -87.68932, 41.80836 ], [ -87.70154, 41.80817 ], [ -87.70159, 41.80998 ], [ -87.7039, 41.80994 ], [ -87.70397, 41.80812 ], [ -87.71387, 41.80799 ], [ -87.71445, 41.82808 ], [ -87.69516, 41.83426 ], [ -87.69496, 41.83509 ], [ -87.68762, 41.83761 ], [ -87.68762, 41.84479 ], [ -87.68539, 41.84485 ], [ -87.67817, 41.84761 ], [ -87.67803, 41.84253 ], [ -87.67659, 41.84186 ], [ -87.67554, 41.84189 ], [ -87.67549, 41.84159 ], [ -87.66993, 41.84398 ], [ -87.66722, 41.8449 ] ] ] } },
{ "type": "Feature", "properties": { "id": "13", "name": "13", "street_miles": 96.3, "any_miles": 1.7, "low_stress_miles": 0.0, "any_pct": 1.77, "low_stress_pct": 0.0 }, "geometry": { "type": "Polygon", "coordinates": [ [ [ -87.74205, 41.77113 ], [ -87.74217, 41.77478 ], [ -87.80081, 41.77378 ], [ -87.80153, 41.79194 ], [ -87.7619, 41.79274 ], [ -87.72316, 41.7932 ], [ -87.72296, 41.78594 ], [ -87.72541, 41.78591 ], [ -87.7254, 41.78564 ], [ -87.7253, 41.78227 ], [ -87.72286, 41.7823 ], [ -87.72258, 41.77137 ], [ -87.74205, 41.77113 ] ] ] } },
{ "type": "Feature", "properties": { "id": "14", "name": "14", "street_miles": 71.18, "any_miles": 1.18, "low_stress_miles": 0.0, "any_pct": 1.65, "low_stress_pct": 0.0 }, "geometry": { "type": "Polygon", "coordinates": [ [ [ -87.69421, 41.80828 ], [ -87.694, 41.80099 ], [ -87.68547, 41.80113 ], [ -87.68528, 41.79522 ], [ -87.68896, 41.79515 ], [ -87.68893, 41.79378 ], [ -87.69624, 41.79365 ], [ -87.69614, 41.79001 ], [ -87.69858, 41.78996 ], [ -87.69847, 41.78633 ], [ -87.70091, 41.78629 ], [ -87.70081, 41.78265 ], [ -87.70202, 41.78263 ], [ -87.70172, 41.77169 ], [ -87.71024, 41.77156 ], [ -87.71032, 41.77521 ], [ -87.71264, 41.77517 ], [ -87.71361, 41.80069 ], [ -87.71601, 41.80065 ], [ -87.716, 41.80024 ], [ -87.72082, 41.80017 ], [ -87.72208, 41.80015 ], [ -87.7221, 41.80057 ], [ -87.74296, 41.80033 ], [ -87.74306, 41.80397 ], [ -87.73939, 41.80402 ], [ -87.73949, 41.80767 ], [ -87.73821, 41.80768 ], [ -87.73858, 41.82054 ], [ -87.72826, 41.82363 ], [ -87.72439, 41.82495 ], [ -87.72416, 41.82529 ], [ -87.72381, 41.82509 ], [ -87.71445, 41.82808 ], [ -87.71387, 41.80799 ], [ -87.70397, 41.80812 ], [ -87.70405, 41.80994 ], [ -87.70292, 41.80996 ], [ -87.70159, 41.80998 ], [ -87.70154, 41.80817 ], [ -87.69421, 41.80828 ] ] ] } },
{ "type": "Feature", "properties": { "id": "15", "name": "15", "street_miles": 62.43, "any_miles": 2.74, "low_stress_miles": 0.73, "any_pct": 4.38, "low_stress_pct": 1.16 }, "geometry": { "type": "Polygon", "coordinates": [ [ [ -87.63584, 41.80905 ], [ -87.64068, 41.80895 ], [ -87.64049, 41.80529 ], [ -87.64128, 41.80502 ], [ -87.643, 41.80493 ], [ -87.64543, 41.80494 ], [ -87.64554, 41.80886 ], [ -87.6674, 41.80858 ], [ -87.6673, 41.80494 ], [ -87.66973, 41.80492 ], [ -87.66969, 41.8031 ], [ -87.67273, 41.80307 ], [ -87.67268, 41.80125 ], [ -87.67964, 41.80117 ], [ -87.6796, 41.79886 ], [ -87.6836, 41.79883 ], [ -87.68348, 41.79385 ], [ -87.67552, 41.7939 ], [ -87.67546, 41.79208 ], [ -87.66697, 41.79218 ], [ -87.66682, 41.78672 ], [ -87.66561, 41.78673 ], [ -87.66544, 41.77764 ], [ -87.66417, 41.77765 ], [ -87.66407, 41.77401 ], [ -87.67135, 41.77392 ], [ -87.67167, 41.78666 ], [ -87.68111, 41.78654 ], [ -87.68115, 41.78837 ], [ -87.68451, 41.78838 ], [ -87.68447, 41.78701 ], [ -87.68507, 41.787 ], [ -87.68506, 41.78654 ], [ -87.6936, 41.78641 ], [ -87.69358, 41.78595 ], [ -87.69419, 41.78595 ], [ -87.69402, 41.77958 ], [ -87.69341, 41.77959 ], [ -87.69321, 41.77182 ], [ -87.70172, 41.77169 ], [ -87.70202, 41.78263 ], [ -87.70081, 41.78265 ], [ -87.70091, 41.78629 ], [ -87.69847, 41.78633 ], [ -87.69858, 41.78996 ], [ -87.69614, 41.79001 ], [ -87.69624, 41.79365 ], [ -87.68893, 41.79378 ], [ -87.68896, 41.79515 ], [ -87.68528, 41.79522 ], [ -87.68547, 41.80113 ], [ -87.694, 41.80099 ], [ -87.69421, 41.80828 ], [ -87.68932, 41.80836 ], [ -87.68943, 41.81199 ], [ -87.68701, 41.81203 ], [ -87.68711, 41.81566 ], [ -87.68407, 41.8157 ], [ -87.68387, 41.80842 ], [ -87.67949, 41.80846 ], [ -87.67901, 41.80482 ], [ -87.67703, 41.80485 ], [ -87.67712, 41.8085 ], [ -87.67495, 41.80851 ], [ -87.67499, 41.81032 ], [ -87.6723, 41.81036 ], [ -87.67245, 41.81581 ], [ -87.66515, 41.81587 ], [ -87.66506, 41.81222 ], [ -87.66039, 41.81226 ], [ -87.64563, 41.81249 ], [ -87.64569, 41.81482 ], [ -87.63747, 41.81496 ], [ -87.63752, 41.81632 ], [ -87.636, 41.81635 ], [ -87.63584, 41.80905 ] ] ] } },
{ "type": "Feature", "properties": { "id": "16", "name": "16", "street_miles": 100.75, "any_miles": 8.03, "low_stress_miles": 1.53, "any_pct": 7.97, "low_stress_pct": 1.52 }, "geometry": { "type": "Polygon", "coordinates": [ [ [ -87.64077, 41.77616 ], [ -87.6427, 41.77609 ], [ -87.64261, 41.77251 ], [ -87.64326, 41.77249 ], [ -87.64321, 41.77068 ], [ -87.64455, 41.77065 ], [ -87.64441, 41.7652 ], [ -87.65412, 41.76506 ], [ -87.65445, 41.77779 ], [ -87.65931, 41.77772 ], [ -87.65911, 41.77044 ], [ -87.67246, 41.77027 ], [ -87.67241, 41.76846 ], [ -87.68203, 41.76835 ], [ -87.68198, 41.76654 ], [ -87.68818, 41.76644 ], [ -87.68824, 41.76826 ], [ -87.69312, 41.76818 ], [ -87.69341, 41.77959 ], [ -87.69402, 41.77958 ], [ -87.69419, 41.78595 ], [ -87.69358, 41.78595 ], [ -87.6936, 41.78641 ], [ -87.68506, 41.78654 ], [ -87.68507, 41.787 ], [ -87.68447, 41.78701 ], [ -87.68451, 41.78838 ], [ -87.68115, 41.78837 ], [ -87.68111, 41.78654 ], [ -87.67167, 41.78666 ], [ -87.67135, 41.77392 ], [ -87.66407, 41.77401 ], [ -87.66417, 41.77765 ], [ -87.66544, 41.77764 ], [ -87.66561, 41.78673 ], [ -87.66682, 41.78672 ], [ -87.66697, 41.79218 ], [ -87.67546, 41.79208 ], [ -87.67552, 41.7939 ], [ -87.68348, 41.79385 ], [ -87.6836, 41.79883 ], [ -87.6796, 41.79886 ], [ -87.67964, 41.80117 ], [ -87.65992, 41.80138 ], [ -87.65991, 41.80093 ], [ -87.66051, 41.8009 ], [ -87.66039, 41.79591 ], [ -87.66099, 41.7959 ], [ -87.66095, 41.79409 ], [ -87.65487, 41.79417 ], [ -87.65496, 41.79781 ], [ -87.64052, 41.79803 ], [ -87.64003, 41.78075 ], [ -87.64263, 41.78069 ], [ -87.64262, 41.77978 ], [ -87.64479, 41.77975 ], [ -87.64477, 41.77906 ], [ -87.64085, 41.77908 ], [ -87.64077, 41.77616 ] ] ] } },
{ "type": "Feature", "properties": { "id": "17", "name": "17", "street_miles": 96.24, "any_miles": 9.33, "low_stress_miles": 1.88, "any_pct": 9.7, "low_stress_pct": 1.96 }, "geometry": { "type": "Polygon", "coordinates": [ [ [ -87.65445, 41.77779 ], [ -87.65412, 41.76506 ], [ -87.64441, 41.7652 ], [ -87.64428, 41.75974 ], [ -87.63927, 41.75982 ], [ -87.6394, 41.75616 ], [ -87.62896, 41.75634 ], [ -87.62856, 41.75452 ], [ -87.62711, 41.75455 ], [ -87.62703, 41.75091 ], [ -87.62582, 41.75093 ], [ -87.62572, 41.74728 ], [ -87.62838, 41.74723 ], [ -87.63178, 41.74719 ], [ -87.63188, 41.75082 ], [ -87.64282, 41.75066 ], [ -87.64277, 41.74884 ], [ -87.64399, 41.74882 ], [ -87.64365, 41.73731 ], [ -87.64497, 41.73658 ], [ -87.64483, 41.73696 ], [ -87.64729, 41.73693 ], [ -87.64728, 41.73602 ], [ -87.65699, 41.73588 ], [ -87.65709, 41.73952 ], [ -87.6583, 41.7395 ], [ -87.6584, 41.74314 ], [ -87.67296, 41.74294 ], [ -87.67334, 41.75752 ], [ -87.67847, 41.75745 ], [ -87.67858, 41.76476 ], [ -87.68324, 41.7647 ], [ -87.68319, 41.76288 ], [ -87.69298, 41.76272 ], [ -87.69303, 41.76454 ], [ -87.70281, 41.76439 ], [ -87.70271, 41.76076 ], [ -87.70759, 41.76068 ], [ -87.70755, 41.75841 ], [ -87.71216, 41.75836 ], [ -87.71272, 41.77152 ], [ -87.69321, 41.77182 ], [ -87.69312, 41.76818 ], [ -87.68824, 41.76826 ], [ -87.68818, 41.76644 ], [ -87.68198, 41.76654 ], [ -87.68203, 41.76835 ], [ -87.67241, 41.76846 ], [ -87.67246, 41.77027 ], [ -87.65911, 41.77044 ], [ -87.65931, 41.77772 ], [ -87.65445, 41.77779 ] ] ] } },
{ "type": "Feature", "properties": { "id": "18", "name": "18", "street_miles": 124.13, "any_miles": 2.6, "low_stress_miles": 0.0, "any_pct": 2.09, "low_stress_pct": 0.0 }, "geometry": { "type": "Polygon", "coordinates": [ [ [ -87.6583, 41.7395 ], [ -87.66316, 41.73943 ], [ -87.66307, 41.73579 ], [ -87.66185, 41.73581 ], [ -87.66174, 41.73209 ], [ -87.66296, 41.7321 ], [ -87.66414, 41.73182 ], [ -87.66536, 41.73121 ], [ -87.66539, 41.73209 ], [ -87.6666, 41.73207 ], [ -87.66654, 41.73022 ], [ -87.67089, 41.73517 ], [ -87.67094, 41.73569 ], [ -87.74107, 41.73452 ], [ -87.74093, 41.73687 ], [ -87.7419, 41.7641 ], [ -87.72235, 41.7641 ], [ -87.72219, 41.75684 ], [ -87.71232, 41.75691 ], [ -87.7124, 41.76059 ], [ -87.71213, 41.75833 ], [ -87.70757, 41.7584 ], [ -87.70759, 41.76068 ], [ -87.70271, 41.76076 ], [ -87.70281, 41.76439 ], [ -87.69303, 41.76454 ], [ -87.69298, 41.76272 ], [ -87.68319, 41.76288 ], [ -87.68324, 41.7647 ], [ -87.67858, 41.76476 ], [ -87.67847, 41.75745 ], [ -87.67334, 41.75752 ], [ -87.67296, 41.74294 ], [ -87.6584, 41.74314 ], [ -87.6583, 41.7395 ] ] ] } },
{ "type": "Feature", "properties": { "id": "19", "name": "19", "street_miles": 138.43, "any_miles": 5.71, "low_stress_miles": 1.88, "any_pct": 4.13, "low_stress_pct": 1.36 }, "geometry": { "type": "Polygon", "coordinates": [ [ [ -87.66674, 41.73022 ], [ -87.66822, 41.73018 ], [ -87.66345, 41.7212 ], [ -87.66303, 41.71839 ], [ -87.65964, 41.71401 ], [ -87.65602, 41.70679 ], [ -87.65932, 41.69784 ], [ -87.66407, 41.69105 ], [ -87.67188, 41.67734 ], [ -87.68621, 41.67721 ], [ -87.68558, 41.67915 ], [ -87.68572, 41.68448 ], [ -87.69563, 41.68433 ], [ -87.69576, 41.68808 ], [ -87.69947, 41.68793 ], [ -87.6994, 41.68615 ], [ -87.70062, 41.68614 ], [ -87.70055, 41.68426 ], [ -87.70542, 41.68419 ], [ -87.70529, 41.68055 ], [ -87.71136, 41.68054 ], [ -87.71158, 41.68127 ], [ -87.71151, 41.68409 ], [ -87.73927, 41.68375 ], [ -87.73974, 41.69078 ], [ -87.72032, 41.69127 ], [ -87.72113, 41.71317 ], [ -87.71258, 41.7133 ], [ -87.71252, 41.71147 ], [ -87.7113, 41.71149 ], [ -87.71112, 41.70607 ], [ -87.70132, 41.70618 ], [ -87.7012, 41.70708 ], [ -87.69152, 41.7072 ], [ -87.69173, 41.71357 ], [ -87.68184, 41.71366 ], [ -87.68251, 41.73553 ], [ -87.67094, 41.73569 ], [ -87.67089, 41.73517 ], [ -87.66674, 41.73022 ] ], [ [ -87.6959, 41.69163 ], [ -87.69209, 41.69167 ], [ -87.6921, 41.6922 ], [ -87.69097, 41.69228 ], [ -87.6912, 41.69899 ], [ -87.69615, 41.69896 ], [ -87.6959, 41.69163 ] ] ] } },
{ "type": "Feature", "properties": { "id": "20", "name": "20", "street_miles": 95.55, "any_miles": 6.98, "low_stress_miles": 1.64, "any_pct": 7.31, "low_stress_pct": 1.72 }, "geometry": { "type": "Polygon", "coordinates": [ [ [ -87.62082, 41.79383 ], [ -87.61596, 41.79392 ], [ -87.61611, 41.8021 ], [ -87.61645, 41.80392 ], [ -87.61551, 41.80394 ], [ -87.61555, 41.80576 ], [ -87.61259, 41.8058 ], [ -87.61255, 41.80398 ], [ -87.60426, 41.80409 ], [ -87.6042, 41.80228 ], [ -87.60289, 41.8023 ], [ -87.60273, 41.79532 ], [ -87.60383, 41.79546 ], [ -87.60375, 41.79499 ], [ -87.60622, 41.79497 ], [ -87.60604, 41.78587 ], [ -87.60443, 41.78589 ], [ -87.60442, 41.78525 ], [ -87.6028, 41.78527 ], [ -87.60277, 41.78409 ], [ -87.59629, 41.78417 ], [ -87.59633, 41.78601 ], [ -87.59471, 41.78607 ], [ -87.59466, 41.78418 ], [ -87.59144, 41.78421 ], [ -87.59141, 41.78328 ], [ -87.58994, 41.78321 ], [ -87.59099, 41.77876 ], [ -87.59146, 41.77875 ], [ -87.59222, 41.77327 ], [ -87.61794, 41.77292 ], [ -87.61974, 41.77425 ], [ -87.62117, 41.77482 ], [ -87.62603, 41.77492 ], [ -87.6276, 41.77526 ], [ -87.63005, 41.77703 ], [ -87.63007, 41.7766 ], [ -87.63115, 41.77811 ], [ -87.63142, 41.77813 ], [ -87.63964, 41.77801 ], [ -87.63959, 41.77618 ], [ -87.64077, 41.77616 ], [ -87.64085, 41.77908 ], [ -87.64477, 41.77906 ], [ -87.64479, 41.77975 ], [ -87.64262, 41.77978 ], [ -87.64263, 41.78069 ], [ -87.64003, 41.78075 ], [ -87.64049, 41.79801 ], [ -87.65496, 41.79781 ], [ -87.65487, 41.79417 ], [ -87.66095, 41.79409 ], [ -87.66099, 41.7959 ], [ -87.66039, 41.79591 ], [ -87.66051, 41.8009 ], [ -87.65991, 41.80093 ], [ -87.65992, 41.80138 ], [ -87.67268, 41.80125 ], [ -87.67273, 41.80307 ], [ -87.66969, 41.8031 ], [ -87.66973, 41.80492 ], [ -87.6673, 41.80494 ], [ -87.6674, 41.80858 ], [ -87.64554, 41.80886 ], [ -87.64543, 41.80494 ], [ -87.643, 41.80493 ], [ -87.6407, 41.80518 ], [ -87.64049, 41.80529 ], [ -87.64068, 41.80895 ], [ -87.63475, 41.80907 ], [ -87.63477, 41.80945 ], [ -87.63338, 41.80948 ], [ -87.63339, 41.80985 ], [ -87.63225, 41.80987 ], [ -87.63198, 41.81032 ], [ -87.63201, 41.81176 ], [ -87.63344, 41.81174 ], [ -87.63346, 41.81252 ], [ -87.63461, 41.8125 ], [ -87.63472, 41.81637 ], [ -87.6352, 41.81636 ], [ -87.63538, 41.81771 ], [ -87.63359, 41.81774 ], [ -87.63356, 41.81638 ], [ -87.62913, 41.81645 ], [ -87.62883, 41.80189 ], [ -87.62798, 41.80191 ], [ -87.62784, 41.79647 ], [ -87.62683, 41.79636 ], [ -87.62678, 41.79463 ], [ -87.62085, 41.79472 ], [ -87.62082, 41.79383 ] ] ] } },
{ "type": "Feature", "properties": { "id": "21", "name": "21", "street_miles": 157.46, "any_miles": 10.4, "low_stress_miles": 4.74, "any_pct": 6.6, "low_stress_pct": 3.01 }, "geometry": { "type": "Polygon", "coordinates": [ [ [ -87.62405, 41.73014 ], [ -87.63859, 41.72996 ], [ -87.63856, 41.72883 ], [ -87.63977, 41.72882 ], [ -87.6394, 41.71519 ], [ -87.63699, 41.71518 ], [ -87.63697, 41.71427 ], [ -87.63939, 41.71425 ], [ -87.63919, 41.70696 ], [ -87.62827, 41.70704 ], [ -87.62802, 41.69708 ], [ -87.63043, 41.69705 ], [ -87.62987, 41.67795 ], [ -87.63227, 41.67792 ], [ -87.63206, 41.67064 ], [ -87.66115, 41.67034 ], [ -87.66137, 41.67754 ], [ -87.66677, 41.67744 ], [ -87.66732, 41.67596 ], [ -87.6684, 41.67619 ], [ -87.66795, 41.67742 ], [ -87.67188, 41.67734 ], [ -87.66407, 41.69105 ], [ -87.65932, 41.69784 ], [ -87.65602, 41.70679 ], [ -87.65964, 41.71401 ], [ -87.66303, 41.71839 ], [ -87.66345, 41.7212 ], [ -87.66822, 41.73018 ], [ -87.66654, 41.73022 ], [ -87.6666, 41.73207 ], [ -87.66539, 41.73209 ], [ -87.66536, 41.73121 ], [ -87.66414, 41.73182 ], [ -87.66296, 41.7321 ], [ -87.66174, 41.73209 ], [ -87.66185, 41.73581 ], [ -87.66307, 41.73579 ], [ -87.66316, 41.73943 ], [ -87.65709, 41.73952 ], [ -87.65699, 41.73588 ], [ -87.64728, 41.73602 ], [ -87.64729, 41.73693 ], [ -87.64483, 41.73696 ], [ -87.64497, 41.73658 ], [ -87.64365, 41.73731 ], [ -87.64383, 41.74336 ], [ -87.63649, 41.7435 ], [ -87.63595, 41.74416 ], [ -87.63417, 41.7435 ], [ -87.62911, 41.74358 ], [ -87.62904, 41.74176 ], [ -87.62428, 41.74183 ], [ -87.62405, 41.73014 ] ] ] } },
{ "type": "Feature", "properties": { "id": "22", "name": "22", "street_miles": 59.61, "any_miles": 8.86, "low_stress_miles": 6.59, "any_pct": 14.86, "low_stress_pct": 11.06 }, "geometry": { "type": "Polygon", "coordinates": [ [ [ -87.70769, 41.85174 ], [ -87.70759, 41.84811 ], [ -87.71002, 41.84808 ], [ -87.70986, 41.84262 ], [ -87.70498, 41.8427 ], [ -87.70466, 41.83125 ], [ -87.72381, 41.82509 ], [ -87.72416, 41.82529 ], [ -87.72439, 41.82495 ], [ -87.72826, 41.82363 ], [ -87.73858, 41.82054 ], [ -87.73821, 41.80768 ], [ -87.73949, 41.80767 ], [ -87.73939, 41.80402 ], [ -87.74306, 41.80397 ], [ -87.743, 41.80215 ], [ -87.75279, 41.80202 ], [ -87.75308, 41.81331 ], [ -87.74465, 41.81596 ], [ -87.74476, 41.82198 ], [ -87.73849, 41.82212 ], [ -87.7395, 41.85135 ], [ -87.71256, 41.85169 ], [ -87.71114, 41.85199 ], [ -87.71089, 41.85165 ], [ -87.70769, 41.85174 ] ] ] } },
{ "type": "Feature", "properties": { "id": "23", "name": "23", "street_miles": 82.75, "any_miles": 0.61, "low_stress_miles": 0.0, "any_pct": 0.73, "low_stress_pct": 0.0 }, "geometry": { "type": "Polygon", "coordinates": [ [ [ -87.71024, 41.77156 ], [ -87.71272, 41.77152 ], [ -87.71232, 41.75691 ], [ -87.72219, 41.75684 ], [ -87.72235, 41.7641 ], [ -87.7419, 41.76412 ], [ -87.74205, 41.77113 ], [ -87.72258, 41.77137 ], [ -87.72286, 41.7823 ], [ -87.7253, 41.78227 ], [ -87.7254, 41.78564 ], [ -87.72541, 41.78591 ], [ -87.72296, 41.78594 ], [ -87.72316, 41.7932 ], [ -87.7619, 41.79274 ], [ -87.80153, 41.79194 ], [ -87.80163, 41.798 ], [ -87.79704, 41.79945 ], [ -87.75274, 41.80019 ], [ -87.75279, 41.80202 ], [ -87.743, 41.80215 ], [ -87.74296, 41.80033 ], [ -87.7221, 41.80057 ], [ -87.72208, 41.80015 ], [ -87.72082, 41.80017 ], [ -87.716, 41.80024 ], [ -87.71601, 41.80065 ], [ -87.71361, 41.80069 ], [ -87.71264, 41.77517 ], [ -87.71032, 41.77521 ], [ -87.71024, 41.77156 ] ] ] } },
{ "type": "Feature", "properties": { "id": "24", "name": "24", "street_miles": 83.04, "any_miles": 14.97, "low_stress_miles": 7.98, "any_pct": 18.03, "low_stress_pct": 9.61 }, "geometry": { "type": "Polygon", "coordinates": [ [ [ -87.6907, 41.85635 ], [ -87.69313, 41.85578 ], [ -87.69317, 41.85743 ], [ -87.69565, 41.85739 ], [ -87.69557, 41.85555 ], [ -87.69921, 41.85551 ], [ -87.69909, 41.85185 ], [ -87.69545, 41.8519 ], [ -87.69534, 41.84826 ], [ -87.69289, 41.8483 ], [ -87.69279, 41.84472 ], [ -87.6918, 41.84474 ], [ -87.69177, 41.84357 ], [ -87.69273, 41.84298 ], [ -87.69295, 41.84149 ], [ -87.69438, 41.84123 ], [ -87.69412, 41.83812 ], [ -87.69503, 41.83741 ], [ -87.69992, 41.83732 ], [ -87.7003, 41.85002 ], [ -87.70756, 41.84992 ], [ -87.70769, 41.85174 ], [ -87.71089, 41.85165 ], [ -87.71114, 41.85199 ], [ -87.71256, 41.85169 ], [ -87.7395, 41.85135 ], [ -87.73998, 41.86596 ], [ -87.75453, 41.86575 ], [ -87.75473, 41.87104 ], [ -87.74493, 41.87118 ], [ -87.74507, 41.875 ], [ -87.74263, 41.87505 ], [ -87.74266, 41.87596 ], [ -87.74022, 41.87598 ], [ -87.74008, 41.8719 ], [ -87.73817, 41.87228 ], [ -87.73487, 41.87364 ], [ -87.73273, 41.87398 ], [ -87.70935, 41.87428 ], [ -87.70594, 41.87462 ], [ -87.70592, 41.87369 ], [ -87.70347, 41.87372 ], [ -87.7032, 41.86643 ], [ -87.69591, 41.86651 ], [ -87.69569, 41.85922 ], [ -87.69076, 41.85928 ], [ -87.6907, 41.85635 ] ] ] } },
{ "type": "Feature", "properties": { "id": "25", "name": "25", "street_miles": 60.88, "any_miles": 11.25, "low_stress_miles": 2.69, "any_pct": 18.48, "low_stress_pct": 4.42 }, "geometry": { "type": "Polygon", "coordinates": [ [ [ -87.63909, 41.86247 ], [ -87.63871, 41.85474 ], [ -87.63939, 41.85428 ], [ -87.64218, 41.85045 ], [ -87.64332, 41.84969 ], [ -87.6468, 41.84921 ], [ -87.64964, 41.8484 ], [ -87.65305, 41.84795 ], [ -87.65667, 41.84832 ], [ -87.65759, 41.84797 ], [ -87.66164, 41.84535 ], [ -87.66345, 41.8445 ], [ -87.66392, 41.844 ], [ -87.66536, 41.8449 ], [ -87.66722, 41.8449 ], [ -87.6723, 41.84306 ], [ -87.67549, 41.84159 ], [ -87.67554, 41.84189 ], [ -87.67659, 41.84186 ], [ -87.67803, 41.84253 ], [ -87.67817, 41.84761 ], [ -87.68539, 41.84485 ], [ -87.68762, 41.84479 ], [ -87.68762, 41.83761 ], [ -87.69496, 41.83509 ], [ -87.69516, 41.83426 ], [ -87.70466, 41.83125 ], [ -87.70498, 41.8427 ], [ -87.70986, 41.84262 ], [ -87.71002, 41.84808 ], [ -87.70759, 41.84811 ], [ -87.70761, 41.84995 ], [ -87.7003, 41.85002 ], [ -87.69992, 41.83732 ], [ -87.69503, 41.83741 ], [ -87.69412, 41.83812 ], [ -87.69438, 41.84123 ], [ -87.69287, 41.84157 ], [ -87.69273, 41.84298 ], [ -87.69178, 41.84353 ], [ -87.6918, 41.84474 ], [ -87.69279, 41.84472 ], [ -87.69289, 41.8483 ], [ -87.69534, 41.84826 ], [ -87.69545, 41.8519 ], [ -87.69909, 41.85185 ], [ -87.69921, 41.85551 ], [ -87.69557, 41.85555 ], [ -87.69565, 41.85739 ], [ -87.69317, 41.85743 ], [ -87.69313, 41.85578 ], [ -87.68817, 41.85692 ], [ -87.68803, 41.85386 ], [ -87.6906, 41.85382 ], [ -87.69049, 41.85015 ], [ -87.68559, 41.85021 ], [ -87.68579, 41.85724 ], [ -87.67845, 41.85871 ], [ -87.67849, 41.85894 ], [ -87.6736, 41.85952 ], [ -87.65957, 41.85972 ], [ -87.6572, 41.8625 ], [ -87.65164, 41.86254 ], [ -87.65089, 41.86228 ], [ -87.64779, 41.86233 ], [ -87.64786, 41.86388 ], [ -87.64682, 41.86387 ], [ -87.64683, 41.86417 ], [ -87.64502, 41.8642 ], [ -87.64493, 41.86237 ], [ -87.64327, 41.86257 ], [ -87.63909, 41.86247 ] ] ] } },
{ "type": "Feature", "properties": { "id": "26", "name": "26", "street_miles": 59.24, "any_miles": 8.12, "low_stress_miles": 1.06, "any_pct": 13.7, "low_stress_pct": 1.79 }, "geometry": { "type": "Polygon", "coordinates": [ [ [ -87.73649, 41.92253 ], [ -87.73633, 41.91704 ], [ -87.729, 41.91713 ], [ -87.72905, 41.91897 ], [ -87.70878, 41.91921 ], [ -87.70703, 41.91923 ], [ -87.70697, 41.9174 ], [ -87.69772, 41.91748 ], [ -87.69761, 41.914 ], [ -87.6922, 41.91395 ], [ -87.69204, 41.90662 ], [ -87.68712, 41.90667 ], [ -87.68701, 41.90209 ], [ -87.68779, 41.90208 ], [ -87.6878, 41.90252 ], [ -87.69687, 41.90243 ], [ -87.69681, 41.9002 ], [ -87.69435, 41.90022 ], [ -87.69433, 41.8993 ], [ -87.69679, 41.89928 ], [ -87.69676, 41.89807 ], [ -87.70043, 41.89804 ], [ -87.70039, 41.89634 ], [ -87.70103, 41.89662 ], [ -87.70104, 41.89803 ], [ -87.70193, 41.89802 ], [ -87.70195, 41.89924 ], [ -87.70881, 41.89917 ], [ -87.71138, 41.9002 ], [ -87.71188, 41.90005 ], [ -87.7128, 41.90075 ], [ -87.71655, 41.90224 ], [ -87.71662, 41.90456 ], [ -87.71966, 41.90453 ], [ -87.71972, 41.90634 ], [ -87.7253, 41.90623 ], [ -87.7258, 41.90641 ], [ -87.72583, 41.90808 ], [ -87.72891, 41.90804 ], [ -87.72893, 41.90865 ], [ -87.73016, 41.90863 ], [ -87.73018, 41.90933 ], [ -87.73141, 41.90932 ], [ -87.73142, 41.90982 ], [ -87.73366, 41.90979 ], [ -87.73367, 41.91029 ], [ -87.73489, 41.91028 ], [ -87.73493, 41.9116 ], [ -87.73616, 41.91158 ], [ -87.73622, 41.91352 ], [ -87.7413, 41.91391 ], [ -87.74142, 41.91698 ], [ -87.74611, 41.91693 ], [ -87.74608, 41.91647 ], [ -87.74943, 41.91644 ], [ -87.74945, 41.91689 ], [ -87.75338, 41.91684 ], [ -87.75353, 41.91866 ], [ -87.75722, 41.91865 ], [ -87.75732, 41.92227 ], [ -87.74178, 41.92247 ], [ -87.74172, 41.9243 ], [ -87.74158, 41.92253 ], [ -87.73649, 41.92253 ] ] ] } },
{ "type": "Feature", "properties": { "id": "27", "name": "27", "street_miles": 123.8, "any_miles": 25.25, "low_stress_miles": 8.32, "any_pct": 20.39, "low_stress_pct": 6.72 }, "geometry": { "type": "Polygon", "coordinates": [ [ [ -87.6342, 41.8966 ], [ -87.64422, 41.89645 ], [ -87.64407, 41.89414 ], [ -87.64213, 41.89259 ], [ -87.64118, 41.89141 ], [ -87.64312, 41.89125 ], [ -87.64281, 41.89077 ], [ -87.64287, 41.88905 ], [ -87.64826, 41.88904 ], [ -87.64755, 41.8882 ], [ -87.64751, 41.8868 ], [ -87.64645, 41.8868 ], [ -87.64605, 41.88316 ], [ -87.64857, 41.88313 ], [ -87.64853, 41.88176 ], [ -87.6497, 41.88174 ], [ -87.64974, 41.8831 ], [ -87.6544, 41.88302 ], [ -87.65441, 41.88343 ], [ -87.65558, 41.88341 ], [ -87.65557, 41.883 ], [ -87.6567, 41.88298 ], [ -87.65671, 41.8823 ], [ -87.65878, 41.88227 ], [ -87.65876, 41.88159 ], [ -87.65962, 41.88157 ], [ -87.65953, 41.88029 ], [ -87.6571, 41.88033 ], [ -87.65706, 41.87906 ], [ -87.65461, 41.8791 ], [ -87.65457, 41.87783 ], [ -87.65945, 41.87775 ], [ -87.65942, 41.87648 ], [ -87.66429, 41.8764 ], [ -87.66442, 41.88149 ], [ -87.66608, 41.88146 ], [ -87.66923, 41.87886 ], [ -87.66915, 41.87632 ], [ -87.66666, 41.87635 ], [ -87.66638, 41.86686 ], [ -87.68359, 41.86665 ], [ -87.67405, 41.87474 ], [ -87.67407, 41.87506 ], [ -87.67649, 41.87502 ], [ -87.67646, 41.87404 ], [ -87.68134, 41.87397 ], [ -87.68137, 41.87494 ], [ -87.68626, 41.87499 ], [ -87.68627, 41.87608 ], [ -87.69137, 41.87603 ], [ -87.69143, 41.8784 ], [ -87.69379, 41.87837 ], [ -87.69371, 41.87601 ], [ -87.69615, 41.87598 ], [ -87.6961, 41.87379 ], [ -87.70101, 41.87375 ], [ -87.70121, 41.88103 ], [ -87.70366, 41.881 ], [ -87.70369, 41.88192 ], [ -87.70615, 41.88188 ], [ -87.7064, 41.89031 ], [ -87.71128, 41.89025 ], [ -87.71122, 41.88811 ], [ -87.72098, 41.88802 ], [ -87.72104, 41.8899 ], [ -87.72226, 41.8899 ], [ -87.72266, 41.90316 ], [ -87.72145, 41.90317 ], [ -87.72143, 41.90271 ], [ -87.72022, 41.90272 ], [ -87.7202, 41.90225 ], [ -87.71898, 41.90226 ], [ -87.71894, 41.90091 ], [ -87.71528, 41.90094 ], [ -87.71521, 41.89912 ], [ -87.71021, 41.89916 ], [ -87.7066, 41.89686 ], [ -87.70665, 41.89831 ], [ -87.68739, 41.89063 ], [ -87.66552, 41.891 ], [ -87.66548, 41.88991 ], [ -87.66223, 41.88994 ], [ -87.66214, 41.88895 ], [ -87.66068, 41.88886 ], [ -87.66088, 41.88995 ], [ -87.65993, 41.88996 ], [ -87.65743, 41.89292 ], [ -87.65744, 41.8935 ], [ -87.66558, 41.89337 ], [ -87.66566, 41.8961 ], [ -87.66491, 41.89611 ], [ -87.66491, 41.89839 ], [ -87.66247, 41.89844 ], [ -87.66253, 41.90082 ], [ -87.66649, 41.90336 ], [ -87.66129, 41.90344 ], [ -87.66114, 41.90497 ], [ -87.66178, 41.90696 ], [ -87.66428, 41.90941 ], [ -87.66519, 41.91066 ], [ -87.65111, 41.91087 ], [ -87.65104, 41.90853 ], [ -87.64821, 41.90858 ], [ -87.64825, 41.91 ], [ -87.64775, 41.90964 ], [ -87.64702, 41.91014 ], [ -87.64615, 41.91023 ], [ -87.64625, 41.91095 ], [ -87.64708, 41.91094 ], [ -87.64707, 41.9114 ], [ -87.64586, 41.91142 ], [ -87.64584, 41.91096 ], [ -87.64536, 41.91096 ], [ -87.64545, 41.91023 ], [ -87.64341, 41.91043 ], [ -87.64338, 41.90918 ], [ -87.64217, 41.90919 ], [ -87.64211, 41.9056 ], [ -87.64111, 41.90487 ], [ -87.64084, 41.90513 ], [ -87.64096, 41.90921 ], [ -87.63853, 41.90924 ], [ -87.63859, 41.91117 ], [ -87.63804, 41.91118 ], [ -87.63806, 41.91172 ], [ -87.63668, 41.91175 ], [ -87.63666, 41.91114 ], [ -87.63762, 41.91113 ], [ -87.63718, 41.90762 ], [ -87.63848, 41.9076 ], [ -87.63842, 41.90566 ], [ -87.63712, 41.90569 ], [ -87.63702, 41.90381 ], [ -87.63145, 41.9039 ], [ -87.63142, 41.90314 ], [ -87.63298, 41.90311 ], [ -87.63293, 41.90133 ], [ -87.63438, 41.90132 ], [ -87.63426, 41.8982 ], [ -87.63723, 41.89816 ], [ -87.63726, 41.89894 ], [ -87.63877, 41.89892 ], [ -87.63869, 41.89703 ], [ -87.63719, 41.89698 ], [ -87.6372, 41.89738 ], [ -87.63423, 41.89742 ], [ -87.6342, 41.8966 ] ] ] } },
{ "type": "Feature", "properties": { "id": "28", "name": "28", "street_miles": 108.42, "any_miles": 25.47, "low_stress_miles": 8.89, "any_pct": 23.49, "low_stress_pct": 8.2 }, "geometry": { "type": "Polygon", "coordinates": [ [ [ -87.72098, 41.88802 ], [ -87.71122, 41.88811 ], [ -87.71128, 41.89025 ], [ -87.7064, 41.89031 ], [ -87.70615, 41.88188 ], [ -87.70369, 41.88192 ], [ -87.70366, 41.881 ], [ -87.70121, 41.88103 ], [ -87.70101, 41.87375 ], [ -87.6961, 41.87379 ], [ -87.69615, 41.87598 ], [ -87.69371, 41.87601 ], [ -87.69379, 41.87837 ], [ -87.69143, 41.8784 ], [ -87.69137, 41.87603 ], [ -87.68627, 41.87608 ], [ -87.68626, 41.87499 ], [ -87.68137, 41.87494 ], [ -87.68134, 41.87397 ], [ -87.67646, 41.87404 ], [ -87.67649, 41.87502 ], [ -87.67407, 41.87506 ], [ -87.67405, 41.87474 ], [ -87.68359, 41.86665 ], [ -87.66638, 41.86686 ], [ -87.66663, 41.87518 ], [ -87.66182, 41.87526 ], [ -87.66178, 41.87376 ], [ -87.66422, 41.87373 ], [ -87.66415, 41.87166 ], [ -87.66195, 41.87171 ], [ -87.66171, 41.87175 ], [ -87.66172, 41.87211 ], [ -87.66091, 41.87218 ], [ -87.65682, 41.87225 ], [ -87.65668, 41.867 ], [ -87.65332, 41.86705 ], [ -87.65131, 41.8695 ], [ -87.64696, 41.8696 ], [ -87.64713, 41.87434 ], [ -87.64096, 41.87439 ], [ -87.64103, 41.87675 ], [ -87.63714, 41.8768 ], [ -87.63639, 41.8757 ], [ -87.63681, 41.87569 ], [ -87.63626, 41.87557 ], [ -87.63562, 41.87469 ], [ -87.63509, 41.87196 ], [ -87.63461, 41.87197 ], [ -87.63458, 41.87156 ], [ -87.63499, 41.87109 ], [ -87.63455, 41.8698 ], [ -87.63438, 41.86737 ], [ -87.63532, 41.86736 ], [ -87.6351, 41.86726 ], [ -87.63488, 41.86011 ], [ -87.63901, 41.86002 ], [ -87.63909, 41.86247 ], [ -87.64327, 41.86257 ], [ -87.64493, 41.86237 ], [ -87.64502, 41.8642 ], [ -87.64683, 41.86417 ], [ -87.64682, 41.86387 ], [ -87.64786, 41.86388 ], [ -87.64779, 41.86233 ], [ -87.65089, 41.86228 ], [ -87.65164, 41.86254 ], [ -87.6572, 41.8625 ], [ -87.65957, 41.85972 ], [ -87.6736, 41.85952 ], [ -87.67849, 41.85894 ], [ -87.67845, 41.85871 ], [ -87.68579, 41.85724 ], [ -87.68559, 41.85021 ], [ -87.69049, 41.85015 ], [ -87.6906, 41.85382 ], [ -87.68803, 41.85386 ], [ -87.68817, 41.85692 ], [ -87.6907, 41.85635 ], [ -87.69076, 41.85928 ], [ -87.69569, 41.85922 ], [ -87.69591, 41.86651 ], [ -87.7032, 41.86643 ], [ -87.70347, 41.87372 ], [ -87.70592, 41.87369 ], [ -87.70594, 41.87462 ], [ -87.70935, 41.87428 ], [ -87.73273, 41.87398 ], [ -87.73487, 41.87364 ], [ -87.73817, 41.87228 ], [ -87.74008, 41.8719 ], [ -87.74022, 41.87598 ], [ -87.74266, 41.87596 ], [ -87.74263, 41.87505 ], [ -87.74569, 41.87497 ], [ -87.74577, 41.87677 ], [ -87.74928, 41.87673 ], [ -87.74925, 41.87583 ], [ -87.75338, 41.87577 ], [ -87.75335, 41.87487 ], [ -87.75486, 41.87485 ], [ -87.75534, 41.88781 ], [ -87.74555, 41.88778 ], [ -87.74581, 41.895 ], [ -87.74052, 41.8951 ], [ -87.73758, 41.89339 ], [ -87.73494, 41.89247 ], [ -87.7324, 41.89194 ], [ -87.72827, 41.89149 ], [ -87.72761, 41.89092 ], [ -87.72673, 41.88905 ], [ -87.72588, 41.88833 ], [ -87.7258, 41.88547 ], [ -87.72092, 41.8852 ], [ -87.72098, 41.88802 ] ] ] } },
{ "type": "Feature", "properties": { "id": "29", "name": "29", "street_miles": 77.22, "any_miles": 7.87, "low_stress_miles": 3.56, "any_pct": 10.19, "low_stress_pct": 4.61 }, "geometry": { "type": "Polygon", "coordinates": [ [ [ -87.80129, 41.9399 ], [ -87.80068, 41.92156 ], [ -87.79883, 41.9209 ], [ -87.79881, 41.92115 ], [ -87.79233, 41.9212 ], [ -87.79241, 41.92362 ], [ -87.78857, 41.92365 ], [ -87.78788, 41.92326 ], [ -87.78769, 41.91704 ], [ -87.78584, 41.91666 ], [ -87.78523, 41.91664 ], [ -87.78528, 41.91823 ], [ -87.7804, 41.91829 ], [ -87.78026, 41.91785 ], [ -87.7682, 41.91805 ], [ -87.76816, 41.91686 ], [ -87.76694, 41.91687 ], [ -87.76702, 41.91898 ], [ -87.76581, 41.91876 ], [ -87.76553, 41.91016 ], [ -87.76589, 41.90862 ], [ -87.76493, 41.88224 ], [ -87.76161, 41.88229 ], [ -87.76154, 41.88029 ], [ -87.75507, 41.88037 ], [ -87.75486, 41.87485 ], [ -87.75335, 41.87487 ], [ -87.75338, 41.87577 ], [ -87.74925, 41.87583 ], [ -87.74928, 41.87673 ], [ -87.74577, 41.87677 ], [ -87.74569, 41.87497 ], [ -87.74507, 41.875 ], [ -87.74493, 41.87118 ], [ -87.75473, 41.87104 ], [ -87.75453, 41.86575 ], [ -87.77414, 41.86546 ], [ -87.7756, 41.90925 ], [ -87.80575, 41.90884 ], [ -87.80662, 41.93451 ], [ -87.81639, 41.93431 ], [ -87.81658, 41.93962 ], [ -87.80129, 41.9399 ] ] ] } },
{ "type": "Feature", "properties": { "id": "30", "name": "30", "street_miles": 76.0, "any_miles": 9.65, "low_stress_miles": 6.07, "any_pct": 12.7, "low_stress_pct": 7.99 }, "geometry": { "type": "Polygon", "coordinates": [ [ [ -87.73242, 41.95181 ], [ -87.72914, 41.95183 ], [ -87.72753, 41.95091 ], [ -87.72759, 41.95272 ], [ -87.72508, 41.95276 ], [ -87.72508, 41.95187 ], [ -87.71776, 41.95196 ], [ -87.7174, 41.93922 ], [ -87.74687, 41.93883 ], [ -87.74706, 41.94612 ], [ -87.75938, 41.94597 ], [ -87.75923, 41.94141 ], [ -87.76169, 41.94138 ], [ -87.76163, 41.93955 ], [ -87.75672, 41.93961 ], [ -87.75666, 41.93779 ], [ -87.75421, 41.93782 ], [ -87.75417, 41.93691 ], [ -87.76153, 41.93681 ], [ -87.7616, 41.93864 ], [ -87.76893, 41.93854 ], [ -87.76874, 41.93307 ], [ -87.76752, 41.93309 ], [ -87.76746, 41.93126 ], [ -87.76625, 41.93128 ], [ -87.76612, 41.92763 ], [ -87.7612, 41.9277 ], [ -87.76113, 41.92588 ], [ -87.76605, 41.9258 ], [ -87.76599, 41.92398 ], [ -87.78544, 41.92368 ], [ -87.78558, 41.92734 ], [ -87.77949, 41.92743 ], [ -87.77961, 41.93109 ], [ -87.78569, 41.931 ], [ -87.78603, 41.93832 ], [ -87.78545, 41.93833 ], [ -87.78546, 41.93882 ], [ -87.7856, 41.942 ], [ -87.78621, 41.94199 ], [ -87.78631, 41.94566 ], [ -87.76676, 41.94588 ], [ -87.767, 41.95318 ], [ -87.75961, 41.95327 ], [ -87.75957, 41.95187 ], [ -87.7571, 41.9519 ], [ -87.75709, 41.95145 ], [ -87.75218, 41.95151 ], [ -87.75212, 41.94925 ], [ -87.74974, 41.94928 ], [ -87.74976, 41.94974 ], [ -87.74889, 41.94975 ], [ -87.74658, 41.94978 ], [ -87.74657, 41.94932 ], [ -87.74266, 41.94938 ], [ -87.74267, 41.94984 ], [ -87.74243, 41.94984 ], [ -87.74253, 41.95347 ], [ -87.73247, 41.9536 ], [ -87.73242, 41.95181 ] ] ] } },
{ "type": "Feature", "properties": { "id": "31", "name": "31", "street_miles": 60.39, "any_miles": 7.61, "low_stress_miles": 2.85, "any_pct": 12.61, "low_stress_pct": 4.72 }, "geometry": { "type": "Polygon", "coordinates": [ [ [ -87.72392, 41.93913 ], [ -87.71966, 41.93654 ], [ -87.72215, 41.93428 ], [ -87.72209, 41.93185 ], [ -87.72698, 41.93179 ], [ -87.72677, 41.92448 ], [ -87.72922, 41.92446 ], [ -87.7292, 41.92395 ], [ -87.73165, 41.92392 ], [ -87.73161, 41.92259 ], [ -87.74158, 41.92253 ], [ -87.74172, 41.9243 ], [ -87.74178, 41.92247 ], [ -87.75855, 41.92225 ], [ -87.75861, 41.92407 ], [ -87.76599, 41.92398 ], [ -87.76605, 41.9258 ], [ -87.76113, 41.92588 ], [ -87.7612, 41.9277 ], [ -87.76612, 41.92763 ], [ -87.76625, 41.93128 ], [ -87.76746, 41.93126 ], [ -87.76752, 41.93309 ], [ -87.76874, 41.93307 ], [ -87.76893, 41.93854 ], [ -87.7616, 41.93864 ], [ -87.76153, 41.93681 ], [ -87.75417, 41.93691 ], [ -87.75421, 41.93782 ], [ -87.75666, 41.93779 ], [ -87.75672, 41.93961 ], [ -87.76163, 41.93955 ], [ -87.76169, 41.94138 ], [ -87.75923, 41.94141 ], [ -87.75938, 41.94597 ], [ -87.74706, 41.94612 ], [ -87.74687, 41.93883 ], [ -87.72392, 41.93913 ] ] ] } },
{ "type": "Feature", "properties": { "id": "32", "name": "32", "street_miles": 71.42, "any_miles": 16.4, "low_stress_miles": 5.9, "any_pct": 22.96, "low_stress_pct": 8.27 }, "geometry": { "type": "Polygon", "coordinates": [ [ [ -87.68097, 41.94636 ], [ -87.67975, 41.94638 ], [ -87.67971, 41.94503 ], [ -87.67608, 41.94506 ], [ -87.67603, 41.94325 ], [ -87.66454, 41.94341 ], [ -87.66445, 41.94021 ], [ -87.66383, 41.94022 ], [ -87.66382, 41.93976 ], [ -87.65897, 41.93984 ], [ -87.65845, 41.92529 ], [ -87.66815, 41.92515 ], [ -87.66811, 41.92428 ], [ -87.66319, 41.92074 ], [ -87.66304, 41.91929 ], [ -87.66014, 41.9171 ], [ -87.6591, 41.91712 ], [ -87.65778, 41.91617 ], [ -87.65439, 41.91305 ], [ -87.65548, 41.9125 ], [ -87.65408, 41.91082 ], [ -87.68722, 41.91032 ], [ -87.68826, 41.94673 ], [ -87.68098, 41.94683 ], [ -87.68097, 41.94636 ] ] ] } },
{ "type": "Feature", "properties": { "id": "33", "name": "33", "street_miles": 48.57, "any_miles": 10.34, "low_stress_miles": 4.35, "any_pct": 21.29, "low_stress_pct": 8.95 }, "geometry": { "type": "Polygon", "coordinates": [ [ [ -87.70353, 41.97186 ], [ -87.70265, 41.97034 ], [ -87.70108, 41.96851 ], [ -87.70361, 41.96849 ], [ -87.70347, 41.96474 ], [ -87.69963, 41.96477 ], [ -87.69846, 41.96362 ], [ -87.69848, 41.96125 ], [ -87.69471, 41.96116 ], [ -87.69427, 41.95703 ], [ -87.69454, 41.95399 ], [ -87.69946, 41.95397 ], [ -87.69936, 41.95032 ], [ -87.70547, 41.95029 ], [ -87.70537, 41.94665 ], [ -87.69803, 41.94668 ], [ -87.69782, 41.93939 ], [ -87.7077, 41.93933 ], [ -87.7078, 41.94592 ], [ -87.71279, 41.94933 ], [ -87.7129, 41.95386 ], [ -87.71781, 41.95379 ], [ -87.71787, 41.95561 ], [ -87.72154, 41.95556 ], [ -87.72159, 41.95738 ], [ -87.72282, 41.95736 ], [ -87.72287, 41.95919 ], [ -87.72411, 41.95917 ], [ -87.72416, 41.96099 ], [ -87.72783, 41.96095 ], [ -87.72793, 41.96459 ], [ -87.72732, 41.9646 ], [ -87.72739, 41.96779 ], [ -87.72801, 41.96778 ], [ -87.72804, 41.9687 ], [ -87.72442, 41.9687 ], [ -87.72445, 41.9701 ], [ -87.72075, 41.97014 ], [ -87.7208, 41.97197 ], [ -87.71652, 41.97213 ], [ -87.71493, 41.9718 ], [ -87.71102, 41.97205 ], [ -87.71091, 41.97378 ], [ -87.70863, 41.97392 ], [ -87.70868, 41.97575 ], [ -87.70473, 41.97577 ], [ -87.70353, 41.97186 ] ] ] } },
{ "type": "Feature", "properties": { "id": "34", "name": "34", "street_miles": 33.19, "any_miles": 9.6, "low_stress_miles": 5.63, "any_pct": 28.93, "low_stress_pct": 16.95 }, "geometry": { "type": "Polygon", "coordinates": [ [ [ -87.63968, 41.88906 ], [ -87.63915, 41.88684 ], [ -87.63819, 41.88572 ], [ -87.64131, 41.8857 ], [ -87.64132, 41.88552 ], [ -87.64117, 41.8812 ], [ -87.63967, 41.88122 ], [ -87.63956, 41.87804 ], [ -87.63226, 41.87813 ], [ -87.63235, 41.88131 ], [ -87.6353, 41.88128 ], [ -87.63536, 41.88383 ], [ -87.63242, 41.88386 ], [ -87.63241, 41.88321 ], [ -87.62944, 41.88321 ], [ -87.62946, 41.88448 ], [ -87.62625, 41.8845 ], [ -87.62628, 41.88574 ], [ -87.62391, 41.88577 ], [ -87.6239, 41.88444 ], [ -87.62445, 41.88447 ], [ -87.62429, 41.877 ], [ -87.62529, 41.87699 ], [ -87.6253, 41.8762 ], [ -87.62604, 41.87617 ], [ -87.62608, 41.87825 ], [ -87.63079, 41.87815 ], [ -87.63075, 41.87688 ], [ -87.62874, 41.87691 ], [ -87.62871, 41.87594 ], [ -87.6287, 41.87556 ], [ -87.63071, 41.87569 ], [ -87.63044, 41.86743 ], [ -87.62267, 41.86756 ], [ -87.62263, 41.86582 ], [ -87.62747, 41.86574 ], [ -87.62749, 41.86734 ], [ -87.63438, 41.86737 ], [ -87.63455, 41.8698 ], [ -87.63499, 41.87109 ], [ -87.63458, 41.87156 ], [ -87.63461, 41.87197 ], [ -87.63509, 41.87196 ], [ -87.63562, 41.87469 ], [ -87.63626, 41.87557 ], [ -87.63681, 41.87569 ], [ -87.63639, 41.8757 ], [ -87.63714, 41.8768 ], [ -87.64103, 41.87675 ], [ -87.64096, 41.87439 ], [ -87.64713, 41.87434 ], [ -87.64696, 41.8696 ], [ -87.65131, 41.8695 ], [ -87.65332, 41.86705 ], [ -87.65649, 41.867 ], [ -87.65668, 41.867 ], [ -87.65682, 41.87225 ], [ -87.66091, 41.87218 ], [ -87.66172, 41.87211 ], [ -87.66171, 41.87175 ], [ -87.66195, 41.87171 ], [ -87.66415, 41.87166 ], [ -87.66422, 41.87373 ], [ -87.66178, 41.87376 ], [ -87.66182, 41.87526 ], [ -87.66663, 41.87518 ], [ -87.66666, 41.87635 ], [ -87.66915, 41.87632 ], [ -87.66923, 41.87886 ], [ -87.66608, 41.88146 ], [ -87.66442, 41.88149 ], [ -87.66429, 41.8764 ], [ -87.65942, 41.87648 ], [ -87.65945, 41.87775 ], [ -87.65457, 41.87783 ], [ -87.65461, 41.8791 ], [ -87.65706, 41.87906 ], [ -87.6571, 41.88033 ], [ -87.65953, 41.88029 ], [ -87.65962, 41.88157 ], [ -87.65876, 41.88159 ], [ -87.65878, 41.88227 ], [ -87.65671, 41.8823 ], [ -87.6567, 41.88298 ], [ -87.65557, 41.883 ], [ -87.65558, 41.88341 ], [ -87.65441, 41.88343 ], [ -87.6544, 41.88302 ], [ -87.64974, 41.8831 ], [ -87.6497, 41.88174 ], [ -87.64853, 41.88176 ], [ -87.64857, 41.88313 ], [ -87.64605, 41.88316 ], [ -87.64645, 41.8868 ], [ -87.64751, 41.8868 ], [ -87.64755, 41.8882 ], [ -87.64826, 41.88904 ], [ -87.64287, 41.88905 ], [ -87.64281, 41.89077 ], [ -87.64312, 41.89125 ], [ -87.64148, 41.89139 ], [ -87.63968, 41.88906 ] ] ] } },
{ "type": "Feature", "properties": { "id": "35", "name": "35", "street_miles": 60.21, "any_miles": 13.0, "low_stress_miles": 5.54, "any_pct": 21.59, "low_stress_pct": 9.2 }, "geometry": { "type": "Polygon", "coordinates": [ [ [ -87.69684, 41.95024 ], [ -87.69528, 41.94277 ], [ -87.69363, 41.94026 ], [ -87.69149, 41.93879 ], [ -87.69015, 41.9367 ], [ -87.68853, 41.93645 ], [ -87.68799, 41.9361 ], [ -87.68777, 41.92858 ], [ -87.69396, 41.93212 ], [ -87.70498, 41.93204 ], [ -87.70488, 41.9284 ], [ -87.70575, 41.92806 ], [ -87.70235, 41.92597 ], [ -87.70223, 41.92238 ], [ -87.70714, 41.92232 ], [ -87.70711, 41.92145 ], [ -87.70761, 41.92106 ], [ -87.70707, 41.92066 ], [ -87.70703, 41.91923 ], [ -87.72905, 41.91897 ], [ -87.729, 41.91713 ], [ -87.73633, 41.91704 ], [ -87.73649, 41.92253 ], [ -87.73161, 41.92259 ], [ -87.73165, 41.92392 ], [ -87.7292, 41.92395 ], [ -87.72922, 41.92446 ], [ -87.72677, 41.92448 ], [ -87.72698, 41.93179 ], [ -87.72209, 41.93185 ], [ -87.72215, 41.93428 ], [ -87.71966, 41.93654 ], [ -87.72392, 41.93913 ], [ -87.7174, 41.93922 ], [ -87.71781, 41.95379 ], [ -87.7129, 41.95386 ], [ -87.71279, 41.94933 ], [ -87.7078, 41.94592 ], [ -87.7077, 41.93933 ], [ -87.69782, 41.93939 ], [ -87.69803, 41.94668 ], [ -87.70537, 41.94665 ], [ -87.70547, 41.95029 ], [ -87.69936, 41.95032 ], [ -87.69946, 41.95397 ], [ -87.69454, 41.95399 ], [ -87.69684, 41.95024 ] ] ] } },
{ "type": "Feature", "properties": { "id": "36", "name": "36", "street_miles": 66.26, "any_miles": 8.3, "low_stress_miles": 1.19, "any_pct": 12.52, "low_stress_pct": 1.8 }, "geometry": { "type": "Polygon", "coordinates": [ [ [ -87.78544, 41.92368 ], [ -87.75861, 41.92407 ], [ -87.75855, 41.92225 ], [ -87.75732, 41.92227 ], [ -87.75722, 41.91865 ], [ -87.75353, 41.91866 ], [ -87.75338, 41.91684 ], [ -87.74945, 41.91689 ], [ -87.74943, 41.91644 ], [ -87.74608, 41.91647 ], [ -87.74611, 41.91693 ], [ -87.74142, 41.91698 ], [ -87.7413, 41.91391 ], [ -87.73622, 41.91352 ], [ -87.73616, 41.91158 ], [ -87.73493, 41.9116 ], [ -87.73489, 41.91028 ], [ -87.73367, 41.91029 ], [ -87.73366, 41.90979 ], [ -87.73142, 41.90982 ], [ -87.73141, 41.90932 ], [ -87.73018, 41.90933 ], [ -87.73016, 41.90863 ], [ -87.72893, 41.90865 ], [ -87.72891, 41.90804 ], [ -87.72583, 41.90808 ], [ -87.7258, 41.90641 ], [ -87.7253, 41.90623 ], [ -87.71972, 41.90634 ], [ -87.71966, 41.90453 ], [ -87.71662, 41.90456 ], [ -87.71655, 41.90224 ], [ -87.7128, 41.90075 ], [ -87.71188, 41.90005 ], [ -87.71138, 41.9002 ], [ -87.70881, 41.89917 ], [ -87.70195, 41.89924 ], [ -87.70193, 41.89802 ], [ -87.70104, 41.89803 ], [ -87.70103, 41.89662 ], [ -87.70039, 41.89634 ], [ -87.70043, 41.89804 ], [ -87.69676, 41.89807 ], [ -87.69679, 41.89928 ], [ -87.69433, 41.8993 ], [ -87.69435, 41.90022 ], [ -87.69681, 41.9002 ], [ -87.69687, 41.90243 ], [ -87.6878, 41.90252 ], [ -87.68779, 41.90208 ], [ -87.68701, 41.90209 ], [ -87.68696, 41.90029 ], [ -87.68451, 41.90033 ], [ -87.68449, 41.89942 ], [ -87.67228, 41.89963 ], [ -87.67202, 41.8909 ], [ -87.68739, 41.89063 ], [ -87.70665, 41.89831 ], [ -87.7066, 41.89686 ], [ -87.71021, 41.89916 ], [ -87.71521, 41.89912 ], [ -87.71528, 41.90094 ], [ -87.71894, 41.90091 ], [ -87.71898, 41.90226 ], [ -87.7202, 41.90225 ], [ -87.72022, 41.90272 ], [ -87.72143, 41.90271 ], [ -87.72145, 41.90317 ], [ -87.72388, 41.90315 ], [ -87.72392, 41.90446 ], [ -87.72575, 41.90445 ], [ -87.72576, 41.90536 ], [ -87.72639, 41.90563 ], [ -87.72639, 41.90538 ], [ -87.73622, 41.90523 ], [ -87.73632, 41.90953 ], [ -87.73626, 41.90976 ], [ -87.73556, 41.90977 ], [ -87.74599, 41.91392 ], [ -87.74601, 41.91449 ], [ -87.75589, 41.91571 ], [ -87.75594, 41.91693 ], [ -87.76702, 41.91898 ], [ -87.76694, 41.91687 ], [ -87.76816, 41.91686 ], [ -87.7682, 41.91805 ], [ -87.78026, 41.91785 ], [ -87.7804, 41.91829 ], [ -87.78528, 41.91823 ], [ -87.78523, 41.91664 ], [ -87.786, 41.91668 ], [ -87.78769, 41.91704 ], [ -87.78788, 41.92326 ], [ -87.78857, 41.92365 ], [ -87.79241, 41.92362 ], [ -87.79233, 41.9212 ], [ -87.79881, 41.92115 ], [ -87.79883, 41.9209 ], [ -87.80068, 41.92156 ], [ -87.80127, 41.93944 ], [ -87.80002, 41.93944 ], [ -87.80005, 41.93992 ], [ -87.79819, 41.93994 ], [ -87.79813, 41.93812 ], [ -87.78727, 41.9383 ], [ -87.78742, 41.94198 ], [ -87.7856, 41.942 ], [ -87.78545, 41.93833 ], [ -87.78603, 41.93832 ], [ -87.78569, 41.931 ], [ -87.77961, 41.93109 ], [ -87.77949, 41.92743 ], [ -87.78558, 41.92734 ], [ -87.78544, 41.92368 ] ] ] } },
{ "type": "Feature", "properties": { "id": "37", "name": "37", "street_miles": 71.43, "any_miles": 7.58, "low_stress_miles": 4.21, "any_pct": 10.62, "low_stress_pct": 5.89 }, "geometry": { "type": "Polygon", "coordinates": [ [ [ -87.72266, 41.90316 ], [ -87.72226, 41.8899 ], [ -87.72104, 41.8899 ], [ -87.72092, 41.8852 ], [ -87.7258, 41.88547 ], [ -87.72588, 41.88833 ], [ -87.72673, 41.88905 ], [ -87.72761, 41.89092 ], [ -87.72827, 41.89149 ], [ -87.7324, 41.89194 ], [ -87.73494, 41.89247 ], [ -87.73758, 41.89339 ], [ -87.74052, 41.8951 ], [ -87.74581, 41.895 ], [ -87.74555, 41.88778 ], [ -87.75534, 41.88781 ], [ -87.75507, 41.88037 ], [ -87.76154, 41.88029 ], [ -87.76161, 41.88229 ], [ -87.76493, 41.88224 ], [ -87.76589, 41.90862 ], [ -87.76553, 41.91016 ], [ -87.76581, 41.91876 ], [ -87.75594, 41.91693 ], [ -87.75589, 41.91571 ], [ -87.74601, 41.91449 ], [ -87.74599, 41.91392 ], [ -87.73556, 41.90977 ], [ -87.73626, 41.90976 ], [ -87.73632, 41.90953 ], [ -87.73622, 41.90523 ], [ -87.72639, 41.90538 ], [ -87.72639, 41.90563 ], [ -87.72576, 41.90536 ], [ -87.72575, 41.90445 ], [ -87.72392, 41.90446 ], [ -87.72388, 41.90315 ], [ -87.72266, 41.90316 ] ] ] } },
{ "type": "Feature", "properties": { "id": "38", "name": "38", "street_miles": 100.16, "any_miles": 1.06, "low_stress_miles": 0.0, "any_pct": 1.06, "low_stress_pct": 0.0 }, "geometry": { "type": "Polygon", "coordinates": [ [ [ -87.75224, 41.95336 ], [ -87.767, 41.95318 ], [ -87.76676, 41.94588 ], [ -87.78631, 41.94566 ], [ -87.78621, 41.94199 ], [ -87.78742, 41.94198 ], [ -87.78727, 41.9383 ], [ -87.79813, 41.93812 ], [ -87.79819, 41.93994 ], [ -87.79978, 41.93993 ], [ -87.80005, 41.93992 ], [ -87.80002, 41.93944 ], [ -87.80127, 41.93944 ], [ -87.80129, 41.9399 ], [ -87.81658, 41.93962 ], [ -87.81652, 41.93794 ], [ -87.84962, 41.93729 ], [ -87.85141, 41.9387 ], [ -87.85211, 41.93979 ], [ -87.85382, 41.94584 ], [ -87.85498, 41.94803 ], [ -87.85494, 41.94948 ], [ -87.85407, 41.95145 ], [ -87.84661, 41.95164 ], [ -87.8466, 41.95569 ], [ -87.85808, 41.95544 ], [ -87.85859, 41.95614 ], [ -87.85878, 41.95724 ], [ -87.85582, 41.96241 ], [ -87.85492, 41.96614 ], [ -87.83668, 41.9666 ], [ -87.8367, 41.95936 ], [ -87.83268, 41.95944 ], [ -87.83182, 41.9557 ], [ -87.83179, 41.95216 ], [ -87.80727, 41.95276 ], [ -87.8073, 41.95368 ], [ -87.79433, 41.96003 ], [ -87.78681, 41.96022 ], [ -87.78705, 41.9633 ], [ -87.78677, 41.96355 ], [ -87.78674, 41.96654 ], [ -87.78197, 41.9666 ], [ -87.78198, 41.96471 ], [ -87.76739, 41.96504 ], [ -87.76718, 41.95866 ], [ -87.75733, 41.95878 ], [ -87.75728, 41.95741 ], [ -87.75247, 41.95747 ], [ -87.75207, 41.95701 ], [ -87.75279, 41.957 ], [ -87.75233, 41.95647 ], [ -87.75224, 41.95336 ] ] ] } },
{ "type": "Feature", "properties": { "id": "39", "name": "39", "street_miles": 105.84, "any_miles": 7.4, "low_stress_miles": 1.45, "any_pct": 7.0, "low_stress_pct": 1.37 }, "geometry": { "type": "Polygon", "coordinates": [ [ [ -87.69916, 41.98312 ], [ -87.69892, 41.97582 ], [ -87.70868, 41.97575 ], [ -87.70863, 41.97392 ], [ -87.71091, 41.97378 ], [ -87.71102, 41.97205 ], [ -87.71493, 41.9718 ], [ -87.71652, 41.97213 ], [ -87.7208, 41.97197 ], [ -87.72075, 41.97014 ], [ -87.72445, 41.9701 ], [ -87.72442, 41.9687 ], [ -87.72804, 41.9687 ], [ -87.72801, 41.96778 ], [ -87.72739, 41.96779 ], [ -87.72732, 41.9646 ], [ -87.72793, 41.96459 ], [ -87.72783, 41.96095 ], [ -87.72416, 41.96099 ], [ -87.72411, 41.95917 ], [ -87.72287, 41.95919 ], [ -87.72282, 41.95736 ], [ -87.72159, 41.95738 ], [ -87.72152, 41.95504 ], [ -87.72205, 41.95503 ], [ -87.72281, 41.95554 ], [ -87.72767, 41.95548 ], [ -87.72762, 41.95365 ], [ -87.73094, 41.95362 ], [ -87.74332, 41.96066 ], [ -87.74457, 41.96076 ], [ -87.74738, 41.96243 ], [ -87.74696, 41.9629 ], [ -87.74764, 41.96452 ], [ -87.74756, 41.96854 ], [ -87.74783, 41.9694 ], [ -87.74791, 41.97288 ], [ -87.76396, 41.98275 ], [ -87.7779, 41.98996 ], [ -87.77789, 41.9902 ], [ -87.7876, 41.99017 ], [ -87.78744, 41.99736 ], [ -87.77548, 41.99744 ], [ -87.77033, 41.99714 ], [ -87.76547, 41.99735 ], [ -87.72279, 41.99726 ], [ -87.72275, 41.99679 ], [ -87.72336, 41.99681 ], [ -87.7233, 41.99372 ], [ -87.72206, 41.99372 ], [ -87.72199, 41.99068 ], [ -87.72137, 41.99066 ], [ -87.72136, 41.99023 ], [ -87.70909, 41.99038 ], [ -87.7069, 41.98308 ], [ -87.69916, 41.98312 ] ] ] } },
{ "type": "Feature", "properties": { "id": "40", "name": "40", "street_miles": 63.02, "any_miles": 12.43, "low_stress_miles": 9.14, "any_pct": 19.73, "low_stress_pct": 14.5 }, "geometry": { "type": "Polygon", "coordinates": [ [ [ -87.68189, 42.00896 ], [ -87.67976, 42.00431 ], [ -87.6752, 42.00437 ], [ -87.67512, 42.00165 ], [ -87.67186, 42.0017 ], [ -87.67025, 41.99665 ], [ -87.66995, 41.98922 ], [ -87.66841, 41.98153 ], [ -87.66821, 41.97437 ], [ -87.66958, 41.97434 ], [ -87.66956, 41.97344 ], [ -87.67632, 41.97331 ], [ -87.67631, 41.97244 ], [ -87.6793, 41.9724 ], [ -87.67924, 41.97057 ], [ -87.68896, 41.97041 ], [ -87.68885, 41.96676 ], [ -87.69798, 41.96671 ], [ -87.69746, 41.96621 ], [ -87.6986, 41.9662 ], [ -87.69562, 41.96318 ], [ -87.69475, 41.96127 ], [ -87.69848, 41.96125 ], [ -87.69846, 41.96362 ], [ -87.69963, 41.96477 ], [ -87.70347, 41.96474 ], [ -87.70361, 41.96849 ], [ -87.70108, 41.96851 ], [ -87.70265, 41.97034 ], [ -87.70353, 41.97186 ], [ -87.70473, 41.97577 ], [ -87.69892, 41.97582 ], [ -87.69924, 41.98554 ], [ -87.70331, 41.98797 ], [ -87.70297, 41.98834 ], [ -87.70304, 41.99042 ], [ -87.69818, 41.99045 ], [ -87.6983, 41.99399 ], [ -87.68239, 41.99422 ], [ -87.68257, 41.99785 ], [ -87.67684, 41.99796 ], [ -87.67794, 42.00036 ], [ -87.68751, 42.00004 ], [ -87.6875, 41.99959 ], [ -87.68993, 41.99954 ], [ -87.69009, 42.00593 ], [ -87.6907, 42.00592 ], [ -87.69068, 42.00502 ], [ -87.69495, 42.00495 ], [ -87.69497, 42.00856 ], [ -87.69016, 42.00863 ], [ -87.69015, 42.00805 ], [ -87.68242, 42.00838 ], [ -87.68266, 42.00893 ], [ -87.68189, 42.00896 ] ] ] } },
{ "type": "Feature", "properties": { "id": "41", "name": "41", "street_miles": 126.92, "any_miles": 2.05, "low_stress_miles": 0.0, "any_pct": 1.62, "low_stress_pct": 0.0 }, "geometry": { "type": "Polygon", "coordinates": [ [ [ -87.79117, 42.00098 ], [ -87.78958, 41.99923 ], [ -87.79022, 41.9989 ], [ -87.79087, 41.99889 ], [ -87.79089, 41.99733 ], [ -87.79231, 41.99732 ], [ -87.79165, 41.99376 ], [ -87.79473, 41.9937 ], [ -87.79538, 41.99311 ], [ -87.78763, 41.98877 ], [ -87.78775, 41.98206 ], [ -87.78653, 41.98207 ], [ -87.78666, 41.97566 ], [ -87.78545, 41.97551 ], [ -87.78559, 41.96844 ], [ -87.77823, 41.96853 ], [ -87.77727, 41.96765 ], [ -87.77723, 41.96667 ], [ -87.78674, 41.96654 ], [ -87.78677, 41.96843 ], [ -87.78801, 41.96841 ], [ -87.78801, 41.96889 ], [ -87.80252, 41.96877 ], [ -87.80254, 41.9683 ], [ -87.80716, 41.96827 ], [ -87.80707, 41.97454 ], [ -87.81692, 41.97429 ], [ -87.81695, 41.97066 ], [ -87.81899, 41.97061 ], [ -87.81897, 41.97322 ], [ -87.81943, 41.97322 ], [ -87.8194, 41.97422 ], [ -87.82674, 41.97403 ], [ -87.82674, 41.97314 ], [ -87.83173, 41.97306 ], [ -87.83172, 41.97395 ], [ -87.83342, 41.97392 ], [ -87.83363, 41.97537 ], [ -87.83663, 41.97531 ], [ -87.83663, 41.97477 ], [ -87.84155, 41.97469 ], [ -87.84155, 41.97379 ], [ -87.83793, 41.97384 ], [ -87.83795, 41.97135 ], [ -87.83665, 41.97137 ], [ -87.83665, 41.97023 ], [ -87.84159, 41.97014 ], [ -87.84158, 41.97198 ], [ -87.84653, 41.97189 ], [ -87.84657, 41.96641 ], [ -87.85492, 41.96614 ], [ -87.85478, 41.9672 ], [ -87.85503, 41.96871 ], [ -87.85413, 41.97117 ], [ -87.85447, 41.9719 ], [ -87.85536, 41.97252 ], [ -87.85659, 41.97246 ], [ -87.85892, 41.97142 ], [ -87.86043, 41.97193 ], [ -87.8619, 41.97332 ], [ -87.88077, 41.97285 ], [ -87.88079, 41.9572 ], [ -87.88385, 41.9573 ], [ -87.89027, 41.9581 ], [ -87.8929, 41.95805 ], [ -87.89288, 41.95079 ], [ -87.90378, 41.95062 ], [ -87.91475, 41.95288 ], [ -87.91504, 41.95619 ], [ -87.91523, 41.95684 ], [ -87.91585, 41.95716 ], [ -87.91633, 41.95509 ], [ -87.91596, 41.95509 ], [ -87.91594, 41.95227 ], [ -87.92556, 41.95461 ], [ -87.93947, 41.95679 ], [ -87.93947, 41.95839 ], [ -87.93912, 41.95839 ], [ -87.93938, 41.95953 ], [ -87.93936, 41.96428 ], [ -87.93972, 41.96428 ], [ -87.93993, 41.99349 ], [ -87.9388, 41.99353 ], [ -87.93739, 41.99745 ], [ -87.93612, 41.99933 ], [ -87.93466, 42.0009 ], [ -87.93514, 42.00089 ], [ -87.93529, 42.00815 ], [ -87.93358, 42.00817 ], [ -87.93348, 42.00542 ], [ -87.93033, 42.005 ], [ -87.93033, 42.00516 ], [ -87.92925, 42.005 ], [ -87.92545, 42.00771 ], [ -87.92256, 42.00587 ], [ -87.92086, 42.00388 ], [ -87.9206, 42.00389 ], [ -87.92061, 42.00495 ], [ -87.91377, 42.00507 ], [ -87.91375, 42.00871 ], [ -87.91331, 42.00872 ], [ -87.91331, 42.00626 ], [ -87.91303, 42.00627 ], [ -87.91303, 42.00509 ], [ -87.90767, 42.00525 ], [ -87.90768, 42.00892 ], [ -87.90575, 42.00899 ], [ -87.89835, 42.00679 ], [ -87.89598, 42.00565 ], [ -87.89576, 42.00588 ], [ -87.89531, 42.00567 ], [ -87.89429, 42.0057 ], [ -87.89435, 42.00271 ], [ -87.89355, 42.00274 ], [ -87.89326, 42.00394 ], [ -87.89189, 42.00399 ], [ -87.89, 42.00323 ], [ -87.89038, 42.00285 ], [ -87.89039, 42.0023 ], [ -87.89924, 42.0019 ], [ -87.90241, 42.00361 ], [ -87.9024, 42.00403 ], [ -87.90406, 42.00397 ], [ -87.90406, 42.00356 ], [ -87.90312, 42.00342 ], [ -87.89954, 42.00148 ], [ -87.89744, 42.00155 ], [ -87.89746, 42.00053 ], [ -87.8894, 41.99939 ], [ -87.88496, 41.99846 ], [ -87.88453, 41.9982 ], [ -87.88454, 41.9951 ], [ -87.88035, 41.99523 ], [ -87.87691, 41.98567 ], [ -87.87586, 41.9857 ], [ -87.87586, 41.98294 ], [ -87.87373, 41.97666 ], [ -87.87588, 41.9766 ], [ -87.87589, 41.97388 ], [ -87.8686, 41.97405 ], [ -87.86861, 41.9738 ], [ -87.86749, 41.97399 ], [ -87.86749, 41.97373 ], [ -87.86201, 41.97387 ], [ -87.86176, 41.97517 ], [ -87.86124, 41.976 ], [ -87.85627, 41.98046 ], [ -87.85588, 41.9811 ], [ -87.85578, 41.98216 ], [ -87.85665, 41.98443 ], [ -87.85636, 41.98599 ], [ -87.85554, 41.98794 ], [ -87.85588, 41.98913 ], [ -87.85392, 41.98871 ], [ -87.84925, 41.98835 ], [ -87.82335, 41.98436 ], [ -87.8214, 41.99692 ], [ -87.82125, 42.01136 ], [ -87.81973, 42.01139 ], [ -87.81973, 42.01193 ], [ -87.8201, 42.01193 ], [ -87.82007, 42.01557 ], [ -87.82123, 42.01554 ], [ -87.82121, 42.01864 ], [ -87.80655, 42.01896 ], [ -87.80676, 42.00084 ], [ -87.80539, 42.00086 ], [ -87.80535, 42.00152 ], [ -87.80108, 42.00157 ], [ -87.80109, 42.00087 ], [ -87.79963, 42.00087 ], [ -87.79945, 42.00003 ], [ -87.79717, 42.00004 ], [ -87.79712, 42.00094 ], [ -87.79117, 42.00098 ] ], [ [ -87.82443, 41.97607 ], [ -87.82353, 41.98303 ], [ -87.8253, 41.983 ], [ -87.82527, 41.98196 ], [ -87.82814, 41.98192 ], [ -87.82811, 41.98387 ], [ -87.83308, 41.98379 ], [ -87.83321, 41.98357 ], [ -87.83358, 41.98357 ], [ -87.8336, 41.98267 ], [ -87.83507, 41.98267 ], [ -87.83509, 41.98115 ], [ -87.83435, 41.98116 ], [ -87.83435, 41.981 ], [ -87.83436, 41.98085 ], [ -87.8351, 41.98084 ], [ -87.8351, 41.9805 ], [ -87.82886, 41.9806 ], [ -87.8287, 41.97929 ], [ -87.82808, 41.97929 ], [ -87.82808, 41.97912 ], [ -87.8287, 41.97912 ], [ -87.82864, 41.97844 ], [ -87.82972, 41.97842 ], [ -87.82971, 41.97813 ], [ -87.83002, 41.97813 ], [ -87.83004, 41.97733 ], [ -87.82961, 41.97734 ], [ -87.8296, 41.97696 ], [ -87.83362, 41.97689 ], [ -87.83362, 41.97592 ], [ -87.82443, 41.97607 ] ] ] } },
{ "type": "Feature", "properties": { "id": "42", "name": "42", "street_miles": 38.23, "any_miles": 7.41, "low_stress_miles": 2.76, "any_pct": 19.39, "low_stress_pct": 7.23 }, "geometry": { "type": "Polygon", "coordinates": [ [ [ -87.62685, 41.89668 ], [ -87.62683, 41.8957 ], [ -87.62817, 41.89568 ], [ -87.62815, 41.89488 ], [ -87.62276, 41.89497 ], [ -87.62265, 41.89094 ], [ -87.61389, 41.89111 ], [ -87.61407, 41.89296 ], [ -87.61267, 41.8934 ], [ -87.61203, 41.89333 ], [ -87.61003, 41.89624 ], [ -87.60249, 41.89637 ], [ -87.60234, 41.89622 ], [ -87.60235, 41.89326 ], [ -87.60982, 41.89315 ], [ -87.6098, 41.89222 ], [ -87.60075, 41.89244 ], [ -87.60058, 41.89224 ], [ -87.59855, 41.89227 ], [ -87.59852, 41.89145 ], [ -87.60057, 41.89142 ], [ -87.60069, 41.89108 ], [ -87.60954, 41.89101 ], [ -87.60949, 41.88939 ], [ -87.60766, 41.88937 ], [ -87.60765, 41.88867 ], [ -87.6052, 41.88872 ], [ -87.60467, 41.88863 ], [ -87.60513, 41.88856 ], [ -87.60513, 41.88835 ], [ -87.60246, 41.88831 ], [ -87.60985, 41.88797 ], [ -87.60999, 41.88408 ], [ -87.61274, 41.88406 ], [ -87.61288, 41.88339 ], [ -87.61351, 41.88286 ], [ -87.61579, 41.88244 ], [ -87.61633, 41.88211 ], [ -87.6165, 41.88141 ], [ -87.61575, 41.88142 ], [ -87.61572, 41.88057 ], [ -87.61648, 41.88056 ], [ -87.61623, 41.87328 ], [ -87.6242, 41.87316 ], [ -87.62445, 41.88447 ], [ -87.6239, 41.88444 ], [ -87.62391, 41.88577 ], [ -87.62628, 41.88574 ], [ -87.62625, 41.8845 ], [ -87.62946, 41.88448 ], [ -87.62944, 41.88321 ], [ -87.63241, 41.88321 ], [ -87.63242, 41.88386 ], [ -87.63536, 41.88383 ], [ -87.6353, 41.88128 ], [ -87.63235, 41.88131 ], [ -87.63226, 41.87813 ], [ -87.63956, 41.87804 ], [ -87.63967, 41.88122 ], [ -87.64117, 41.8812 ], [ -87.64131, 41.8857 ], [ -87.6382, 41.88581 ], [ -87.63915, 41.88684 ], [ -87.63974, 41.88924 ], [ -87.64113, 41.89075 ], [ -87.64146, 41.8919 ], [ -87.64407, 41.89414 ], [ -87.64422, 41.89645 ], [ -87.63052, 41.89665 ], [ -87.63055, 41.89798 ], [ -87.62982, 41.89799 ], [ -87.62986, 41.89991 ], [ -87.62829, 41.89994 ], [ -87.62832, 41.90237 ], [ -87.62451, 41.90244 ], [ -87.62412, 41.90082 ], [ -87.62424, 41.89673 ], [ -87.62685, 41.89668 ] ] ] } },
{ "type": "Feature", "properties": { "id": "43", "name": "43", "street_miles": 41.12, "any_miles": 7.19, "low_stress_miles": 1.05, "any_pct": 17.48, "low_stress_pct": 2.54 }, "geometry": { "type": "Polygon", "coordinates": [ [ [ -87.63183, 41.93305 ], [ -87.63138, 41.9328 ], [ -87.63182, 41.93244 ], [ -87.63125, 41.93239 ], [ -87.63107, 41.93259 ], [ -87.63124, 41.93239 ], [ -87.63069, 41.93187 ], [ -87.631, 41.93041 ], [ -87.63091, 41.92932 ], [ -87.6304, 41.92808 ], [ -87.63061, 41.928 ], [ -87.62962, 41.92672 ], [ -87.62966, 41.92615 ], [ -87.63027, 41.92575 ], [ -87.62994, 41.92355 ], [ -87.629, 41.92275 ], [ -87.62834, 41.92307 ], [ -87.62948, 41.9224 ], [ -87.62854, 41.92103 ], [ -87.6277, 41.92137 ], [ -87.62892, 41.92073 ], [ -87.62796, 41.9195 ], [ -87.62733, 41.91975 ], [ -87.62842, 41.91926 ], [ -87.62815, 41.9188 ], [ -87.62735, 41.918 ], [ -87.6268, 41.91825 ], [ -87.62791, 41.9176 ], [ -87.62671, 41.91644 ], [ -87.62609, 41.91684 ], [ -87.62681, 41.91629 ], [ -87.62487, 41.91472 ], [ -87.62319, 41.91378 ], [ -87.62173, 41.91353 ], [ -87.62062, 41.91379 ], [ -87.62057, 41.91337 ], [ -87.62021, 41.91391 ], [ -87.62021, 41.91456 ], [ -87.62047, 41.91479 ], [ -87.62099, 41.91479 ], [ -87.6205, 41.91485 ], [ -87.62016, 41.91458 ], [ -87.62017, 41.91386 ], [ -87.6205, 41.91336 ], [ -87.62329, 41.91247 ], [ -87.62466, 41.91142 ], [ -87.6247, 41.9108 ], [ -87.6251, 41.91027 ], [ -87.62481, 41.90753 ], [ -87.62372, 41.90405 ], [ -87.62585, 41.90399 ], [ -87.62584, 41.9049 ], [ -87.62871, 41.90485 ], [ -87.62889, 41.91122 ], [ -87.63168, 41.91118 ], [ -87.63281, 41.91311 ], [ -87.63311, 41.91291 ], [ -87.63986, 41.91287 ], [ -87.63981, 41.9111 ], [ -87.64436, 41.91099 ], [ -87.64445, 41.91389 ], [ -87.64836, 41.91383 ], [ -87.64827, 41.91092 ], [ -87.6495, 41.9109 ], [ -87.65828, 41.91719 ], [ -87.65828, 41.91985 ], [ -87.65707, 41.91987 ], [ -87.65713, 41.92168 ], [ -87.65833, 41.92166 ], [ -87.65839, 41.92348 ], [ -87.65719, 41.9235 ], [ -87.65723, 41.92481 ], [ -87.65725, 41.92531 ], [ -87.65845, 41.92529 ], [ -87.65871, 41.93256 ], [ -87.63183, 41.93305 ] ] ] } },
{ "type": "Feature", "properties": { "id": "44", "name": "44", "street_miles": 32.52, "any_miles": 6.46, "low_stress_miles": 2.54, "any_pct": 19.88, "low_stress_pct": 7.82 }, "geometry": { "type": "Polygon", "coordinates": [ [ [ -87.65679, 41.95445 ], [ -87.65681, 41.95109 ], [ -87.65323, 41.95114 ], [ -87.65317, 41.94906 ], [ -87.64954, 41.94912 ], [ -87.64943, 41.94546 ], [ -87.64615, 41.9455 ], [ -87.64574, 41.94484 ], [ -87.6418, 41.94616 ], [ -87.64221, 41.94687 ], [ -87.64074, 41.94762 ], [ -87.63804, 41.94827 ], [ -87.63625, 41.94576 ], [ -87.63301, 41.94255 ], [ -87.63387, 41.9414 ], [ -87.63386, 41.94038 ], [ -87.63305, 41.93819 ], [ -87.63229, 41.93724 ], [ -87.63203, 41.93569 ], [ -87.63044, 41.93367 ], [ -87.63066, 41.93253 ], [ -87.63073, 41.93306 ], [ -87.65871, 41.93256 ], [ -87.65897, 41.93984 ], [ -87.66382, 41.93976 ], [ -87.66383, 41.94022 ], [ -87.66445, 41.94021 ], [ -87.66454, 41.94341 ], [ -87.66513, 41.9434 ], [ -87.66514, 41.94379 ], [ -87.66575, 41.94378 ], [ -87.66582, 41.94654 ], [ -87.66643, 41.94653 ], [ -87.66653, 41.95067 ], [ -87.66412, 41.95071 ], [ -87.66417, 41.95253 ], [ -87.66083, 41.95258 ], [ -87.66225, 41.95438 ], [ -87.65679, 41.95445 ] ] ] } },
{ "type": "Feature", "properties": { "id": "45", "name": "45", "street_miles": 107.06, "any_miles": 10.02, "low_stress_miles": 0.52, "any_pct": 9.36, "low_stress_pct": 0.49 }, "geometry": { "type": "Polygon", "coordinates": [ [ [ -87.77335, 42.01195 ], [ -87.77036, 42.00619 ], [ -87.76995, 42.00638 ], [ -87.7692, 42.00491 ], [ -87.76579, 42.00333 ], [ -87.76547, 42.00374 ], [ -87.76754, 42.00471 ], [ -87.76746, 42.00832 ], [ -87.76166, 42.00827 ], [ -87.76189, 42.00324 ], [ -87.76227, 42.00169 ], [ -87.75291, 41.9973 ], [ -87.76577, 41.99735 ], [ -87.77033, 41.99714 ], [ -87.77548, 41.99744 ], [ -87.78744, 41.99736 ], [ -87.7876, 41.99017 ], [ -87.77789, 41.9902 ], [ -87.7779, 41.98996 ], [ -87.76396, 41.98275 ], [ -87.74791, 41.97288 ], [ -87.74783, 41.9694 ], [ -87.74756, 41.96854 ], [ -87.74764, 41.96452 ], [ -87.74696, 41.9629 ], [ -87.74738, 41.96243 ], [ -87.74457, 41.96076 ], [ -87.74332, 41.96066 ], [ -87.73094, 41.95362 ], [ -87.72762, 41.95365 ], [ -87.72767, 41.95548 ], [ -87.72281, 41.95554 ], [ -87.7219, 41.95503 ], [ -87.72152, 41.95504 ], [ -87.72154, 41.95556 ], [ -87.71787, 41.95561 ], [ -87.71776, 41.95196 ], [ -87.72508, 41.95187 ], [ -87.72508, 41.95276 ], [ -87.72759, 41.95272 ], [ -87.72753, 41.95091 ], [ -87.72914, 41.95183 ], [ -87.73242, 41.95178 ], [ -87.73247, 41.9536 ], [ -87.74253, 41.95347 ], [ -87.74243, 41.94984 ], [ -87.74267, 41.94984 ], [ -87.74266, 41.94938 ], [ -87.74657, 41.94932 ], [ -87.74658, 41.94978 ], [ -87.74889, 41.94975 ], [ -87.74976, 41.94974 ], [ -87.74974, 41.94928 ], [ -87.75212, 41.94925 ], [ -87.75218, 41.95151 ], [ -87.75709, 41.95145 ], [ -87.7571, 41.9519 ], [ -87.75957, 41.95187 ], [ -87.75961, 41.95327 ], [ -87.75224, 41.95336 ], [ -87.75233, 41.95647 ], [ -87.75279, 41.957 ], [ -87.75207, 41.95701 ], [ -87.75247, 41.95747 ], [ -87.75728, 41.95741 ], [ -87.75733, 41.95878 ], [ -87.76718, 41.95866 ], [ -87.76739, 41.96504 ], [ -87.78198, 41.96471 ], [ -87.78197, 41.9666 ], [ -87.77723, 41.96667 ], [ -87.77727, 41.96765 ], [ -87.77823, 41.96853 ], [ -87.78559, 41.96844 ], [ -87.78545, 41.97551 ], [ -87.78666, 41.97566 ], [ -87.78653, 41.98207 ], [ -87.78775, 41.98206 ], [ -87.78763, 41.98877 ], [ -87.79538, 41.99311 ], [ -87.79473, 41.9937 ], [ -87.79165, 41.99376 ], [ -87.79231, 41.99732 ], [ -87.79089, 41.99733 ], [ -87.79087, 41.99889 ], [ -87.79022, 41.9989 ], [ -87.78958, 41.99923 ], [ -87.79065, 42.0004 ], [ -87.782, 42.0045 ], [ -87.7831, 42.00542 ], [ -87.78882, 42.012 ], [ -87.77927, 42.01199 ], [ -87.7791, 42.01544 ], [ -87.77697, 42.01539 ], [ -87.77705, 42.01198 ], [ -87.77335, 42.01195 ] ] ] } },
{ "type": "Feature", "properties": { "id": "46", "name": "46", "street_miles": 30.2, "any_miles": 7.12, "low_stress_miles": 2.54, "any_pct": 23.57, "low_stress_pct": 8.42 }, "geometry": { "type": "Polygon", "coordinates": [ [ [ -87.64964, 41.96917 ], [ -87.6443, 41.9699 ], [ -87.64263, 41.96835 ], [ -87.64301, 41.96849 ], [ -87.64327, 41.96831 ], [ -87.64297, 41.96806 ], [ -87.64256, 41.9683 ], [ -87.64049, 41.96692 ], [ -87.63644, 41.96578 ], [ -87.63199, 41.96507 ], [ -87.63184, 41.96669 ], [ -87.63096, 41.96842 ], [ -87.63118, 41.96874 ], [ -87.63163, 41.96876 ], [ -87.63182, 41.96815 ], [ -87.63197, 41.96854 ], [ -87.63177, 41.96877 ], [ -87.6314, 41.96886 ], [ -87.63108, 41.96877 ], [ -87.63088, 41.96854 ], [ -87.63191, 41.96592 ], [ -87.63167, 41.96404 ], [ -87.631, 41.96323 ], [ -87.63145, 41.96245 ], [ -87.63422, 41.96138 ], [ -87.63599, 41.9599 ], [ -87.63746, 41.95937 ], [ -87.6401, 41.95967 ], [ -87.64037, 41.95921 ], [ -87.64016, 41.95969 ], [ -87.6408, 41.95998 ], [ -87.64095, 41.96049 ], [ -87.64038, 41.9609 ], [ -87.63882, 41.96029 ], [ -87.63703, 41.9606 ], [ -87.63607, 41.96117 ], [ -87.6354, 41.96194 ], [ -87.63537, 41.96243 ], [ -87.63573, 41.96277 ], [ -87.63685, 41.96288 ], [ -87.64125, 41.96234 ], [ -87.64185, 41.9621 ], [ -87.64224, 41.96162 ], [ -87.64223, 41.96103 ], [ -87.64153, 41.96018 ], [ -87.64161, 41.9594 ], [ -87.64102, 41.95935 ], [ -87.64163, 41.95933 ], [ -87.64175, 41.95836 ], [ -87.64101, 41.95476 ], [ -87.63804, 41.94827 ], [ -87.64074, 41.94762 ], [ -87.64221, 41.94687 ], [ -87.6418, 41.94616 ], [ -87.64574, 41.94484 ], [ -87.64615, 41.9455 ], [ -87.64943, 41.94546 ], [ -87.64954, 41.94912 ], [ -87.65317, 41.94906 ], [ -87.65323, 41.95114 ], [ -87.65681, 41.95109 ], [ -87.65679, 41.95445 ], [ -87.66225, 41.95438 ], [ -87.66083, 41.95258 ], [ -87.66417, 41.95253 ], [ -87.66412, 41.95071 ], [ -87.66575, 41.95069 ], [ -87.66576, 41.95114 ], [ -87.66897, 41.9511 ], [ -87.66905, 41.95429 ], [ -87.66422, 41.95435 ], [ -87.66426, 41.95762 ], [ -87.66599, 41.96175 ], [ -87.6675, 41.9689 ], [ -87.66105, 41.96902 ], [ -87.66111, 41.97144 ], [ -87.65946, 41.97151 ], [ -87.65042, 41.97164 ], [ -87.64964, 41.96917 ] ] ] } },
{ "type": "Feature", "properties": { "id": "47", "name": "47", "street_miles": 64.07, "any_miles": 16.91, "low_stress_miles": 8.14, "any_pct": 26.39, "low_stress_pct": 12.7 }, "geometry": { "type": "Polygon", "coordinates": [ [ [ -87.65987, 41.97632 ], [ -87.65977, 41.97268 ], [ -87.66114, 41.97265 ], [ -87.66105, 41.96902 ], [ -87.6675, 41.9689 ], [ -87.66599, 41.96175 ], [ -87.66426, 41.95762 ], [ -87.66422, 41.95435 ], [ -87.66905, 41.95429 ], [ -87.66897, 41.9511 ], [ -87.66576, 41.95114 ], [ -87.66575, 41.95069 ], [ -87.66653, 41.95067 ], [ -87.66643, 41.94653 ], [ -87.66582, 41.94654 ], [ -87.66575, 41.94378 ], [ -87.66514, 41.94379 ], [ -87.66513, 41.9434 ], [ -87.67603, 41.94325 ], [ -87.67608, 41.94506 ], [ -87.67971, 41.94503 ], [ -87.67975, 41.94638 ], [ -87.68097, 41.94636 ], [ -87.68098, 41.94683 ], [ -87.68826, 41.94673 ], [ -87.68799, 41.9361 ], [ -87.68853, 41.93645 ], [ -87.69007, 41.93665 ], [ -87.69149, 41.93879 ], [ -87.69363, 41.94026 ], [ -87.69543, 41.9432 ], [ -87.69686, 41.95001 ], [ -87.69455, 41.95392 ], [ -87.69427, 41.95703 ], [ -87.6947, 41.9611 ], [ -87.69562, 41.96318 ], [ -87.6986, 41.9662 ], [ -87.69746, 41.96621 ], [ -87.69798, 41.96671 ], [ -87.68885, 41.96676 ], [ -87.68896, 41.97041 ], [ -87.67924, 41.97057 ], [ -87.6793, 41.9724 ], [ -87.67631, 41.97244 ], [ -87.67632, 41.97331 ], [ -87.66956, 41.97344 ], [ -87.66958, 41.97434 ], [ -87.66821, 41.97437 ], [ -87.66842, 41.97619 ], [ -87.65987, 41.97632 ] ] ] } },
{ "type": "Feature", "properties": { "id": "48", "name": "48", "street_miles": 29.33, "any_miles": 8.88, "low_stress_miles": 7.36, "any_pct": 30.26, "low_stress_pct": 25.08 }, "geometry": { "type": "Polygon", "coordinates": [ [ [ -87.6443, 41.9699 ], [ -87.64964, 41.96917 ], [ -87.65042, 41.97164 ], [ -87.66111, 41.97144 ], [ -87.66114, 41.97265 ], [ -87.65977, 41.97268 ], [ -87.65987, 41.97632 ], [ -87.66842, 41.97619 ], [ -87.66841, 41.98153 ], [ -87.66985, 41.98842 ], [ -87.67023, 41.99646 ], [ -87.67059, 41.99808 ], [ -87.6546, 41.99824 ], [ -87.65426, 41.99599 ], [ -87.65466, 41.99594 ], [ -87.6546, 41.99453 ], [ -87.65427, 41.99411 ], [ -87.65453, 41.99339 ], [ -87.65409, 41.99301 ], [ -87.65441, 41.99099 ], [ -87.65419, 41.99029 ], [ -87.65431, 41.98841 ], [ -87.65354, 41.98757 ], [ -87.65098, 41.98572 ], [ -87.64989, 41.98542 ], [ -87.64935, 41.98639 ], [ -87.65068, 41.98319 ], [ -87.65067, 41.98066 ], [ -87.65022, 41.97972 ], [ -87.65048, 41.97946 ], [ -87.6486, 41.97784 ], [ -87.64737, 41.97776 ], [ -87.64669, 41.97747 ], [ -87.64611, 41.97781 ], [ -87.64666, 41.97744 ], [ -87.64637, 41.97692 ], [ -87.64621, 41.9731 ], [ -87.64545, 41.97146 ], [ -87.6443, 41.9699 ] ] ] } },
{ "type": "Feature", "properties": { "id": "49", "name": "49", "street_miles": 36.82, "any_miles": 8.21, "low_stress_miles": 3.58, "any_pct": 22.3, "low_stress_pct": 9.74 }, "geometry": { "type": "Polygon", "coordinates": [ [ [ -87.65729, 42.00418 ], [ -87.65565, 41.99961 ], [ -87.65468, 41.99833 ], [ -87.67059, 41.99808 ], [ -87.67186, 42.0017 ], [ -87.67512, 42.00165 ], [ -87.6752, 42.00437 ], [ -87.67976, 42.00431 ], [ -87.68193, 42.00905 ], [ -87.68305, 42.01222 ], [ -87.68756, 42.01225 ], [ -87.68751, 42.01737 ], [ -87.6902, 42.01744 ], [ -87.69017, 42.01953 ], [ -87.67312, 42.01939 ], [ -87.67624, 42.02193 ], [ -87.67706, 42.02304 ], [ -87.66513, 42.02295 ], [ -87.66527, 42.02262 ], [ -87.66479, 42.02222 ], [ -87.66465, 42.02161 ], [ -87.66401, 42.02133 ], [ -87.66373, 42.02036 ], [ -87.66401, 42.02018 ], [ -87.66393, 42.0196 ], [ -87.66364, 42.01937 ], [ -87.66398, 42.01908 ], [ -87.66328, 42.01843 ], [ -87.66309, 42.01685 ], [ -87.66281, 42.01665 ], [ -87.66103, 42.01205 ], [ -87.65895, 42.00976 ], [ -87.65646, 42.00742 ], [ -87.65535, 42.00669 ], [ -87.65584, 42.00631 ], [ -87.65739, 42.00628 ], [ -87.65731, 42.00507 ], [ -87.65682, 42.00425 ], [ -87.65729, 42.00418 ] ] ] } },
{ "type": "Feature", "properties": { "id": "50", "name": "50", "street_miles": 57.81, "any_miles": 4.4, "low_stress_miles": 0.88, "any_pct": 7.61, "low_stress_pct": 1.52 }, "geometry": { "type": "Polygon", "coordinates": [ [ [ -87.68189, 42.00896 ], [ -87.68266, 42.00893 ], [ -87.68242, 42.00838 ], [ -87.69015, 42.00805 ], [ -87.69016, 42.00863 ], [ -87.69497, 42.00856 ], [ -87.69495, 42.00495 ], [ -87.69068, 42.00502 ], [ -87.6907, 42.00592 ], [ -87.69009, 42.00593 ], [ -87.68993, 41.99954 ], [ -87.6875, 41.99959 ], [ -87.68751, 42.00004 ], [ -87.67794, 42.00036 ], [ -87.67684, 41.99796 ], [ -87.68257, 41.99785 ], [ -87.68239, 41.99422 ], [ -87.6983, 41.99399 ], [ -87.69818, 41.99045 ], [ -87.70304, 41.99042 ], [ -87.70297, 41.98834 ], [ -87.70331, 41.98797 ], [ -87.69924, 41.98554 ], [ -87.69916, 41.98312 ], [ -87.7069, 41.98308 ], [ -87.70909, 41.99038 ], [ -87.72136, 41.99023 ], [ -87.72137, 41.99066 ], [ -87.72199, 41.99068 ], [ -87.72206, 41.99372 ], [ -87.7233, 41.99372 ], [ -87.72336, 41.99681 ], [ -87.72275, 41.99679 ], [ -87.72279, 41.99726 ], [ -87.70945, 41.99739 ], [ -87.70901, 42.01913 ], [ -87.69017, 42.01953 ], [ -87.6902, 42.01744 ], [ -87.68751, 42.01737 ], [ -87.68756, 42.01225 ], [ -87.68305, 42.01222 ], [ -87.68189, 42.00896 ] ] ] } }
]
}
